{
 "type": "FeatureCollection",
 "countryCode": "al",
 "features": [
  {
   "type": "Feature",
   "properties": {
    "ll": {
     "value": 0,
     "unit": 1,
     "referenceDatum": 0
    },
    "ul": {
     "value": 150,
     "unit": 6,
     "referenceDatum": 2
    },
    "_id": "626142711e911989f7b2c052",
    "name": "LA D2 BIZA (NOTAM)",
    "type": 2,
    "icao": 7,
    "bnd": [
     [
      41.3066667,
      20.14
     ],
     [
      41.39,
      20.24
     ]
    ]
   },
   "geometry": {
    "type": "Polygon",
    "coordinates": [
     [
      [
       20.18,
       41.39
      ],
      [
       20.24,
       41.35
      ],
      [
       20.18,
       41.3066667
      ],
      [
       20.14,
       41.35
      ],
      [
       20.18,
       41.39
      ]
     ]
    ]
   }
  },
  {
   "type": "Feature",
   "properties": {
    "ll": {
     "value": 0,
     "unit": 1,
     "referenceDatum": 0
    },
    "ul": {
     "value": 285,
     "unit": 6,
     "referenceDatum": 2
    },
    "_id": "626142711e911989f7b2c049",
    "name": "LA-D1 RRETH GRETHI (NOTAM)",
    "type": 2,
    "icao": 7,
    "bnd": [
     [
      40.95,
      19.1
     ],
     [
      41.1602778,
      19.5
     ]
    ]
   },
   "geometry": {
    "type": "Polygon",
    "coordinates": [
     [
      [
       19.3422222,
       41.1602778
      ],
      [
       19.4602778,
       41.1155556
      ],
      [
       19.5,
       41.0880556
      ],
      [
       19.5,
       40.9666667
      ],
      [
       19.1,
       40.95
      ],
      [
       19.1,
       41.15
      ],
      [
       19.3422222,
       41.1602778
      ]
     ]
    ]
   }
  },
  {
   "type": "Feature",
   "properties": {
    "ll": {
     "value": 0,
     "unit": 1,
     "referenceDatum": 0
    },
    "ul": {
     "value": 2500,
     "unit": 1,
     "referenceDatum": 1
    },
    "_id": "626142711e911989f7b2c04b",
    "name": "LA-R1 KUCOVA",
    "type": 1,
    "icao": 7,
    "bnd": [
     [
      40.7219919,
      19.8359819
     ],
     [
      40.8219107,
      19.9678505
     ]
    ]
   },
   "geometry": {
    "type": "Polygon",
    "coordinates": [
     [
      [
       19.9019444,
       40.8219107
      ],
      [
       19.9095528,
       40.8215776
      ],
      [
       19.9170595,
       40.8205828
      ],
      [
       19.9243644,
       40.8189396
      ],
      [
       19.93137,
       40.8166699
      ],
      [
       19.9379828,
       40.813804
      ],
      [
       19.9441146,
       40.8103801
      ],
      [
       19.9496837,
       40.806444
      ],
      [
       19.9546157,
       40.8020482
      ],
      [
       19.9588451,
       40.7972513
      ],
      [
       19.9623156,
       40.7921174
      ],
      [
       19.964981,
       40.7867148
      ],
      [
       19.9668062,
       40.7811156
      ],
      [
       19.9677669,
       40.7753945
      ],
      [
       19.9678505,
       40.7696276
      ],
      [
       19.9670562,
       40.7638919
      ],
      [
       19.9653948,
       40.7582636
      ],
      [
       19.9628886,
       40.7528179
      ],
      [
       19.9595712,
       40.747627
      ],
      [
       19.955487,
       40.7427602
      ],
      [
       19.9506903,
       40.7382822
      ],
      [
       19.9452453,
       40.7342526
      ],
      [
       19.9392243,
       40.7307249
      ],
      [
       19.9327076,
       40.7277461
      ],
      [
       19.9257819,
       40.7253558
      ],
      [
       19.9185393,
       40.7235857
      ],
      [
       19.9110761,
       40.7224594
      ],
      [
       19.9034915,
       40.7219919
      ],
      [
       19.8958864,
       40.7221894
      ],
      [
       19.8883617,
       40.7230493
      ],
      [
       19.8810177,
       40.72456
      ],
      [
       19.8739518,
       40.7267016
      ],
      [
       19.8672581,
       40.7294456
      ],
      [
       19.8610256,
       40.7327555
      ],
      [
       19.8553373,
       40.7365872
      ],
      [
       19.8502689,
       40.7408899
      ],
      [
       19.8458879,
       40.7456062
      ],
      [
       19.8422529,
       40.7506734
      ],
      [
       19.8394124,
       40.7560242
      ],
      [
       19.8374043,
       40.7615872
      ],
      [
       19.8362557,
       40.7672884
      ],
      [
       19.8359819,
       40.7730519
      ],
      [
       19.836587,
       40.7788008
      ],
      [
       19.8380631,
       40.7844587
      ],
      [
       19.8403907,
       40.78995
      ],
      [
       19.8435389,
       40.7952017
      ],
      [
       19.8474661,
       40.8001435
      ],
      [
       19.85212,
       40.8047097
      ],
      [
       19.8574386,
       40.8088394
      ],
      [
       19.8633512,
       40.8124773
      ],
      [
       19.8697788,
       40.815575
      ],
      [
       19.8766357,
       40.8180912
      ],
      [
       19.8838306,
       40.8199921
      ],
      [
       19.8912673,
       40.8212526
      ],
      [
       19.8988465,
       40.8218556
      ],
      [
       19.9019444,
       40.8219107
      ]
     ]
    ]
   }
  },
  {
   "type": "Feature",
   "properties": {
    "ll": {
     "value": 0,
     "unit": 1,
     "referenceDatum": 0
    },
    "ul": {
     "value": 2500,
     "unit": 1,
     "referenceDatum": 1
    },
    "_id": "626142711e911989f7b2c06a",
    "name": "LA-R2 GJADRI",
    "type": 1,
    "icao": 7,
    "bnd": [
     [
      41.8436586,
      19.5323362
     ],
     [
      41.9435774,
      19.6664951
     ]
    ]
   },
   "geometry": {
    "type": "Polygon",
    "coordinates": [
     [
      [
       19.5994444,
       41.9435774
      ],
      [
       19.6071851,
       41.9432443
      ],
      [
       19.6148225,
       41.9422494
      ],
      [
       19.6222545,
       41.9406062
      ],
      [
       19.6293819,
       41.9383364
      ],
      [
       19.6361097,
       41.9354704
      ],
      [
       19.6423481,
       41.9320465
      ],
      [
       19.6480138,
       41.9281103
      ],
      [
       19.6530315,
       41.9237144
      ],
      [
       19.6573343,
       41.9189174
      ],
      [
       19.6608649,
       41.9137834
      ],
      [
       19.6635765,
       41.9083808
      ],
      [
       19.6654331,
       41.9027815
      ],
      [
       19.6664102,
       41.8970604
      ],
      [
       19.6664951,
       41.8912935
      ],
      [
       19.6656868,
       41.8855578
      ],
      [
       19.6639963,
       41.8799296
      ],
      [
       19.6614464,
       41.8744839
      ],
      [
       19.6580713,
       41.8692931
      ],
      [
       19.653916,
       41.8644264
      ],
      [
       19.649036,
       41.8599485
      ],
      [
       19.6434963,
       41.8559189
      ],
      [
       19.6373709,
       41.8523913
      ],
      [
       19.6307411,
       41.8494126
      ],
      [
       19.6236953,
       41.8470223
      ],
      [
       19.6163271,
       41.8452523
      ],
      [
       19.6087344,
       41.8441261
      ],
      [
       19.6010183,
       41.8436586
      ],
      [
       19.5932813,
       41.8438561
      ],
      [
       19.5856262,
       41.8447159
      ],
      [
       19.5781548,
       41.8462266
      ],
      [
       19.5709664,
       41.8483682
      ],
      [
       19.5641565,
       41.8511121
      ],
      [
       19.5578159,
       41.8544219
      ],
      [
       19.5520288,
       41.8582535
      ],
      [
       19.5468723,
       41.8625561
      ],
      [
       19.5424152,
       41.8672723
      ],
      [
       19.538717,
       41.8723395
      ],
      [
       19.5358269,
       41.8776902
      ],
      [
       19.5337838,
       41.8832531
      ],
      [
       19.5326149,
       41.8889543
      ],
      [
       19.5323362,
       41.8947178
      ],
      [
       19.5329516,
       41.9004668
      ],
      [
       19.5344531,
       41.9061246
      ],
      [
       19.5368209,
       41.911616
      ],
      [
       19.5400237,
       41.9168677
      ],
      [
       19.544019,
       41.9218097
      ],
      [
       19.5487536,
       41.926376
      ],
      [
       19.5541646,
       41.9305057
      ],
      [
       19.5601799,
       41.9341437
      ],
      [
       19.5667192,
       41.9372415
      ],
      [
       19.5736954,
       41.9397577
      ],
      [
       19.5810154,
       41.9416588
      ],
      [
       19.5885815,
       41.9429192
      ],
      [
       19.5962926,
       41.9435223
      ],
      [
       19.5994444,
       41.9435774
      ]
     ]
    ]
   }
  },
  {
   "type": "Feature",
   "properties": {
    "ll": {
     "value": 0,
     "unit": 1,
     "referenceDatum": 0
    },
    "ul": {
     "value": 5500,
     "unit": 1,
     "referenceDatum": 1
    },
    "_id": "626142711e911989f7b2c074",
    "name": "LA-R3A FARKA",
    "type": 1,
    "icao": 7,
    "bnd": [
     [
      41.2,
      19.8552778
     ],
     [
      41.3666667,
      20
     ]
    ]
   },
   "geometry": {
    "type": "Polygon",
    "coordinates": [
     [
      [
       19.8558333,
       41.3141667
      ],
      [
       19.8833333,
       41.3666667
      ],
      [
       20,
       41.3666667
      ],
      [
       20,
       41.2
      ],
      [
       19.9475,
       41.2
      ],
      [
       19.925,
       41.2336111
      ],
      [
       19.8552778,
       41.2927778
      ],
      [
       19.8558333,
       41.3141667
      ]
     ]
    ]
   }
  },
  {
   "type": "Feature",
   "properties": {
    "ll": {
     "value": 0,
     "unit": 1,
     "referenceDatum": 0
    },
    "ul": {
     "value": 2000,
     "unit": 1,
     "referenceDatum": 1
    },
    "_id": "626142711e911989f7b2c070",
    "name": "LA-R3B FARKA",
    "type": 1,
    "icao": 7,
    "bnd": [
     [
      41.1666667,
      19.8
     ],
     [
      41.2547222,
      19.9333333
     ]
    ]
   },
   "geometry": {
    "type": "Polygon",
    "coordinates": [
     [
      [
       19.8544444,
       41.2547222
      ],
      [
       19.9333333,
       41.2
      ],
      [
       19.8333333,
       41.1666667
      ],
      [
       19.8,
       41.2166667
      ],
      [
       19.8,
       41.2547222
      ],
      [
       19.8544444,
       41.2547222
      ]
     ]
    ]
   }
  },
  {
   "type": "Feature",
   "properties": {
    "ll": {
     "value": 0,
     "unit": 1,
     "referenceDatum": 0
    },
    "ul": {
     "value": 3000,
     "unit": 1,
     "referenceDatum": 1
    },
    "_id": "626142711e911989f7b2c094",
    "name": "LA-R3C FARKA",
    "type": 1,
    "icao": 7,
    "bnd": [
     [
      41.2,
      19.8544444
     ],
     [
      41.2927778,
      19.9475
     ]
    ]
   },
   "geometry": {
    "type": "Polygon",
    "coordinates": [
     [
      [
       19.8544444,
       41.2547222
      ],
      [
       19.8552778,
       41.2927778
      ],
      [
       19.925,
       41.2336111
      ],
      [
       19.9475,
       41.2
      ],
      [
       19.9333333,
       41.2
      ],
      [
       19.8544444,
       41.2547222
      ]
     ]
    ]
   }
  },
  {
   "type": "Feature",
   "properties": {
    "ll": {
     "value": 0,
     "unit": 1,
     "referenceDatum": 0
    },
    "ul": {
     "value": 3500,
     "unit": 1,
     "referenceDatum": 1
    },
    "_id": "626142711e911989f7b2c0a9",
    "name": "LA-R4 KOPLIKU",
    "type": 1,
    "icao": 7,
    "bnd": [
     [
      42.1877778,
      19.2905556
     ],
     [
      42.2438889,
      19.3766667
     ]
    ]
   },
   "geometry": {
    "type": "Polygon",
    "coordinates": [
     [
      [
       19.2905556,
       42.1877778
      ],
      [
       19.35,
       42.2402778
      ],
      [
       19.3522222,
       42.2438889
      ],
      [
       19.3766667,
       42.2077778
      ],
      [
       19.3480556,
       42.1983333
      ],
      [
       19.3161111,
       42.1913889
      ],
      [
       19.2905556,
       42.1877778
      ]
     ]
    ]
   }
  },
  {
   "type": "Feature",
   "properties": {
    "ll": {
     "value": 0,
     "unit": 1,
     "referenceDatum": 0
    },
    "ul": {
     "value": 2500,
     "unit": 1,
     "referenceDatum": 1
    },
    "_id": "626142711e911989f7b2c0c2",
    "name": "LA-TRA1A KUCOVA (NOTAM)",
    "type": 1,
    "icao": 7,
    "bnd": [
     [
      40.8638889,
      19.3222222
     ],
     [
      41.1,
      20.15
     ]
    ]
   },
   "geometry": {
    "type": "Polygon",
    "coordinates": [
     [
      [
       20.15,
       41.1
      ],
      [
       20.1402778,
       40.8638889
      ],
      [
       19.3836111,
       40.8641667
      ],
      [
       19.3222222,
       40.9263889
      ],
      [
       20.15,
       41.1
      ]
     ]
    ]
   }
  },
  {
   "type": "Feature",
   "properties": {
    "ll": {
     "value": 0,
     "unit": 1,
     "referenceDatum": 0
    },
    "ul": {
     "value": 10000,
     "unit": 1,
     "referenceDatum": 1
    },
    "_id": "626142711e911989f7b2c0b9",
    "name": "LA-TRA1B KUCOVA (NOTAM)",
    "type": 1,
    "icao": 7,
    "bnd": [
     [
      40.6,
      19.2
     ],
     [
      40.9263889,
      19.5833333
     ]
    ]
   },
   "geometry": {
    "type": "Polygon",
    "coordinates": [
     [
      [
       19.3222222,
       40.9263889
      ],
      [
       19.3836111,
       40.8641667
      ],
      [
       19.5816667,
       40.8647222
      ],
      [
       19.5833333,
       40.6
      ],
      [
       19.2,
       40.7666667
      ],
      [
       19.2,
       40.9
      ],
      [
       19.3222222,
       40.9263889
      ]
     ]
    ]
   }
  },
  {
   "type": "Feature",
   "properties": {
    "ll": {
     "value": 0,
     "unit": 1,
     "referenceDatum": 0
    },
    "ul": {
     "value": 10000,
     "unit": 1,
     "referenceDatum": 1
    },
    "_id": "626142711e911989f7b2c0bc",
    "name": "LA-TRA1C KUCOVA (NOTAM)",
    "type": 1,
    "icao": 7,
    "bnd": [
     [
      40.6,
      19.5816667
     ],
     [
      40.8647222,
      20.1402778
     ]
    ]
   },
   "geometry": {
    "type": "Polygon",
    "coordinates": [
     [
      [
       19.5833333,
       40.6
      ],
      [
       19.5816667,
       40.8647222
      ],
      [
       20.1402778,
       40.8638889
      ],
      [
       20.1333333,
       40.7
      ],
      [
       19.5833333,
       40.6
      ]
     ]
    ]
   }
  },
  {
   "type": "Feature",
   "properties": {
    "ll": {
     "value": 0,
     "unit": 1,
     "referenceDatum": 0
    },
    "ul": {
     "value": 10000,
     "unit": 1,
     "referenceDatum": 1
    },
    "_id": "626142721e911989f7b2c0d9",
    "name": "LA-TRA2A GJADRI (NOTAM)",
    "type": 1,
    "icao": 7,
    "bnd": [
     [
      41.9808333,
      19.5280556
     ],
     [
      42.25,
      20.1255556
     ]
    ]
   },
   "geometry": {
    "type": "Polygon",
    "coordinates": [
     [
      [
       19.95,
       42.25
      ],
      [
       20.1255556,
       41.9869444
      ],
      [
       19.5280556,
       41.9808333
      ],
      [
       19.95,
       42.25
      ]
     ]
    ]
   }
  },
  {
   "type": "Feature",
   "properties": {
    "ll": {
     "value": 0,
     "unit": 1,
     "referenceDatum": 0
    },
    "ul": {
     "value": 2500,
     "unit": 1,
     "referenceDatum": 1
    },
    "_id": "626142721e911989f7b2c0e4",
    "name": "LA-TRA2B GJADRI (NOTAM)",
    "type": 1,
    "icao": 7,
    "bnd": [
     [
      41.75,
      19.5280556
     ],
     [
      41.9869444,
      20.1255556
     ]
    ]
   },
   "geometry": {
    "type": "Polygon",
    "coordinates": [
     [
      [
       19.5280556,
       41.9808333
      ],
      [
       20.1255556,
       41.9869444
      ],
      [
       20.125,
       41.7511111
      ],
      [
       19.5297222,
       41.75
      ],
      [
       19.5280556,
       41.9808333
      ]
     ]
    ]
   }
  },
  {
   "type": "Feature",
   "properties": {
    "ll": {
     "value": 120,
     "unit": 6,
     "referenceDatum": 2
    },
    "ul": {
     "value": 285,
     "unit": 6,
     "referenceDatum": 2
    },
    "_id": "626142721e911989f7b2c0dc",
    "name": "LA-TSA1 (NOTAM)",
    "type": 1,
    "icao": 7,
    "bnd": [
     [
      40.3308333,
      20.1819444
     ],
     [
      41.1036111,
      20.9183333
     ]
    ]
   },
   "geometry": {
    "type": "Polygon",
    "coordinates": [
     [
      [
       20.6169444,
       40.3308333
      ],
      [
       20.1819444,
       40.8313889
      ],
      [
       20.4927778,
       41.1036111
      ],
      [
       20.9183333,
       40.5808333
      ],
      [
       20.6169444,
       40.3308333
      ]
     ]
    ]
   }
  },
  {
   "type": "Feature",
   "properties": {
    "ll": {
     "value": 0,
     "unit": 1,
     "referenceDatum": 0
    },
    "ul": {
     "value": 2500,
     "unit": 1,
     "referenceDatum": 1
    },
    "_id": "626142721e911989f7b2c0eb",
    "name": "TIRANA CTR 122.500",
    "type": 4,
    "icao": 3,
    "bnd": [
     [
      41.2463889,
      19.5377778
     ],
     [
      41.6,
      19.8411111
     ]
    ]
   },
   "geometry": {
    "type": "Polygon",
    "coordinates": [
     [
      [
       19.8411111,
       41.2616667
      ],
      [
       19.7727778,
       41.2616667
      ],
      [
       19.7727778,
       41.2466667
      ],
      [
       19.5952778,
       41.2463889
      ],
      [
       19.5377778,
       41.6
      ],
      [
       19.7894444,
       41.6
      ],
      [
       19.8411111,
       41.2616667
      ]
     ]
    ]
   }
  },
  {
   "type": "Feature",
   "properties": {
    "ll": {
     "value": 2500,
     "unit": 1,
     "referenceDatum": 1
    },
    "ul": {
     "value": 195,
     "unit": 6,
     "referenceDatum": 2
    },
    "_id": "626142721e911989f7b2c0e7",
    "name": "TIRANA TMA",
    "type": 0,
    "icao": 2,
    "bnd": [
     [
      40.8638889,
      19.0019444
     ],
     [
      41.9872222,
      20.1763889
     ]
    ]
   },
   "geometry": {
    "type": "Polygon",
    "coordinates": [
     [
      [
       19.3836111,
       40.8641667
      ],
      [
       19.0019444,
       41.2488889
      ],
      [
       19.1,
       41.4583333
      ],
      [
       19.4530556,
       41.9797222
      ],
      [
       20.1763889,
       41.9872222
      ],
      [
       20.1705556,
       40.8638889
      ],
      [
       19.3836111,
       40.8641667
      ]
     ]
    ]
   }
  }
 ]
}