{
 "type": "FeatureCollection",
 "countryCode": "mu",
 "features": [
  {
   "type": "Feature",
   "properties": {
    "ll": {
     "value": 0,
     "unit": 1,
     "referenceDatum": 0
    },
    "ul": {
     "value": 3500,
     "unit": 1,
     "referenceDatum": 1
    },
    "_id": "62de4955bf705b00d6cdfacf",
    "name": "MAURITIUS CTR",
    "type": 4,
    "icao": 2,
    "bnd": [
     [
      -20.6698312,
      57.3956392
     ],
     [
      -20.1701688,
      57.9288052
     ]
    ]
   },
   "geometry": {
    "type": "Polygon",
    "coordinates": [
     [
      [
       57.6622222,
       -20.1701688
      ],
      [
       57.6538622,
       -20.1702919
      ],
      [
       57.6455103,
       -20.170661
      ],
      [
       57.6371748,
       -20.1712758
      ],
      [
       57.628864,
       -20.1721356
      ],
      [
       57.6205859,
       -20.1732397
      ],
      [
       57.6123487,
       -20.1745869
      ],
      [
       57.6041605,
       -20.1761759
      ],
      [
       57.5960294,
       -20.1780052
      ],
      [
       57.5879632,
       -20.180073
      ],
      [
       57.57997,
       -20.1823771
      ],
      [
       57.5720576,
       -20.1849155
      ],
      [
       57.5642338,
       -20.1876855
      ],
      [
       57.5565062,
       -20.1906844
      ],
      [
       57.5488825,
       -20.1939094
      ],
      [
       57.5413702,
       -20.1973572
      ],
      [
       57.5339766,
       -20.2010244
      ],
      [
       57.5267091,
       -20.2049075
      ],
      [
       57.5195747,
       -20.2090026
      ],
      [
       57.5125805,
       -20.2133057
      ],
      [
       57.5057335,
       -20.2178126
      ],
      [
       57.4990402,
       -20.2225188
      ],
      [
       57.4925074,
       -20.2274197
      ],
      [
       57.4861414,
       -20.2325105
      ],
      [
       57.4799486,
       -20.2377863
      ],
      [
       57.473935,
       -20.2432417
      ],
      [
       57.4681066,
       -20.2488714
      ],
      [
       57.4624692,
       -20.25467
      ],
      [
       57.4570282,
       -20.2606316
      ],
      [
       57.4517891,
       -20.2667505
      ],
      [
       57.4467571,
       -20.2730206
      ],
      [
       57.4419371,
       -20.2794358
      ],
      [
       57.4373339,
       -20.2859896
      ],
      [
       57.4329521,
       -20.2926758
      ],
      [
       57.4287959,
       -20.2994876
      ],
      [
       57.4248696,
       -20.3064184
      ],
      [
       57.421177,
       -20.3134614
      ],
      [
       57.4177218,
       -20.3206096
      ],
      [
       57.4145074,
       -20.3278561
      ],
      [
       57.4115371,
       -20.3351935
      ],
      [
       57.4088137,
       -20.3426148
      ],
      [
       57.40634,
       -20.3501126
      ],
      [
       57.4041185,
       -20.3576795
      ],
      [
       57.4021514,
       -20.3653081
      ],
      [
       57.4004407,
       -20.3729908
      ],
      [
       57.3989881,
       -20.3807201
      ],
      [
       57.3977951,
       -20.3884884
      ],
      [
       57.3968629,
       -20.3962879
      ],
      [
       57.3961924,
       -20.4041111
      ],
      [
       57.3957844,
       -20.4119501
      ],
      [
       57.3956392,
       -20.4197972
      ],
      [
       57.3957572,
       -20.4276448
      ],
      [
       57.3961381,
       -20.435485
      ],
      [
       57.3967818,
       -20.4433101
      ],
      [
       57.3976875,
       -20.4511124
      ],
      [
       57.3988544,
       -20.4588842
      ],
      [
       57.4002814,
       -20.4666178
      ],
      [
       57.4019672,
       -20.4743056
      ],
      [
       57.40391,
       -20.48194
      ],
      [
       57.4061081,
       -20.4895134
      ],
      [
       57.4085593,
       -20.4970184
      ],
      [
       57.4112612,
       -20.5044475
      ],
      [
       57.4142112,
       -20.5117933
      ],
      [
       57.4174063,
       -20.5190488
      ],
      [
       57.4208436,
       -20.5262065
      ],
      [
       57.4245195,
       -20.5332596
      ],
      [
       57.4284305,
       -20.540201
      ],
      [
       57.4325728,
       -20.5470238
      ],
      [
       57.4369423,
       -20.5537213
      ],
      [
       57.4415347,
       -20.5602868
      ],
      [
       57.4463455,
       -20.5667139
      ],
      [
       57.45137,
       -20.5729963
      ],
      [
       57.4566031,
       -20.5791276
      ],
      [
       57.4620398,
       -20.5851018
      ],
      [
       57.4676747,
       -20.5909131
      ],
      [
       57.4735023,
       -20.5965555
      ],
      [
       57.4795167,
       -20.6020237
      ],
      [
       57.4857121,
       -20.6073121
      ],
      [
       57.4920823,
       -20.6124155
      ],
      [
       57.498621,
       -20.6173289
      ],
      [
       57.5053219,
       -20.6220473
      ],
      [
       57.5121782,
       -20.6265662
      ],
      [
       57.5191831,
       -20.630881
      ],
      [
       57.5263298,
       -20.6349874
      ],
      [
       57.5336112,
       -20.6388815
      ],
      [
       57.5410201,
       -20.6425592
      ],
      [
       57.5485491,
       -20.6460171
      ],
      [
       57.5561907,
       -20.6492516
      ],
      [
       57.5639375,
       -20.6522596
      ],
      [
       57.5717817,
       -20.655038
      ],
      [
       57.5797156,
       -20.6575841
      ],
      [
       57.5877313,
       -20.6598955
      ],
      [
       57.5958209,
       -20.6619697
      ],
      [
       57.6039763,
       -20.6638048
      ],
      [
       57.6121894,
       -20.6653988
      ],
      [
       57.6204522,
       -20.6667504
      ],
      [
       57.6287564,
       -20.667858
      ],
      [
       57.6370938,
       -20.6687206
      ],
      [
       57.6454561,
       -20.6693374
      ],
      [
       57.653835,
       -20.6697077
      ],
      [
       57.6622222,
       -20.6698312
      ],
      [
       57.6706095,
       -20.6697077
      ],
      [
       57.6789884,
       -20.6693374
      ],
      [
       57.6873507,
       -20.6687206
      ],
      [
       57.6956881,
       -20.667858
      ],
      [
       57.7039923,
       -20.6667504
      ],
      [
       57.712255,
       -20.6653988
      ],
      [
       57.7204682,
       -20.6638048
      ],
      [
       57.7286236,
       -20.6619697
      ],
      [
       57.7367131,
       -20.6598955
      ],
      [
       57.7447288,
       -20.6575841
      ],
      [
       57.7526627,
       -20.655038
      ],
      [
       57.7605069,
       -20.6522596
      ],
      [
       57.7682537,
       -20.6492516
      ],
      [
       57.7758954,
       -20.6460171
      ],
      [
       57.7834244,
       -20.6425592
      ],
      [
       57.7908332,
       -20.6388815
      ],
      [
       57.7981146,
       -20.6349874
      ],
      [
       57.8052613,
       -20.630881
      ],
      [
       57.8122663,
       -20.6265662
      ],
      [
       57.8191226,
       -20.6220473
      ],
      [
       57.8258234,
       -20.6173289
      ],
      [
       57.8323622,
       -20.6124155
      ],
      [
       57.8387324,
       -20.6073121
      ],
      [
       57.8449277,
       -20.6020237
      ],
      [
       57.8509422,
       -20.5965555
      ],
      [
       57.8567697,
       -20.5909131
      ],
      [
       57.8624046,
       -20.5851018
      ],
      [
       57.8678413,
       -20.5791276
      ],
      [
       57.8730745,
       -20.5729963
      ],
      [
       57.8780989,
       -20.5667139
      ],
      [
       57.8829097,
       -20.5602868
      ],
      [
       57.8875021,
       -20.5537213
      ],
      [
       57.8918716,
       -20.5470238
      ],
      [
       57.8960139,
       -20.540201
      ],
      [
       57.8999249,
       -20.5332596
      ],
      [
       57.9036009,
       -20.5262065
      ],
      [
       57.9070381,
       -20.5190488
      ],
      [
       57.9102333,
       -20.5117933
      ],
      [
       57.9131832,
       -20.5044475
      ],
      [
       57.9158851,
       -20.4970184
      ],
      [
       57.9183363,
       -20.4895134
      ],
      [
       57.9205344,
       -20.48194
      ],
      [
       57.9224773,
       -20.4743056
      ],
      [
       57.924163,
       -20.4666178
      ],
      [
       57.9255901,
       -20.4588842
      ],
      [
       57.926757,
       -20.4511124
      ],
      [
       57.9276627,
       -20.4433101
      ],
      [
       57.9283063,
       -20.435485
      ],
      [
       57.9286873,
       -20.4276448
      ],
      [
       57.9288052,
       -20.4197972
      ],
      [
       57.9286601,
       -20.4119501
      ],
      [
       57.9282521,
       -20.4041111
      ],
      [
       57.9275816,
       -20.3962879
      ],
      [
       57.9266493,
       -20.3884884
      ],
      [
       57.9254563,
       -20.3807201
      ],
      [
       57.9240037,
       -20.3729908
      ],
      [
       57.922293,
       -20.3653081
      ],
      [
       57.9203259,
       -20.3576795
      ],
      [
       57.9181044,
       -20.3501126
      ],
      [
       57.9156308,
       -20.3426148
      ],
      [
       57.9129074,
       -20.3351935
      ],
      [
       57.909937,
       -20.3278561
      ],
      [
       57.9067226,
       -20.3206096
      ],
      [
       57.9032674,
       -20.3134614
      ],
      [
       57.8995748,
       -20.3064184
      ],
      [
       57.8956485,
       -20.2994876
      ],
      [
       57.8914924,
       -20.2926758
      ],
      [
       57.8871105,
       -20.2859896
      ],
      [
       57.8825073,
       -20.2794358
      ],
      [
       57.8776873,
       -20.2730206
      ],
      [
       57.8726553,
       -20.2667505
      ],
      [
       57.8674162,
       -20.2606316
      ],
      [
       57.8619753,
       -20.25467
      ],
      [
       57.8563378,
       -20.2488714
      ],
      [
       57.8505094,
       -20.2432417
      ],
      [
       57.8444958,
       -20.2377863
      ],
      [
       57.838303,
       -20.2325105
      ],
      [
       57.8319371,
       -20.2274197
      ],
      [
       57.8254042,
       -20.2225188
      ],
      [
       57.818711,
       -20.2178126
      ],
      [
       57.8118639,
       -20.2133057
      ],
      [
       57.8048697,
       -20.2090026
      ],
      [
       57.7977354,
       -20.2049075
      ],
      [
       57.7904678,
       -20.2010244
      ],
      [
       57.7830743,
       -20.1973572
      ],
      [
       57.7755619,
       -20.1939094
      ],
      [
       57.7679382,
       -20.1906844
      ],
      [
       57.7602107,
       -20.1876855
      ],
      [
       57.7523868,
       -20.1849155
      ],
      [
       57.7444744,
       -20.1823771
      ],
      [
       57.7364812,
       -20.180073
      ],
      [
       57.7284151,
       -20.1780052
      ],
      [
       57.7202839,
       -20.1761759
      ],
      [
       57.7120957,
       -20.1745869
      ],
      [
       57.7038585,
       -20.1732397
      ],
      [
       57.6955804,
       -20.1721356
      ],
      [
       57.6872696,
       -20.1712758
      ],
      [
       57.6789342,
       -20.170661
      ],
      [
       57.6705823,
       -20.1702919
      ],
      [
       57.6622222,
       -20.1701688
      ]
     ]
    ]
   }
  },
  {
   "type": "Feature",
   "properties": {
    "ll": {
     "value": 3500,
     "unit": 1,
     "referenceDatum": 1
    },
    "ul": {
     "value": 245,
     "unit": 6,
     "referenceDatum": 2
    },
    "_id": "62de5250bf705b00d6ce05a0",
    "name": "MAURITIUS FIR",
    "type": 0,
    "icao": 6,
    "bnd": [
     [
      -45,
      55.5
     ],
     [
      -6,
      75
     ]
    ]
   },
   "geometry": {
    "type": "Polygon",
    "coordinates": [
     [
      [
       55.5,
       -10
      ],
      [
       55.5,
       -19
      ],
      [
       57,
       -22.3333333
      ],
      [
       57,
       -45
      ],
      [
       75,
       -45
      ],
      [
       75,
       -6
      ],
      [
       60,
       -6
      ],
      [
       60,
       -10
      ],
      [
       55.5,
       -10
      ]
     ]
    ]
   }
  },
  {
   "type": "Feature",
   "properties": {
    "ll": {
     "value": 245,
     "unit": 6,
     "referenceDatum": 2
    },
    "ul": {
     "value": 460,
     "unit": 6,
     "referenceDatum": 2
    },
    "_id": "62de5275bf705b00d6ce065f",
    "name": "MAURITIUS FIR",
    "type": 0,
    "icao": 0,
    "bnd": [
     [
      -45,
      55.5
     ],
     [
      -6,
      75
     ]
    ]
   },
   "geometry": {
    "type": "Polygon",
    "coordinates": [
     [
      [
       55.5,
       -10
      ],
      [
       55.5,
       -19
      ],
      [
       57,
       -22.3333333
      ],
      [
       57,
       -45
      ],
      [
       75,
       -45
      ],
      [
       75,
       -6
      ],
      [
       60,
       -6
      ],
      [
       60,
       -10
      ],
      [
       55.5,
       -10
      ]
     ]
    ]
   }
  },
  {
   "type": "Feature",
   "properties": {
    "ll": {
     "value": 3500,
     "unit": 1,
     "referenceDatum": 1
    },
    "ul": {
     "value": 245,
     "unit": 6,
     "referenceDatum": 2
    },
    "_id": "62de49fabf705b00d6cdfb80",
    "name": "MAURITIUS TMA",
    "type": 7,
    "icao": 2,
    "bnd": [
     [
      -23.135,
      55.5
     ],
     [
      -17.9866667,
      57.6622222
     ]
    ]
   },
   "geometry": {
    "type": "Polygon",
    "coordinates": [
     [
      [
       57.6622222,
       -20.42
      ],
      [
       57.0533333,
       -17.9866667
      ],
      [
       55.5,
       -18.3266667
      ],
      [
       55.5,
       -19
      ],
      [
       57,
       -22.3333333
      ],
      [
       57,
       -23.135
      ],
      [
       57.6622222,
       -20.42
      ]
     ]
    ]
   }
  }
 ]
}