{
 "type": "FeatureCollection",
 "countryCode": "is",
 "features": [
  {
   "type": "Feature",
   "properties": {
    "ll": {
     "value": 500,
     "unit": 1,
     "referenceDatum": 0
    },
    "ul": {
     "value": 3000,
     "unit": 1,
     "referenceDatum": 0
    },
    "_id": "62614b885e9ded5710448560",
    "name": "AEROBATIC AREA (LISTFLUG 118.0 MHZ)",
    "type": 1,
    "icao": 7,
    "bnd": [
     [
      64.1786955,
      -21.7822829
     ],
     [
      64.2184712,
      -21.6627003
     ]
    ]
   },
   "geometry": {
    "type": "Polygon",
    "coordinates": [
     [
      [
       -21.6949737,
       64.2181121
      ],
      [
       -21.6899179,
       64.2184712
      ],
      [
       -21.6847989,
       64.218386
      ],
      [
       -21.6798209,
       64.2178601
      ],
      [
       -21.6751827,
       64.2169143
      ],
      [
       -21.6710693,
       64.2155865
      ],
      [
       -21.6676447,
       64.2139296
      ],
      [
       -21.6650456,
       64.2120097
      ],
      [
       -21.6633753,
       64.2099034
      ],
      [
       -21.6627003,
       64.2076948
      ],
      [
       -21.6630472,
       64.2054718
      ],
      [
       -21.664402,
       64.2033231
      ],
      [
       -21.6667105,
       64.2013343
      ],
      [
       -21.6698804,
       64.1995847
      ],
      [
       -21.6737854,
       64.198144
      ],
      [
       -21.6782698,
       64.1970695
      ],
      [
       -21.6816982,
       64.1965543
      ],
      [
       -21.7500357,
       64.1790543
      ],
      [
       -21.7550844,
       64.1786955
      ],
      [
       -21.7601961,
       64.1787806
      ],
      [
       -21.7651673,
       64.1793061
      ],
      [
       -21.7697999,
       64.1802512
      ],
      [
       -21.7739095,
       64.1815781
      ],
      [
       -21.7773323,
       64.1832341
      ],
      [
       -21.7799318,
       64.1851533
      ],
      [
       -21.7816043,
       64.187259
      ],
      [
       -21.7822829,
       64.1894674
      ],
      [
       -21.7819402,
       64.1916905
      ],
      [
       -21.7805898,
       64.1938397
      ],
      [
       -21.7782852,
       64.1958292
      ],
      [
       -21.7751182,
       64.1975796
      ],
      [
       -21.771215,
       64.1990212
      ],
      [
       -21.7667313,
       64.2000964
      ],
      [
       -21.765436,
       64.2003192
      ],
      [
       -21.6949737,
       64.2181121
      ]
     ]
    ]
   }
  },
  {
   "type": "Feature",
   "properties": {
    "ll": {
     "value": 0,
     "unit": 1,
     "referenceDatum": 0
    },
    "ul": {
     "value": 3000,
     "unit": 1,
     "referenceDatum": 0
    },
    "_id": "62614b885e9ded571044856e",
    "name": "AKUREYRI CTR (AKUREYRI TURN)",
    "type": 4,
    "icao": 3,
    "bnd": [
     [
      65.4203333,
      -18.4396667
     ],
     [
      65.8761667,
      -17.8055
     ]
    ]
   },
   "geometry": {
    "type": "Polygon",
    "coordinates": [
     [
      [
       -17.9388333,
       65.8761667
      ],
      [
       -17.8055,
       65.643
      ],
      [
       -17.926,
       65.4203333
      ],
      [
       -18.4366667,
       65.4593333
      ],
      [
       -18.326,
       65.6538333
      ],
      [
       -18.4396667,
       65.8211667
      ],
      [
       -17.9388333,
       65.8761667
      ]
     ]
    ]
   }
  },
  {
   "type": "Feature",
   "properties": {
    "ll": {
     "value": 3000,
     "unit": 1,
     "referenceDatum": 0
    },
    "ul": {
     "value": 7000,
     "unit": 1,
     "referenceDatum": 0
    },
    "_id": "62614b88cb27f4250944c11b",
    "name": "AKUREYRI TMA - 118.2 MHZ",
    "type": 0,
    "icao": 3,
    "bnd": [
     [
      65.1557881,
      -18.6884145
     ],
     [
      66.0175451,
      -17.7812266
     ]
    ]
   },
   "geometry": {
    "type": "Polygon",
    "coordinates": [
     [
      [
       -17.8905855,
       65.3218065
      ],
      [
       -17.8915423,
       65.3112816
      ],
      [
       -17.8940884,
       65.300803
      ],
      [
       -17.8982118,
       65.2904124
      ],
      [
       -17.9038941,
       65.2801514
      ],
      [
       -17.9111111,
       65.2700607
      ],
      [
       -17.9198322,
       65.2601806
      ],
      [
       -17.9300212,
       65.2505502
      ],
      [
       -17.9416359,
       65.2412078
      ],
      [
       -17.954629,
       65.2321904
      ],
      [
       -17.9689474,
       65.2235337
      ],
      [
       -17.9845335,
       65.215272
      ],
      [
       -18.0013242,
       65.207438
      ],
      [
       -18.0192524,
       65.2000624
      ],
      [
       -18.0382464,
       65.1931746
      ],
      [
       -18.0582305,
       65.1868015
      ],
      [
       -18.0791253,
       65.1809684
      ],
      [
       -18.100848,
       65.1756981
      ],
      [
       -18.1233126,
       65.1710115
      ],
      [
       -18.1464305,
       65.1669269
      ],
      [
       -18.1701105,
       65.1634604
      ],
      [
       -18.1942594,
       65.1606256
      ],
      [
       -18.2187822,
       65.1584337
      ],
      [
       -18.2435826,
       65.1568932
      ],
      [
       -18.2685632,
       65.1560102
      ],
      [
       -18.2936259,
       65.1557881
      ],
      [
       -18.3186725,
       65.1562279
      ],
      [
       -18.3436046,
       65.1573278
      ],
      [
       -18.3683244,
       65.1590835
      ],
      [
       -18.3927347,
       65.1614881
      ],
      [
       -18.4167396,
       65.1645322
      ],
      [
       -18.4402448,
       65.1682038
      ],
      [
       -18.4631576,
       65.1724884
      ],
      [
       -18.4853877,
       65.1773693
      ],
      [
       -18.5068472,
       65.1828272
      ],
      [
       -18.5274513,
       65.1888407
      ],
      [
       -18.5471181,
       65.195386
      ],
      [
       -18.5657695,
       65.2024375
      ],
      [
       -18.5833311,
       65.2099672
      ],
      [
       -18.5997325,
       65.2179455
      ],
      [
       -18.614908,
       65.2263409
      ],
      [
       -18.6287964,
       65.2351202
      ],
      [
       -18.6413414,
       65.2442486
      ],
      [
       -18.6524919,
       65.2536899
      ],
      [
       -18.6622021,
       65.2634068
      ],
      [
       -18.6704319,
       65.2733606
      ],
      [
       -18.6771468,
       65.2835118
      ],
      [
       -18.6823185,
       65.29382
      ],
      [
       -18.6859245,
       65.3042441
      ],
      [
       -18.6879485,
       65.3147426
      ],
      [
       -18.6884145,
       65.3218065
      ],
      [
       -18.59544,
       65.8504601
      ],
      [
       -18.5947926,
       65.8609892
      ],
      [
       -18.592518,
       65.8714806
      ],
      [
       -18.5886232,
       65.8818921
      ],
      [
       -18.583122,
       65.892182
      ],
      [
       -18.5760345,
       65.9023089
      ],
      [
       -18.5673873,
       65.9122323
      ],
      [
       -18.5572135,
       65.9219121
      ],
      [
       -18.5455524,
       65.9313093
      ],
      [
       -18.5324493,
       65.940386
      ],
      [
       -18.5179558,
       65.9491055
      ],
      [
       -18.5021289,
       65.9574327
      ],
      [
       -18.4850315,
       65.9653337
      ],
      [
       -18.4667317,
       65.9727767
      ],
      [
       -18.4473027,
       65.9797314
      ],
      [
       -18.4268224,
       65.9861695
      ],
      [
       -18.4053732,
       65.992065
      ],
      [
       -18.3830417,
       65.9973939
      ],
      [
       -18.3599181,
       66.0021345
      ],
      [
       -18.3360961,
       66.0062676
      ],
      [
       -18.3116724,
       66.0097762
      ],
      [
       -18.2867462,
       66.0126462
      ],
      [
       -18.261419,
       66.0148657
      ],
      [
       -18.2357939,
       66.0164258
      ],
      [
       -18.2099752,
       66.0173202
      ],
      [
       -18.1840684,
       66.0175451
      ],
      [
       -18.1581789,
       66.0170996
      ],
      [
       -18.1324123,
       66.0159856
      ],
      [
       -18.1068738,
       66.0142076
      ],
      [
       -18.0816672,
       66.0117729
      ],
      [
       -18.0568954,
       66.0086913
      ],
      [
       -18.0326589,
       66.0049754
      ],
      [
       -18.0090562,
       66.0006404
      ],
      [
       -17.9861831,
       65.995704
      ],
      [
       -17.9641322,
       65.9901861
      ],
      [
       -17.9429925,
       65.9841092
      ],
      [
       -17.9228493,
       65.9774981
      ],
      [
       -17.9037836,
       65.9703795
      ],
      [
       -17.8858717,
       65.9627823
      ],
      [
       -17.8691853,
       65.9547374
      ],
      [
       -17.8537906,
       65.9462773
      ],
      [
       -17.8397486,
       65.9374362
      ],
      [
       -17.8271148,
       65.9282499
      ],
      [
       -17.8159384,
       65.9187555
      ],
      [
       -17.806263,
       65.9089912
      ],
      [
       -17.7981259,
       65.8989964
      ],
      [
       -17.7915578,
       65.8888112
      ],
      [
       -17.7865834,
       65.8784767
      ],
      [
       -17.7832207,
       65.8680343
      ],
      [
       -17.7814811,
       65.8575259
      ],
      [
       -17.7812266,
       65.8504601
      ],
      [
       -17.8905855,
       65.3218065
      ]
     ]
    ]
   }
  },
  {
   "type": "Feature",
   "properties": {
    "ll": {
     "value": 0,
     "unit": 1,
     "referenceDatum": 0
    },
    "ul": {
     "value": 3000,
     "unit": 1,
     "referenceDatum": 0
    },
    "_id": "62614b885e9ded571044857d",
    "name": "AUSTURSVAEDI/EAST TRAINING AREA",
    "type": 1,
    "icao": 7,
    "bnd": [
     [
      64.0228333,
      -21.6073333
     ],
     [
      64.1735,
      -21.2196667
     ]
    ]
   },
   "geometry": {
    "type": "Polygon",
    "coordinates": [
     [
      [
       -21.5195,
       64.158
      ],
      [
       -21.2196667,
       64.1735
      ],
      [
       -21.4431667,
       64.0228333
      ],
      [
       -21.4843333,
       64.0545
      ],
      [
       -21.6073333,
       64.0721667
      ],
      [
       -21.5926667,
       64.1166667
      ],
      [
       -21.5195,
       64.158
      ]
     ]
    ]
   }
  },
  {
   "type": "Feature",
   "properties": {
    "ll": {
     "value": 0,
     "unit": 1,
     "referenceDatum": 0
    },
    "ul": {
     "value": 2500,
     "unit": 1,
     "referenceDatum": 1
    },
    "_id": "62614b88cb27f4250944c125",
    "name": "BIR1/BIR2/VESTURSVAEDI OG MIDSVAEDI (TRANSPONDER REQUIRED)",
    "type": 1,
    "icao": 7,
    "bnd": [
     [
      63.8256667,
      -22.4218333
     ],
     [
      64.035,
      -21.806
     ]
    ]
   },
   "geometry": {
    "type": "Polygon",
    "coordinates": [
     [
      [
       -22.1695,
       63.8256667
      ],
      [
       -22.4218333,
       63.8686667
      ],
      [
       -22.4186667,
       63.9385
      ],
      [
       -22.1696667,
       63.9381667
      ],
      [
       -22.0086667,
       64.035
      ],
      [
       -21.806,
       63.9726667
      ],
      [
       -22.1695,
       63.8256667
      ]
     ]
    ]
   }
  },
  {
   "type": "Feature",
   "properties": {
    "ll": {
     "value": 0,
     "unit": 1,
     "referenceDatum": 0
    },
    "ul": {
     "value": 3000,
     "unit": 1,
     "referenceDatum": 0
    },
    "_id": "62614b885e9ded571044858d",
    "name": "EGILSSTADIR ATZ (AFIS 119.4 MHZ)",
    "type": 0,
    "icao": 6,
    "bnd": [
     [
      65.116815,
      -14.7990422
     ],
     [
      65.4498875,
      -14.0025566
     ]
    ]
   },
   "geometry": {
    "type": "Polygon",
    "coordinates": [
     [
      [
       -14.4008333,
       65.4498875
      ],
      [
       -14.3754967,
       65.4495524
      ],
      [
       -14.3502634,
       65.4485483
      ],
      [
       -14.3252361,
       65.4468794
      ],
      [
       -14.3005168,
       65.4445525
      ],
      [
       -14.2762061,
       65.4415771
      ],
      [
       -14.2524029,
       65.4379652
      ],
      [
       -14.2292037,
       65.4337316
      ],
      [
       -14.2067028,
       65.4288935
      ],
      [
       -14.1849911,
       65.4234706
      ],
      [
       -14.1641565,
       65.4174849
      ],
      [
       -14.1442828,
       65.4109608
      ],
      [
       -14.1254501,
       65.4039247
      ],
      [
       -14.1077338,
       65.3964051
      ],
      [
       -14.0912048,
       65.3884325
      ],
      [
       -14.0759288,
       65.3800393
      ],
      [
       -14.0619664,
       65.3712593
      ],
      [
       -14.0493728,
       65.3621281
      ],
      [
       -14.0381972,
       65.3526825
      ],
      [
       -14.0284832,
       65.3429605
      ],
      [
       -14.0202683,
       65.3330014
      ],
      [
       -14.0135838,
       65.3228453
      ],
      [
       -14.0084549,
       65.3125329
      ],
      [
       -14.0049001,
       65.3021056
      ],
      [
       -14.0029321,
       65.2916053
      ],
      [
       -14.0025566,
       65.281074
      ],
      [
       -14.0037734,
       65.2705538
      ],
      [
       -14.0065756,
       65.2600868
      ],
      [
       -14.0109502,
       65.2497147
      ],
      [
       -14.016878,
       65.2394789
      ],
      [
       -14.0243334,
       65.2294201
      ],
      [
       -14.0332853,
       65.2195784
      ],
      [
       -14.0436963,
       65.2099927
      ],
      [
       -14.0555236,
       65.2007013
      ],
      [
       -14.0687188,
       65.1917408
      ],
      [
       -14.0832284,
       65.1831467
      ],
      [
       -14.0989937,
       65.1749531
      ],
      [
       -14.1159513,
       65.1671924
      ],
      [
       -14.1340332,
       65.1598951
      ],
      [
       -14.1531671,
       65.1530901
      ],
      [
       -14.1732769,
       65.1468041
      ],
      [
       -14.1942827,
       65.1410621
      ],
      [
       -14.2161013,
       65.1358864
      ],
      [
       -14.2386464,
       65.1312976
      ],
      [
       -14.261829,
       65.1273137
      ],
      [
       -14.2855576,
       65.1239502
      ],
      [
       -14.3097391,
       65.1212205
      ],
      [
       -14.3342781,
       65.1191352
      ],
      [
       -14.3590784,
       65.1177026
      ],
      [
       -14.3840426,
       65.1169281
      ],
      [
       -14.4090727,
       65.116815
      ],
      [
       -14.4340704,
       65.1173637
      ],
      [
       -14.4589377,
       65.1185719
      ],
      [
       -14.483577,
       65.1204349
      ],
      [
       -14.5078914,
       65.1229455
      ],
      [
       -14.5317854,
       65.1260937
      ],
      [
       -14.555165,
       65.1298673
      ],
      [
       -14.577938,
       65.1342513
      ],
      [
       -14.6000147,
       65.1392286
      ],
      [
       -14.6213078,
       65.1447795
      ],
      [
       -14.641733,
       65.1508822
      ],
      [
       -14.6612092,
       65.1575128
      ],
      [
       -14.6796589,
       65.164645
      ],
      [
       -14.6970086,
       65.1722507
      ],
      [
       -14.7131887,
       65.1802999
      ],
      [
       -14.7281343,
       65.1887608
      ],
      [
       -14.741785,
       65.1976
      ],
      [
       -14.7540855,
       65.2067825
      ],
      [
       -14.7649856,
       65.2162718
      ],
      [
       -14.7744406,
       65.2260304
      ],
      [
       -14.7824112,
       65.2360195
      ],
      [
       -14.7888642,
       65.2461993
      ],
      [
       -14.7937721,
       65.2565294
      ],
      [
       -14.7971135,
       65.2669687
      ],
      [
       -14.7988731,
       65.2774754
      ],
      [
       -14.7990422,
       65.2880077
      ],
      [
       -14.797618,
       65.2985233
      ],
      [
       -14.7946044,
       65.3089803
      ],
      [
       -14.7900117,
       65.3193366
      ],
      [
       -14.7838563,
       65.3295508
      ],
      [
       -14.7761612,
       65.3395818
      ],
      [
       -14.7669556,
       65.3493892
      ],
      [
       -14.7562749,
       65.3589336
      ],
      [
       -14.7441606,
       65.3681765
      ],
      [
       -14.73066,
       65.3770806
      ],
      [
       -14.7158264,
       65.3856099
      ],
      [
       -14.6997185,
       65.3937299
      ],
      [
       -14.6824002,
       65.4014078
      ],
      [
       -14.6639408,
       65.4086124
      ],
      [
       -14.6444141,
       65.4153146
      ],
      [
       -14.6238986,
       65.4214872
      ],
      [
       -14.602477,
       65.427105
      ],
      [
       -14.5802356,
       65.4321453
      ],
      [
       -14.5572647,
       65.4365875
      ],
      [
       -14.5336571,
       65.4404136
      ],
      [
       -14.5095088,
       65.4436081
      ],
      [
       -14.4849179,
       65.4461578
      ],
      [
       -14.4599845,
       65.4480525
      ],
      [
       -14.43481,
       65.4492843
      ],
      [
       -14.4094971,
       65.4498483
      ],
      [
       -14.4008333,
       65.4498875
      ]
     ]
    ]
   }
  },
  {
   "type": "Feature",
   "properties": {
    "ll": {
     "value": 2000,
     "unit": 1,
     "referenceDatum": 0
    },
    "ul": {
     "value": 245,
     "unit": 6,
     "referenceDatum": 2
    },
    "_id": "62614b88cb27f4250944c132",
    "name": "FAXI TMA (KRAGINN)",
    "type": 0,
    "icao": 3,
    "bnd": [
     [
      63.8,
      -22.3883333
     ],
     [
      64.1341667,
      -21.5928333
     ]
    ]
   },
   "geometry": {
    "type": "Polygon",
    "coordinates": [
     [
      [
       -22.3883333,
       63.859
      ],
      [
       -21.77,
       64.0515
      ],
      [
       -21.7665779,
       64.0529237
      ],
      [
       -21.7537262,
       64.0588439
      ],
      [
       -21.7420147,
       64.0652016
      ],
      [
       -21.7315215,
       64.0719549
      ],
      [
       -21.722317,
       64.079059
      ],
      [
       -21.714463,
       64.086467
      ],
      [
       -21.7080127,
       64.0941298
      ],
      [
       -21.7030101,
       64.1019965
      ],
      [
       -21.6994895,
       64.1100151
      ],
      [
       -21.6974756,
       64.1181323
      ],
      [
       -21.6969831,
       64.1262942
      ],
      [
       -21.7046667,
       64.1341667
      ],
      [
       -21.5928333,
       64.1096667
      ],
      [
       -21.5935116,
       64.1070836
      ],
      [
       -21.5970404,
       64.0973317
      ],
      [
       -21.6020634,
       64.0877058
      ],
      [
       -21.6085561,
       64.0782494
      ],
      [
       -21.6164876,
       64.0690055
      ],
      [
       -21.6258208,
       64.0600159
      ],
      [
       -21.6365119,
       64.0513212
      ],
      [
       -21.6485116,
       64.0429607
      ],
      [
       -21.6617645,
       64.0349721
      ],
      [
       -21.6762098,
       64.0273915
      ],
      [
       -21.6923333,
       64.0205
      ],
      [
       -21.7173333,
       63.989
      ],
      [
       -22.2843333,
       63.8
      ],
      [
       -22.3883333,
       63.859
      ]
     ]
    ]
   }
  },
  {
   "type": "Feature",
   "properties": {
    "ll": {
     "value": 0,
     "unit": 1,
     "referenceDatum": 0
    },
    "ul": {
     "value": 3000,
     "unit": 1,
     "referenceDatum": 0
    },
    "_id": "62614b88cb27f4250944c13c",
    "name": "KAMBAR (HANG GLIDERS)",
    "type": 1,
    "icao": 7,
    "bnd": [
     [
      63.959873,
      -21.2936516
     ],
     [
      63.9931554,
      -21.2178882
     ]
    ]
   },
   "geometry": {
    "type": "Polygon",
    "coordinates": [
     [
      [
       -21.2558333,
       63.9931554
      ],
      [
       -21.2482871,
       63.9928232
      ],
      [
       -21.2410421,
       63.9918399
      ],
      [
       -21.2343879,
       63.9902447
      ],
      [
       -21.2285898,
       63.9881014
      ],
      [
       -21.2238792,
       63.9854954
      ],
      [
       -21.2204437,
       63.9825309
      ],
      [
       -21.21842,
       63.9793261
      ],
      [
       -21.2178882,
       63.9760087
      ],
      [
       -21.2188692,
       63.9727112
      ],
      [
       -21.2213232,
       63.9695648
      ],
      [
       -21.225152,
       63.966695
      ],
      [
       -21.2302027,
       63.9642161
      ],
      [
       -21.2362739,
       63.9622268
      ],
      [
       -21.2431237,
       63.9608063
      ],
      [
       -21.2504793,
       63.9600112
      ],
      [
       -21.258048,
       63.959873
      ],
      [
       -21.2655286,
       63.9603973
      ],
      [
       -21.2726233,
       63.9615631
      ],
      [
       -21.2790497,
       63.9633242
      ],
      [
       -21.2845519,
       63.9656105
      ],
      [
       -21.2889104,
       63.9683307
      ],
      [
       -21.2919514,
       63.9713768
      ],
      [
       -21.2935533,
       63.9746272
      ],
      [
       -21.2936516,
       63.9779524
      ],
      [
       -21.2922421,
       63.98122
      ],
      [
       -21.2893803,
       63.9842995
      ],
      [
       -21.2851801,
       63.9870681
      ],
      [
       -21.2798085,
       63.9894154
      ],
      [
       -21.2734798,
       63.9912476
      ],
      [
       -21.2664466,
       63.9924916
      ],
      [
       -21.2589894,
       63.9930978
      ],
      [
       -21.2558333,
       63.9931554
      ]
     ]
    ]
   }
  },
  {
   "type": "Feature",
   "properties": {
    "ll": {
     "value": 3000,
     "unit": 1,
     "referenceDatum": 0
    },
    "ul": {
     "value": 200,
     "unit": 6,
     "referenceDatum": 2
    },
    "_id": "62614b885e9ded571044859d",
    "name": "KEFLAVIK APP/KEFLAVIK ADFLUG (TRANSPONDER REQUIRED)",
    "type": 0,
    "icao": 2,
    "bnd": [
     [
      63.3157375,
      -24.1357563
     ],
     [
      64.6353189,
      -21.2166667
     ]
    ]
   },
   "geometry": {
    "type": "Polygon",
    "coordinates": [
     [
      [
       -22.9666667,
       64.6333333
      ],
      [
       -22.7333333,
       64.5166667
      ],
      [
       -22.4666667,
       64.3166667
      ],
      [
       -22.5,
       64.15
      ],
      [
       -22.2666667,
       64.05
      ],
      [
       -21.7333333,
       63.95
      ],
      [
       -21.2166667,
       63.7166667
      ],
      [
       -21.2369565,
       63.6975517
      ],
      [
       -21.2585686,
       63.6787265
      ],
      [
       -21.2814794,
       63.6602091
      ],
      [
       -21.3056644,
       63.6420174
      ],
      [
       -21.3310981,
       63.6241689
      ],
      [
       -21.3577538,
       63.6066806
      ],
      [
       -21.3856037,
       63.5895692
      ],
      [
       -21.4146192,
       63.5728511
      ],
      [
       -21.4447707,
       63.5565422
      ],
      [
       -21.4760275,
       63.5406579
      ],
      [
       -21.5083582,
       63.5252134
      ],
      [
       -21.5417305,
       63.5102233
      ],
      [
       -21.5761112,
       63.4957017
      ],
      [
       -21.6114662,
       63.4816625
      ],
      [
       -21.647761,
       63.4681188
      ],
      [
       -21.6849599,
       63.4550833
      ],
      [
       -21.7230268,
       63.4425685
      ],
      [
       -21.7619249,
       63.4305859
      ],
      [
       -21.8016167,
       63.4191469
      ],
      [
       -21.842064,
       63.4082622
      ],
      [
       -21.8832281,
       63.3979419
      ],
      [
       -21.92507,
       63.3881957
      ],
      [
       -21.9675497,
       63.3790328
      ],
      [
       -22.0106272,
       63.3704616
      ],
      [
       -22.0542617,
       63.3624902
      ],
      [
       -22.0984122,
       63.355126
      ],
      [
       -22.1430372,
       63.3483758
      ],
      [
       -22.188095,
       63.342246
      ],
      [
       -22.2335434,
       63.3367421
      ],
      [
       -22.27934,
       63.3318694
      ],
      [
       -22.3254421,
       63.3276324
      ],
      [
       -22.3718068,
       63.3240349
      ],
      [
       -22.4183911,
       63.3210804
      ],
      [
       -22.4651518,
       63.3187716
      ],
      [
       -22.5120454,
       63.3171105
      ],
      [
       -22.5590286,
       63.3160989
      ],
      [
       -22.6060577,
       63.3157375
      ],
      [
       -22.6530892,
       63.3160267
      ],
      [
       -22.7000796,
       63.3169663
      ],
      [
       -22.7469853,
       63.3185553
      ],
      [
       -22.7937628,
       63.3207924
      ],
      [
       -22.8403688,
       63.3236754
      ],
      [
       -22.8867601,
       63.3272017
      ],
      [
       -22.9328934,
       63.331368
      ],
      [
       -22.978726,
       63.3361704
      ],
      [
       -23.0242151,
       63.3416044
      ],
      [
       -23.0693183,
       63.3476651
      ],
      [
       -23.1139934,
       63.3543468
      ],
      [
       -23.1581986,
       63.3616432
      ],
      [
       -23.2018924,
       63.3695476
      ],
      [
       -23.2450337,
       63.3780526
      ],
      [
       -23.2875817,
       63.3871504
      ],
      [
       -23.3294963,
       63.3968323
      ],
      [
       -23.3707376,
       63.4070893
      ],
      [
       -23.4112663,
       63.4179119
      ],
      [
       -23.4510438,
       63.42929
      ],
      [
       -23.4900317,
       63.4412128
      ],
      [
       -23.5281927,
       63.4536692
      ],
      [
       -23.5654897,
       63.4666474
      ],
      [
       -23.6018865,
       63.4801354
      ],
      [
       -23.6373476,
       63.4941203
      ],
      [
       -23.671838,
       63.508589
      ],
      [
       -23.7053238,
       63.5235278
      ],
      [
       -23.7377717,
       63.5389227
      ],
      [
       -23.7691492,
       63.5547589
      ],
      [
       -23.7994248,
       63.5710215
      ],
      [
       -23.8285678,
       63.587695
      ],
      [
       -23.8565485,
       63.6047635
      ],
      [
       -23.883338,
       63.6222108
      ],
      [
       -23.9089086,
       63.6400202
      ],
      [
       -23.9332334,
       63.6581747
      ],
      [
       -23.9562868,
       63.6766568
      ],
      [
       -23.9780441,
       63.6954487
      ],
      [
       -23.9984818,
       63.7145325
      ],
      [
       -24.0175774,
       63.7338896
      ],
      [
       -24.0353097,
       63.7535014
      ],
      [
       -24.0516587,
       63.7733489
      ],
      [
       -24.0666057,
       63.7934127
      ],
      [
       -24.080133,
       63.8136735
      ],
      [
       -24.0922244,
       63.8341115
      ],
      [
       -24.1028649,
       63.8547066
      ],
      [
       -24.112041,
       63.8754387
      ],
      [
       -24.1197404,
       63.8962876
      ],
      [
       -24.1259523,
       63.9172326
      ],
      [
       -24.1306671,
       63.9382532
      ],
      [
       -24.1338768,
       63.9593286
      ],
      [
       -24.1355749,
       63.980438
      ],
      [
       -24.1357563,
       64.0015603
      ],
      [
       -24.1344172,
       64.0226746
      ],
      [
       -24.1315557,
       64.0437599
      ],
      [
       -24.1271711,
       64.0647951
      ],
      [
       -24.1212644,
       64.0857592
      ],
      [
       -24.113838,
       64.106631
      ],
      [
       -24.1048961,
       64.1273897
      ],
      [
       -24.0944441,
       64.1480143
      ],
      [
       -24.0824894,
       64.1684839
      ],
      [
       -24.0690407,
       64.1887779
      ],
      [
       -24.0541084,
       64.2088756
      ],
      [
       -24.0377044,
       64.2287567
      ],
      [
       -24.0198423,
       64.2484008
      ],
      [
       -24.0005373,
       64.2677879
      ],
      [
       -23.9798061,
       64.2868981
      ],
      [
       -23.9576669,
       64.3057119
      ],
      [
       -23.9341398,
       64.3242099
      ],
      [
       -23.909246,
       64.3423731
      ],
      [
       -23.8830088,
       64.3601826
      ],
      [
       -23.8554524,
       64.3776202
      ],
      [
       -23.8266032,
       64.3946677
      ],
      [
       -23.7964885,
       64.4113074
      ],
      [
       -23.7651374,
       64.4275221
      ],
      [
       -23.7325804,
       64.4432948
      ],
      [
       -23.6988494,
       64.4586091
      ],
      [
       -23.6639778,
       64.4734489
      ],
      [
       -23.6280002,
       64.4877987
      ],
      [
       -23.5909526,
       64.5016435
      ],
      [
       -23.5528724,
       64.5149687
      ],
      [
       -23.513798,
       64.5277603
      ],
      [
       -23.4737694,
       64.5400047
      ],
      [
       -23.4328274,
       64.5516892
      ],
      [
       -23.3910143,
       64.5628013
      ],
      [
       -23.348373,
       64.5733292
      ],
      [
       -23.304948,
       64.5832619
      ],
      [
       -23.2607843,
       64.5925888
      ],
      [
       -23.2159281,
       64.6012999
      ],
      [
       -23.1704265,
       64.6093861
      ],
      [
       -23.1243272,
       64.6168387
      ],
      [
       -23.0776788,
       64.6236497
      ],
      [
       -23.0305307,
       64.629812
      ],
      [
       -22.9829327,
       64.6353189
      ],
      [
       -22.9666667,
       64.6333333
      ]
     ]
    ]
   }
  },
  {
   "type": "Feature",
   "properties": {
    "ll": {
     "value": 0,
     "unit": 1,
     "referenceDatum": 0
    },
    "ul": {
     "value": 1500,
     "unit": 1,
     "referenceDatum": 0
    },
    "_id": "62614b88cb27f4250944c149",
    "name": "MELGERDISMELAR (GLIDERS, AIRPLANES AND RC AIRCRAFTS)",
    "type": 0,
    "icao": 6,
    "bnd": [
     [
      65.441185,
      -18.2292651
     ],
     [
      65.505815,
      -18.1131868
     ]
    ]
   },
   "geometry": {
    "type": "Polygon",
    "coordinates": [
     [
      [
       -18.1490682,
       65.457828
      ],
      [
       -18.1498725,
       65.4545193
      ],
      [
       -18.1522427,
       65.4513429
      ],
      [
       -18.1560839,
       65.4484254
      ],
      [
       -18.1612425,
       65.4458829
      ],
      [
       -18.167513,
       65.4438167
      ],
      [
       -18.1746453,
       65.4423091
      ],
      [
       -18.1823555,
       65.4414201
      ],
      [
       -18.1903368,
       65.441185
      ],
      [
       -18.1982715,
       65.4416132
      ],
      [
       -18.2058439,
       65.4426877
      ],
      [
       -18.2127525,
       65.4443657
      ],
      [
       -18.2187223,
       65.4465803
      ],
      [
       -18.2235153,
       65.4492436
      ],
      [
       -18.2269403,
       65.4522493
      ],
      [
       -18.2288603,
       65.4554777
      ],
      [
       -18.2292651,
       65.457828
      ],
      [
       -18.1934799,
       65.4891614
      ],
      [
       -18.1926846,
       65.4924705
      ],
      [
       -18.1903199,
       65.4956481
      ],
      [
       -18.1864797,
       65.4985674
      ],
      [
       -18.1813165,
       65.501112
      ],
      [
       -18.1750363,
       65.5031802
      ],
      [
       -18.1678894,
       65.5046895
      ],
      [
       -18.1601612,
       65.5055796
      ],
      [
       -18.1521603,
       65.505815
      ],
      [
       -18.1442063,
       65.5053862
      ],
      [
       -18.1366168,
       65.5043105
      ],
      [
       -18.1296949,
       65.5026307
      ],
      [
       -18.1237168,
       65.5004139
      ],
      [
       -18.1189209,
       65.4977487
      ],
      [
       -18.1154983,
       65.4947413
      ],
      [
       -18.113585,
       65.4915119
      ],
      [
       -18.1131868,
       65.4891614
      ],
      [
       -18.1490682,
       65.457828
      ]
     ]
    ]
   }
  },
  {
   "type": "Feature",
   "properties": {
    "ll": {
     "value": 3000,
     "unit": 1,
     "referenceDatum": 0
    },
    "ul": {
     "value": 245,
     "unit": 6,
     "referenceDatum": 2
    },
    "_id": "62614b895e9ded57104485a7",
    "name": "REYKJAVIK APP/REYKJAVIK ADFLUG",
    "type": 0,
    "icao": 3,
    "bnd": [
     [
      63.3157375,
      -24.1357563
     ],
     [
      64.7848333,
      -20.9236667
     ]
    ]
   },
   "geometry": {
    "type": "Polygon",
    "coordinates": [
     [
      [
       -22.9666667,
       64.6333333
      ],
      [
       -22.8691667,
       64.7848333
      ],
      [
       -22.4706667,
       64.7088333
      ],
      [
       -22.1421667,
       64.7013333
      ],
      [
       -21.2851667,
       64.6585
      ],
      [
       -20.9236667,
       64.289
      ],
      [
       -21.2898333,
       63.8671667
      ],
      [
       -21.2166667,
       63.7166667
      ],
      [
       -21.2369565,
       63.6975517
      ],
      [
       -21.2585686,
       63.6787265
      ],
      [
       -21.2814794,
       63.6602091
      ],
      [
       -21.3056644,
       63.6420174
      ],
      [
       -21.3310981,
       63.6241689
      ],
      [
       -21.3577538,
       63.6066806
      ],
      [
       -21.3856037,
       63.5895692
      ],
      [
       -21.4146192,
       63.5728511
      ],
      [
       -21.4447707,
       63.5565422
      ],
      [
       -21.4760275,
       63.5406579
      ],
      [
       -21.5083582,
       63.5252134
      ],
      [
       -21.5417305,
       63.5102233
      ],
      [
       -21.5761112,
       63.4957017
      ],
      [
       -21.6114662,
       63.4816625
      ],
      [
       -21.647761,
       63.4681188
      ],
      [
       -21.6849599,
       63.4550833
      ],
      [
       -21.7230268,
       63.4425685
      ],
      [
       -21.7619249,
       63.4305859
      ],
      [
       -21.8016167,
       63.4191469
      ],
      [
       -21.842064,
       63.4082622
      ],
      [
       -21.8832281,
       63.3979419
      ],
      [
       -21.92507,
       63.3881957
      ],
      [
       -21.9675497,
       63.3790328
      ],
      [
       -22.0106272,
       63.3704616
      ],
      [
       -22.0542617,
       63.3624902
      ],
      [
       -22.0984122,
       63.355126
      ],
      [
       -22.1430372,
       63.3483758
      ],
      [
       -22.188095,
       63.342246
      ],
      [
       -22.2335434,
       63.3367421
      ],
      [
       -22.27934,
       63.3318694
      ],
      [
       -22.3254421,
       63.3276324
      ],
      [
       -22.3718068,
       63.3240349
      ],
      [
       -22.4183911,
       63.3210804
      ],
      [
       -22.4651518,
       63.3187716
      ],
      [
       -22.5120454,
       63.3171105
      ],
      [
       -22.5590286,
       63.3160989
      ],
      [
       -22.6060577,
       63.3157375
      ],
      [
       -22.6530892,
       63.3160267
      ],
      [
       -22.7000796,
       63.3169663
      ],
      [
       -22.7469853,
       63.3185553
      ],
      [
       -22.7937628,
       63.3207924
      ],
      [
       -22.8403688,
       63.3236754
      ],
      [
       -22.8867601,
       63.3272017
      ],
      [
       -22.9328934,
       63.331368
      ],
      [
       -22.978726,
       63.3361704
      ],
      [
       -23.0242151,
       63.3416044
      ],
      [
       -23.0693183,
       63.3476651
      ],
      [
       -23.1139934,
       63.3543468
      ],
      [
       -23.1581986,
       63.3616432
      ],
      [
       -23.2018924,
       63.3695476
      ],
      [
       -23.2450337,
       63.3780526
      ],
      [
       -23.2875817,
       63.3871504
      ],
      [
       -23.3294963,
       63.3968323
      ],
      [
       -23.3707376,
       63.4070893
      ],
      [
       -23.4112663,
       63.4179119
      ],
      [
       -23.4510438,
       63.42929
      ],
      [
       -23.4900317,
       63.4412128
      ],
      [
       -23.5281927,
       63.4536692
      ],
      [
       -23.5654897,
       63.4666474
      ],
      [
       -23.6018865,
       63.4801354
      ],
      [
       -23.6373476,
       63.4941203
      ],
      [
       -23.671838,
       63.508589
      ],
      [
       -23.7053238,
       63.5235278
      ],
      [
       -23.7377717,
       63.5389227
      ],
      [
       -23.7691492,
       63.5547589
      ],
      [
       -23.7994248,
       63.5710215
      ],
      [
       -23.8285678,
       63.587695
      ],
      [
       -23.8565485,
       63.6047635
      ],
      [
       -23.883338,
       63.6222108
      ],
      [
       -23.9089086,
       63.6400202
      ],
      [
       -23.9332334,
       63.6581747
      ],
      [
       -23.9562868,
       63.6766568
      ],
      [
       -23.9780441,
       63.6954487
      ],
      [
       -23.9984818,
       63.7145325
      ],
      [
       -24.0175774,
       63.7338896
      ],
      [
       -24.0353097,
       63.7535014
      ],
      [
       -24.0516587,
       63.7733489
      ],
      [
       -24.0666057,
       63.7934127
      ],
      [
       -24.080133,
       63.8136735
      ],
      [
       -24.0922244,
       63.8341115
      ],
      [
       -24.1028649,
       63.8547066
      ],
      [
       -24.112041,
       63.8754387
      ],
      [
       -24.1197404,
       63.8962876
      ],
      [
       -24.1259523,
       63.9172326
      ],
      [
       -24.1306671,
       63.9382532
      ],
      [
       -24.1338768,
       63.9593286
      ],
      [
       -24.1355749,
       63.980438
      ],
      [
       -24.1357563,
       64.0015603
      ],
      [
       -24.1344172,
       64.0226746
      ],
      [
       -24.1315557,
       64.0437599
      ],
      [
       -24.1271711,
       64.0647951
      ],
      [
       -24.1212644,
       64.0857592
      ],
      [
       -24.113838,
       64.106631
      ],
      [
       -24.1048961,
       64.1273897
      ],
      [
       -24.0944441,
       64.1480143
      ],
      [
       -24.0824894,
       64.1684839
      ],
      [
       -24.0690407,
       64.1887779
      ],
      [
       -24.0541084,
       64.2088756
      ],
      [
       -24.0377044,
       64.2287567
      ],
      [
       -24.0198423,
       64.2484008
      ],
      [
       -24.0005373,
       64.2677879
      ],
      [
       -23.9798061,
       64.2868981
      ],
      [
       -23.9576669,
       64.3057119
      ],
      [
       -23.9341398,
       64.3242099
      ],
      [
       -23.909246,
       64.3423731
      ],
      [
       -23.8830088,
       64.3601826
      ],
      [
       -23.8554524,
       64.3776202
      ],
      [
       -23.8266032,
       64.3946677
      ],
      [
       -23.7964885,
       64.4113074
      ],
      [
       -23.7651374,
       64.4275221
      ],
      [
       -23.7325804,
       64.4432948
      ],
      [
       -23.6988494,
       64.4586091
      ],
      [
       -23.6639778,
       64.4734489
      ],
      [
       -23.6280002,
       64.4877987
      ],
      [
       -23.5909526,
       64.5016435
      ],
      [
       -23.5528724,
       64.5149687
      ],
      [
       -23.513798,
       64.5277603
      ],
      [
       -23.4737694,
       64.5400047
      ],
      [
       -23.4328274,
       64.5516892
      ],
      [
       -23.3910143,
       64.5628013
      ],
      [
       -23.348373,
       64.5733292
      ],
      [
       -23.304948,
       64.5832619
      ],
      [
       -23.2607843,
       64.5925888
      ],
      [
       -23.2159281,
       64.6012999
      ],
      [
       -23.1704265,
       64.6093861
      ],
      [
       -23.1243272,
       64.6168387
      ],
      [
       -23.0776788,
       64.6236497
      ],
      [
       -23.0305307,
       64.629812
      ],
      [
       -22.9829327,
       64.6353189
      ],
      [
       -22.9666667,
       64.6333333
      ]
     ]
    ]
   }
  },
  {
   "type": "Feature",
   "properties": {
    "ll": {
     "value": 0,
     "unit": 1,
     "referenceDatum": 0
    },
    "ul": {
     "value": 3000,
     "unit": 1,
     "referenceDatum": 0
    },
    "_id": "62614b895e9ded57104485b0",
    "name": "REYKJAVIK TWR 118,0 / KEFLAVIK TWR 118,3 WEST OF KUAGERDI",
    "type": 0,
    "icao": 3,
    "bnd": [
     [
      63.8189492,
      -22.9883882
     ],
     [
      64.2245597,
      -21.6975115
     ]
    ]
   },
   "geometry": {
    "type": "Polygon",
    "coordinates": [
     [
      [
       -22.0234231,
       64.2152041
      ],
      [
       -22.0061262,
       64.2183575
      ],
      [
       -21.9882921,
       64.2208846
      ],
      [
       -21.9700408,
       64.2227684
      ],
      [
       -21.9514951,
       64.2239962
      ],
      [
       -21.93278,
       64.2245597
      ],
      [
       -21.9140215,
       64.2244551
      ],
      [
       -21.8953458,
       64.2236832
      ],
      [
       -21.8768789,
       64.2222491
      ],
      [
       -21.8587451,
       64.2201625
      ],
      [
       -21.8410663,
       64.2174374
      ],
      [
       -21.8239614,
       64.2140922
      ],
      [
       -21.8075453,
       64.2101494
      ],
      [
       -21.7919282,
       64.2056356
      ],
      [
       -21.7772145,
       64.200581
      ],
      [
       -21.7635027,
       64.1950196
      ],
      [
       -21.7508843,
       64.1889889
      ],
      [
       -21.7394431,
       64.1825292
      ],
      [
       -21.7292552,
       64.1756839
      ],
      [
       -21.7203878,
       64.1684989
      ],
      [
       -21.7128992,
       64.1610223
      ],
      [
       -21.7068385,
       64.1533042
      ],
      [
       -21.702245,
       64.1453962
      ],
      [
       -21.6991482,
       64.137351
      ],
      [
       -21.6975672,
       64.1292225
      ],
      [
       -21.6975115,
       64.1210648
      ],
      [
       -21.6989801,
       64.1129322
      ],
      [
       -21.7019617,
       64.104879
      ],
      [
       -21.7064353,
       64.0969588
      ],
      [
       -21.7123699,
       64.0892241
      ],
      [
       -21.7197249,
       64.0817263
      ],
      [
       -21.7284503,
       64.0745152
      ],
      [
       -21.7384873,
       64.0676385
      ],
      [
       -21.7497684,
       64.061142
      ],
      [
       -21.7622181,
       64.0550685
      ],
      [
       -21.7757532,
       64.0494582
      ],
      [
       -21.7902837,
       64.0443483
      ],
      [
       -21.805713,
       64.0397725
      ],
      [
       -21.8219388,
       64.035761
      ],
      [
       -21.8298743,
       64.0340651
      ],
      [
       -22.4490426,
       63.8344626
      ],
      [
       -22.4710183,
       63.830338
      ],
      [
       -22.4935355,
       63.8268307
      ],
      [
       -22.5165053,
       63.8239546
      ],
      [
       -22.5398373,
       63.8217209
      ],
      [
       -22.5634398,
       63.8201383
      ],
      [
       -22.58722,
       63.8192133
      ],
      [
       -22.6110845,
       63.8189492
      ],
      [
       -22.6349395,
       63.8193473
      ],
      [
       -22.6586912,
       63.8204059
      ],
      [
       -22.6822464,
       63.8221209
      ],
      [
       -22.7055125,
       63.8244855
      ],
      [
       -22.7283979,
       63.8274905
      ],
      [
       -22.7508125,
       63.831124
      ],
      [
       -22.7726679,
       63.8353717
      ],
      [
       -22.793878,
       63.840217
      ],
      [
       -22.8143589,
       63.8456407
      ],
      [
       -22.8340294,
       63.8516215
      ],
      [
       -22.8528115,
       63.8581358
      ],
      [
       -22.8706305,
       63.865158
      ],
      [
       -22.8874154,
       63.8726603
      ],
      [
       -22.9030989,
       63.8806131
      ],
      [
       -22.9176182,
       63.8889849
      ],
      [
       -22.9309147,
       63.8977426
      ],
      [
       -22.9429346,
       63.9068517
      ],
      [
       -22.9536291,
       63.9162758
      ],
      [
       -22.9629543,
       63.9259778
      ],
      [
       -22.9708717,
       63.935919
      ],
      [
       -22.9773485,
       63.9460599
      ],
      [
       -22.9823571,
       63.9563601
      ],
      [
       -22.9858761,
       63.9667787
      ],
      [
       -22.9878897,
       63.9772741
      ],
      [
       -22.9883882,
       63.9878043
      ],
      [
       -22.9873679,
       63.9983273
      ],
      [
       -22.9848311,
       64.0088009
      ],
      [
       -22.9807864,
       64.0191832
      ],
      [
       -22.9752483,
       64.0294325
      ],
      [
       -22.9682373,
       64.0395078
      ],
      [
       -22.9597802,
       64.0493684
      ],
      [
       -22.9499093,
       64.0589748
      ],
      [
       -22.9386631,
       64.0682881
      ],
      [
       -22.9260854,
       64.0772709
      ],
      [
       -22.912226,
       64.0858869
      ],
      [
       -22.8971394,
       64.0941013
      ],
      [
       -22.8808858,
       64.1018809
      ],
      [
       -22.86353,
       64.1091941
      ],
      [
       -22.8451413,
       64.1160114
      ],
      [
       -22.8257936,
       64.1223051
      ],
      [
       -22.8055649,
       64.1280496
      ],
      [
       -22.7845366,
       64.1332218
      ],
      [
       -22.7700235,
       64.1363602
      ],
      [
       -22.0234231,
       64.2152041
      ]
     ]
    ]
   }
  },
  {
   "type": "Feature",
   "properties": {
    "ll": {
     "value": 0,
     "unit": 1,
     "referenceDatum": 0
    },
    "ul": {
     "value": 3000,
     "unit": 1,
     "referenceDatum": 0
    },
    "_id": "62614b89cb27f4250944c15c",
    "name": "SANDSKEID (GLIDING - WEATHER ON 135.0 MHZ, KEY 3X)",
    "type": 1,
    "icao": 7,
    "bnd": [
     [
      63.97,
      -21.7016667
     ],
     [
      64.0721667,
      -21.4431667
     ]
    ]
   },
   "geometry": {
    "type": "Polygon",
    "coordinates": [
     [
      [
       -21.4431667,
       64.0228333
      ],
      [
       -21.6356667,
       63.97
      ],
      [
       -21.7016667,
       63.9848333
      ],
      [
       -21.6073333,
       64.0721667
      ],
      [
       -21.4843333,
       64.0545
      ],
      [
       -21.4431667,
       64.0228333
      ]
     ]
    ]
   }
  },
  {
   "type": "Feature",
   "properties": {
    "ll": {
     "value": 0,
     "unit": 1,
     "referenceDatum": 0
    },
    "ul": {
     "value": 700,
     "unit": 1,
     "referenceDatum": 0
    },
    "_id": "62614b895e9ded57104485be",
    "name": "SLETTA (MICROLIGHTS)",
    "type": 1,
    "icao": 7,
    "bnd": [
     [
      63.9,
      -22.5178333
     ],
     [
      63.9415,
      -22.4186667
     ]
    ]
   },
   "geometry": {
    "type": "Polygon",
    "coordinates": [
     [
      [
       -22.5178333,
       63.9
      ],
      [
       -22.4236667,
       63.9415
      ],
      [
       -22.4186667,
       63.904
      ],
      [
       -22.5178333,
       63.9
      ]
     ]
    ]
   }
  },
  {
   "type": "Feature",
   "properties": {
    "ll": {
     "value": 0,
     "unit": 1,
     "referenceDatum": 0
    },
    "ul": {
     "value": 3000,
     "unit": 1,
     "referenceDatum": 0
    },
    "_id": "62614b895e9ded57104485cb",
    "name": "ULFARSFELL (ULTRALIGHTS/HANG GLIDERS)",
    "type": 1,
    "icao": 7,
    "bnd": [
     [
      64.1280349,
      -21.747622
     ],
     [
      64.1779831,
      -21.6331442
     ]
    ]
   },
   "geometry": {
    "type": "Polygon",
    "coordinates": [
     [
      [
       -21.6903333,
       64.1779831
      ],
      [
       -21.6810062,
       64.1776503
      ],
      [
       -21.671928,
       64.1766606
      ],
      [
       -21.6633411,
       64.1750405
      ],
      [
       -21.6554744,
       64.1728333
      ],
      [
       -21.6485378,
       64.1700978
      ],
      [
       -21.6427158,
       64.166907
      ],
      [
       -21.6381635,
       64.163346
      ],
      [
       -21.6350016,
       64.1595096
      ],
      [
       -21.6333137,
       64.1555003
      ],
      [
       -21.6331442,
       64.1514246
      ],
      [
       -21.634497,
       64.1473912
      ],
      [
       -21.6373354,
       64.1435073
      ],
      [
       -21.6415833,
       64.1398764
      ],
      [
       -21.6471271,
       64.1365948
      ],
      [
       -21.6538192,
       64.1337499
      ],
      [
       -21.6614814,
       64.1314173
      ],
      [
       -21.6699099,
       64.1296589
      ],
      [
       -21.6788808,
       64.1285213
      ],
      [
       -21.6881558,
       64.1280349
      ],
      [
       -21.6974885,
       64.1282126
      ],
      [
       -21.7066313,
       64.1290495
      ],
      [
       -21.7153414,
       64.1305236
      ],
      [
       -21.7233872,
       64.1325955
      ],
      [
       -21.730555,
       64.1352104
      ],
      [
       -21.7366541,
       64.1382988
      ],
      [
       -21.7415219,
       64.1417785
      ],
      [
       -21.7450286,
       64.1455571
      ],
      [
       -21.7470804,
       64.149534
      ],
      [
       -21.747622,
       64.1536035
      ],
      [
       -21.7466383,
       64.1576572
      ],
      [
       -21.744155,
       64.1615872
      ],
      [
       -21.7402375,
       64.1652887
      ],
      [
       -21.7349896,
       64.1686632
      ],
      [
       -21.7285509,
       64.1716207
      ],
      [
       -21.7210928,
       64.1740822
      ],
      [
       -21.7128139,
       64.1759822
      ],
      [
       -21.703935,
       64.1772698
      ],
      [
       -21.6946931,
       64.1779108
      ],
      [
       -21.6903333,
       64.1779831
      ]
     ]
    ]
   }
  },
  {
   "type": "Feature",
   "properties": {
    "ll": {
     "value": 0,
     "unit": 1,
     "referenceDatum": 0
    },
    "ul": {
     "value": 3000,
     "unit": 1,
     "referenceDatum": 0
    },
    "_id": "62614b89cb27f4250944c169",
    "name": "VESTMANNAEYJAR ATZ - AFIS 118.5 MHZ CLASS: G",
    "type": 0,
    "icao": 6,
    "bnd": [
     [
      63.222,
      -20.6868333
     ],
     [
      63.5721667,
      -19.8588333
     ]
    ]
   },
   "geometry": {
    "type": "Polygon",
    "coordinates": [
     [
      [
       -20.3545,
       63.5721667
      ],
      [
       -20.1668333,
       63.485
      ],
      [
       -19.8588333,
       63.3928333
      ],
      [
       -20.0756667,
       63.222
      ],
      [
       -20.6868333,
       63.3871667
      ],
      [
       -20.3545,
       63.5721667
      ]
     ]
    ]
   }
  }
 ]
}