{
 "type": "FeatureCollection",
 "countryCode": "il",
 "features": [
  {
   "type": "Feature",
   "properties": {
    "ll": {
     "value": 0,
     "unit": 1,
     "referenceDatum": 0
    },
    "ul": {
     "value": 2000,
     "unit": 1,
     "referenceDatum": 0
    },
    "_id": "627bb7d73145c095364c13c0",
    "name": "ATZ EIN SHEMER GND-2000QNH",
    "type": 13,
    "icao": 7,
    "bnd": [
     [
      32.4080773,
      34.9638619
     ],
     [
      32.4747005,
      35.0428048
     ]
    ]
   },
   "geometry": {
    "type": "Polygon",
    "coordinates": [
     [
      [
       35.0033333,
       32.4747005
      ],
      [
       35.0045736,
       32.474684
      ],
      [
       35.0045736,
       32.474684
      ],
      [
       35.0058127,
       32.4746347
      ],
      [
       35.0058127,
       32.4746347
      ],
      [
       35.0070493,
       32.4745526
      ],
      [
       35.0070493,
       32.4745526
      ],
      [
       35.0082822,
       32.4744377
      ],
      [
       35.0082823,
       32.4744377
      ],
      [
       35.0095103,
       32.4742902
      ],
      [
       35.0095103,
       32.4742902
      ],
      [
       35.0107322,
       32.4741102
      ],
      [
       35.0107323,
       32.4741102
      ],
      [
       35.0119469,
       32.4738979
      ],
      [
       35.0119469,
       32.4738979
      ],
      [
       35.013153,
       32.4736536
      ],
      [
       35.013153,
       32.4736535
      ],
      [
       35.0143494,
       32.4733773
      ],
      [
       35.0143494,
       32.4733773
      ],
      [
       35.015535,
       32.4730695
      ],
      [
       35.015535,
       32.4730695
      ],
      [
       35.0167085,
       32.4727304
      ],
      [
       35.0167085,
       32.4727304
      ],
      [
       35.0178687,
       32.4723604
      ],
      [
       35.0178688,
       32.4723604
      ],
      [
       35.0190147,
       32.4719598
      ],
      [
       35.0190147,
       32.4719598
      ],
      [
       35.0201451,
       32.471529
      ],
      [
       35.0201451,
       32.471529
      ],
      [
       35.0212589,
       32.4710685
      ],
      [
       35.0212589,
       32.4710685
      ],
      [
       35.022355,
       32.4705786
      ],
      [
       35.022355,
       32.4705786
      ],
      [
       35.0234323,
       32.47006
      ],
      [
       35.0234324,
       32.47006
      ],
      [
       35.0244898,
       32.469513
      ],
      [
       35.0244898,
       32.469513
      ],
      [
       35.0255264,
       32.4689383
      ],
      [
       35.0255264,
       32.4689383
      ],
      [
       35.026541,
       32.4683364
      ],
      [
       35.026541,
       32.4683364
      ],
      [
       35.0275327,
       32.4677079
      ],
      [
       35.0275328,
       32.4677079
      ],
      [
       35.0285006,
       32.4670534
      ],
      [
       35.0285006,
       32.4670534
      ],
      [
       35.0294435,
       32.4663736
      ],
      [
       35.0294435,
       32.4663736
      ],
      [
       35.0303607,
       32.4656691
      ],
      [
       35.0303607,
       32.4656691
      ],
      [
       35.0312512,
       32.4649407
      ],
      [
       35.0312512,
       32.4649406
      ],
      [
       35.0321141,
       32.464189
      ],
      [
       35.0321141,
       32.464189
      ],
      [
       35.0329486,
       32.4634148
      ],
      [
       35.0329486,
       32.4634148
      ],
      [
       35.0337538,
       32.4626188
      ],
      [
       35.0337538,
       32.4626188
      ],
      [
       35.034529,
       32.461802
      ],
      [
       35.034529,
       32.4618019
      ],
      [
       35.0352734,
       32.4609649
      ],
      [
       35.0352734,
       32.4609649
      ],
      [
       35.0359862,
       32.4601086
      ],
      [
       35.0359862,
       32.4601086
      ],
      [
       35.0366668,
       32.4592337
      ],
      [
       35.0366668,
       32.4592337
      ],
      [
       35.0373145,
       32.4583413
      ],
      [
       35.0373145,
       32.4583413
      ],
      [
       35.0379286,
       32.4574321
      ],
      [
       35.0379286,
       32.4574321
      ],
      [
       35.0385086,
       32.4565072
      ],
      [
       35.0385086,
       32.4565071
      ],
      [
       35.0390538,
       32.4555672
      ],
      [
       35.0390538,
       32.4555672
      ],
      [
       35.0395638,
       32.4546133
      ],
      [
       35.0395638,
       32.4546133
      ],
      [
       35.040038,
       32.4536464
      ],
      [
       35.040038,
       32.4536464
      ],
      [
       35.0404759,
       32.4526673
      ],
      [
       35.0404759,
       32.4526673
      ],
      [
       35.0408772,
       32.4516772
      ],
      [
       35.0408772,
       32.4516772
      ],
      [
       35.0412414,
       32.4506769
      ],
      [
       35.0412415,
       32.4506768
      ],
      [
       35.0415683,
       32.4496674
      ],
      [
       35.0415683,
       32.4496674
      ],
      [
       35.0418573,
       32.4486497
      ],
      [
       35.0418573,
       32.4486497
      ],
      [
       35.0421083,
       32.4476249
      ],
      [
       35.0421083,
       32.4476249
      ],
      [
       35.0423211,
       32.446594
      ],
      [
       35.0423211,
       32.446594
      ],
      [
       35.0424954,
       32.4455579
      ],
      [
       35.0424954,
       32.4455579
      ],
      [
       35.042631,
       32.4445177
      ],
      [
       35.042631,
       32.4445177
      ],
      [
       35.0427278,
       32.4434744
      ],
      [
       35.0427278,
       32.4434744
      ],
      [
       35.0427858,
       32.4424291
      ],
      [
       35.0427858,
       32.4424291
      ],
      [
       35.0428048,
       32.4413827
      ],
      [
       35.0428048,
       32.4413827
      ],
      [
       35.0427849,
       32.4403364
      ],
      [
       35.0427849,
       32.4403364
      ],
      [
       35.042726,
       32.4392911
      ],
      [
       35.042726,
       32.4392911
      ],
      [
       35.0426283,
       32.4382479
      ],
      [
       35.0426283,
       32.4382479
      ],
      [
       35.0424918,
       32.4372078
      ],
      [
       35.0424917,
       32.4372078
      ],
      [
       35.0423166,
       32.4361718
      ],
      [
       35.0423166,
       32.4361718
      ],
      [
       35.042103,
       32.435141
      ],
      [
       35.042103,
       32.435141
      ],
      [
       35.0418511,
       32.4341163
      ],
      [
       35.0418511,
       32.4341163
      ],
      [
       35.0415612,
       32.4330989
      ],
      [
       35.0415612,
       32.4330988
      ],
      [
       35.0412336,
       32.4320896
      ],
      [
       35.0412336,
       32.4320896
      ],
      [
       35.0408687,
       32.4310895
      ],
      [
       35.0408686,
       32.4310895
      ],
      [
       35.0404666,
       32.4300996
      ],
      [
       35.0404666,
       32.4300995
      ],
      [
       35.040028,
       32.4291208
      ],
      [
       35.040028,
       32.4291207
      ],
      [
       35.0395532,
       32.4281541
      ],
      [
       35.0395531,
       32.4281541
      ],
      [
       35.0390426,
       32.4272005
      ],
      [
       35.0390426,
       32.4272005
      ],
      [
       35.0384968,
       32.4262609
      ],
      [
       35.0384968,
       32.4262609
      ],
      [
       35.0379163,
       32.4253362
      ],
      [
       35.0379163,
       32.4253362
      ],
      [
       35.0373017,
       32.4244274
      ],
      [
       35.0373017,
       32.4244273
      ],
      [
       35.0366536,
       32.4235353
      ],
      [
       35.0366536,
       32.4235353
      ],
      [
       35.0359727,
       32.4226608
      ],
      [
       35.0359726,
       32.4226608
      ],
      [
       35.0352595,
       32.4218048
      ],
      [
       35.0352595,
       32.4218048
      ],
      [
       35.0345149,
       32.4209682
      ],
      [
       35.0345148,
       32.4209681
      ],
      [
       35.0337395,
       32.4201516
      ],
      [
       35.0337395,
       32.4201516
      ],
      [
       35.0329341,
       32.4193561
      ],
      [
       35.0329341,
       32.4193561
      ],
      [
       35.0320995,
       32.4185823
      ],
      [
       35.0320995,
       32.4185823
      ],
      [
       35.0312366,
       32.417831
      ],
      [
       35.0312366,
       32.417831
      ],
      [
       35.0303462,
       32.4171029
      ],
      [
       35.0303461,
       32.4171029
      ],
      [
       35.0294291,
       32.4163988
      ],
      [
       35.029429,
       32.4163988
      ],
      [
       35.0284863,
       32.4157194
      ],
      [
       35.0284862,
       32.4157194
      ],
      [
       35.0275186,
       32.4150653
      ],
      [
       35.0275186,
       32.4150653
      ],
      [
       35.0265272,
       32.4144371
      ],
      [
       35.0265271,
       32.4144371
      ],
      [
       35.0255128,
       32.4138356
      ],
      [
       35.0255128,
       32.4138356
      ],
      [
       35.0244766,
       32.4132612
      ],
      [
       35.0244766,
       32.4132612
      ],
      [
       35.0234196,
       32.4127146
      ],
      [
       35.0234196,
       32.4127146
      ],
      [
       35.0223427,
       32.4121963
      ],
      [
       35.0223427,
       32.4121963
      ],
      [
       35.0212471,
       32.4117068
      ],
      [
       35.0212471,
       32.4117068
      ],
      [
       35.0201339,
       32.4112466
      ],
      [
       35.0201338,
       32.4112465
      ],
      [
       35.019004,
       32.4108161
      ],
      [
       35.019004,
       32.4108161
      ],
      [
       35.0178588,
       32.4104157
      ],
      [
       35.0178588,
       32.4104157
      ],
      [
       35.0166992,
       32.410046
      ],
      [
       35.0166992,
       32.4100459
      ],
      [
       35.0155264,
       32.4097071
      ],
      [
       35.0155264,
       32.4097071
      ],
      [
       35.0143416,
       32.4093995
      ],
      [
       35.0143416,
       32.4093995
      ],
      [
       35.013146,
       32.4091235
      ],
      [
       35.013146,
       32.4091235
      ],
      [
       35.0119407,
       32.4088793
      ],
      [
       35.0119407,
       32.4088793
      ],
      [
       35.0107269,
       32.4086671
      ],
      [
       35.0107269,
       32.4086671
      ],
      [
       35.0095058,
       32.4084873
      ],
      [
       35.0095058,
       32.4084873
      ],
      [
       35.0082786,
       32.4083399
      ],
      [
       35.0082786,
       32.4083399
      ],
      [
       35.0070466,
       32.4082251
      ],
      [
       35.0070465,
       32.4082251
      ],
      [
       35.0058109,
       32.408143
      ],
      [
       35.0058108,
       32.408143
      ],
      [
       35.0045727,
       32.4080937
      ],
      [
       35.0045727,
       32.4080937
      ],
      [
       35.0033333,
       32.4080773
      ],
      [
       35.0033333,
       32.4080773
      ],
      [
       35.002094,
       32.4080937
      ],
      [
       35.0020939,
       32.4080937
      ],
      [
       35.0008558,
       32.408143
      ],
      [
       35.0008558,
       32.408143
      ],
      [
       34.9996201,
       32.4082251
      ],
      [
       34.9996201,
       32.4082251
      ],
      [
       34.9983881,
       32.4083399
      ],
      [
       34.998388,
       32.4083399
      ],
      [
       34.9971609,
       32.4084873
      ],
      [
       34.9971609,
       32.4084873
      ],
      [
       34.9959398,
       32.4086671
      ],
      [
       34.9959398,
       32.4086671
      ],
      [
       34.994726,
       32.4088793
      ],
      [
       34.994726,
       32.4088793
      ],
      [
       34.9935207,
       32.4091235
      ],
      [
       34.9935207,
       32.4091235
      ],
      [
       34.9923251,
       32.4093995
      ],
      [
       34.992325,
       32.4093995
      ],
      [
       34.9911403,
       32.4097071
      ],
      [
       34.9911402,
       32.4097071
      ],
      [
       34.9899675,
       32.4100459
      ],
      [
       34.9899675,
       32.410046
      ],
      [
       34.9888079,
       32.4104157
      ],
      [
       34.9888079,
       32.4104157
      ],
      [
       34.9876626,
       32.4108161
      ],
      [
       34.9876626,
       32.4108161
      ],
      [
       34.9865328,
       32.4112465
      ],
      [
       34.9865328,
       32.4112466
      ],
      [
       34.9854196,
       32.4117068
      ],
      [
       34.9854195,
       32.4117068
      ],
      [
       34.984324,
       32.4121963
      ],
      [
       34.9843239,
       32.4121963
      ],
      [
       34.9832471,
       32.4127146
      ],
      [
       34.9832471,
       32.4127146
      ],
      [
       34.9821901,
       32.4132612
      ],
      [
       34.98219,
       32.4132612
      ],
      [
       34.9811539,
       32.4138356
      ],
      [
       34.9811538,
       32.4138356
      ],
      [
       34.9801395,
       32.4144371
      ],
      [
       34.9801395,
       32.4144371
      ],
      [
       34.9791481,
       32.4150653
      ],
      [
       34.979148,
       32.4150653
      ],
      [
       34.9781804,
       32.4157194
      ],
      [
       34.9781804,
       32.4157194
      ],
      [
       34.9772376,
       32.4163988
      ],
      [
       34.9772376,
       32.4163988
      ],
      [
       34.9763205,
       32.4171029
      ],
      [
       34.9763205,
       32.4171029
      ],
      [
       34.9754301,
       32.417831
      ],
      [
       34.9754301,
       32.417831
      ],
      [
       34.9745672,
       32.4185823
      ],
      [
       34.9745671,
       32.4185823
      ],
      [
       34.9737326,
       32.4193561
      ],
      [
       34.9737326,
       32.4193561
      ],
      [
       34.9729272,
       32.4201516
      ],
      [
       34.9729272,
       32.4201516
      ],
      [
       34.9721518,
       32.4209681
      ],
      [
       34.9721518,
       32.4209682
      ],
      [
       34.9714072,
       32.4218048
      ],
      [
       34.9714072,
       32.4218048
      ],
      [
       34.970694,
       32.4226608
      ],
      [
       34.970694,
       32.4226608
      ],
      [
       34.9700131,
       32.4235353
      ],
      [
       34.9700131,
       32.4235353
      ],
      [
       34.969365,
       32.4244273
      ],
      [
       34.969365,
       32.4244274
      ],
      [
       34.9687504,
       32.4253362
      ],
      [
       34.9687504,
       32.4253362
      ],
      [
       34.9681699,
       32.4262609
      ],
      [
       34.9681699,
       32.4262609
      ],
      [
       34.9676241,
       32.4272005
      ],
      [
       34.9676241,
       32.4272005
      ],
      [
       34.9671135,
       32.4281541
      ],
      [
       34.9671135,
       32.4281541
      ],
      [
       34.9666387,
       32.4291207
      ],
      [
       34.9666387,
       32.4291208
      ],
      [
       34.9662,
       32.4300995
      ],
      [
       34.9662,
       32.4300996
      ],
      [
       34.965798,
       32.4310895
      ],
      [
       34.965798,
       32.4310895
      ],
      [
       34.965433,
       32.4320896
      ],
      [
       34.965433,
       32.4320896
      ],
      [
       34.9651054,
       32.4330988
      ],
      [
       34.9651054,
       32.4330989
      ],
      [
       34.9648156,
       32.4341163
      ],
      [
       34.9648156,
       32.4341163
      ],
      [
       34.9645637,
       32.435141
      ],
      [
       34.9645637,
       32.435141
      ],
      [
       34.9643501,
       32.4361718
      ],
      [
       34.9643501,
       32.4361718
      ],
      [
       34.9641749,
       32.4372078
      ],
      [
       34.9641749,
       32.4372078
      ],
      [
       34.9640384,
       32.4382479
      ],
      [
       34.9640384,
       32.4382479
      ],
      [
       34.9639407,
       32.4392911
      ],
      [
       34.9639407,
       32.4392911
      ],
      [
       34.9638818,
       32.4403364
      ],
      [
       34.9638818,
       32.4403364
      ],
      [
       34.9638619,
       32.4413827
      ],
      [
       34.9638619,
       32.4413827
      ],
      [
       34.9638809,
       32.4424291
      ],
      [
       34.9638809,
       32.4424291
      ],
      [
       34.9639388,
       32.4434744
      ],
      [
       34.9639388,
       32.4434744
      ],
      [
       34.9640357,
       32.4445177
      ],
      [
       34.9640357,
       32.4445177
      ],
      [
       34.9641713,
       32.4455579
      ],
      [
       34.9641713,
       32.4455579
      ],
      [
       34.9643456,
       32.446594
      ],
      [
       34.9643456,
       32.446594
      ],
      [
       34.9645583,
       32.4476249
      ],
      [
       34.9645583,
       32.4476249
      ],
      [
       34.9648093,
       32.4486497
      ],
      [
       34.9648094,
       32.4486497
      ],
      [
       34.9650984,
       32.4496674
      ],
      [
       34.9650984,
       32.4496674
      ],
      [
       34.9654252,
       32.4506768
      ],
      [
       34.9654252,
       32.4506769
      ],
      [
       34.9657894,
       32.4516772
      ],
      [
       34.9657894,
       32.4516772
      ],
      [
       34.9661907,
       32.4526673
      ],
      [
       34.9661907,
       32.4526673
      ],
      [
       34.9666287,
       32.4536464
      ],
      [
       34.9666287,
       32.4536464
      ],
      [
       34.9671029,
       32.4546133
      ],
      [
       34.9671029,
       32.4546133
      ],
      [
       34.9676128,
       32.4555672
      ],
      [
       34.9676129,
       32.4555672
      ],
      [
       34.9681581,
       32.4565071
      ],
      [
       34.9681581,
       32.4565072
      ],
      [
       34.968738,
       32.4574321
      ],
      [
       34.9687381,
       32.4574321
      ],
      [
       34.9693522,
       32.4583413
      ],
      [
       34.9693522,
       32.4583413
      ],
      [
       34.9699999,
       32.4592337
      ],
      [
       34.9699999,
       32.4592337
      ],
      [
       34.9706805,
       32.4601086
      ],
      [
       34.9706805,
       32.4601086
      ],
      [
       34.9713933,
       32.4609649
      ],
      [
       34.9713933,
       32.4609649
      ],
      [
       34.9721377,
       32.4618019
      ],
      [
       34.9721377,
       32.461802
      ],
      [
       34.9729129,
       32.4626188
      ],
      [
       34.9729129,
       32.4626188
      ],
      [
       34.9737181,
       32.4634148
      ],
      [
       34.9737181,
       32.4634148
      ],
      [
       34.9745526,
       32.464189
      ],
      [
       34.9745526,
       32.464189
      ],
      [
       34.9754155,
       32.4649406
      ],
      [
       34.9754155,
       32.4649407
      ],
      [
       34.976306,
       32.4656691
      ],
      [
       34.976306,
       32.4656691
      ],
      [
       34.9772231,
       32.4663736
      ],
      [
       34.9772231,
       32.4663736
      ],
      [
       34.9781661,
       32.4670534
      ],
      [
       34.9781661,
       32.4670534
      ],
      [
       34.9791339,
       32.4677079
      ],
      [
       34.9791339,
       32.4677079
      ],
      [
       34.9801256,
       32.4683364
      ],
      [
       34.9801257,
       32.4683364
      ],
      [
       34.9811403,
       32.4689383
      ],
      [
       34.9811403,
       32.4689383
      ],
      [
       34.9821768,
       32.469513
      ],
      [
       34.9821769,
       32.469513
      ],
      [
       34.9832343,
       32.47006
      ],
      [
       34.9832343,
       32.47006
      ],
      [
       34.9843116,
       32.4705786
      ],
      [
       34.9843117,
       32.4705786
      ],
      [
       34.9854077,
       32.4710685
      ],
      [
       34.9854078,
       32.4710685
      ],
      [
       34.9865216,
       32.471529
      ],
      [
       34.9865216,
       32.471529
      ],
      [
       34.987652,
       32.4719598
      ],
      [
       34.987652,
       32.4719598
      ],
      [
       34.9887979,
       32.4723604
      ],
      [
       34.9887979,
       32.4723604
      ],
      [
       34.9899582,
       32.4727304
      ],
      [
       34.9899582,
       32.4727304
      ],
      [
       34.9911317,
       32.4730695
      ],
      [
       34.9911317,
       32.4730695
      ],
      [
       34.9923172,
       32.4733773
      ],
      [
       34.9923172,
       32.4733773
      ],
      [
       34.9935136,
       32.4736535
      ],
      [
       34.9935137,
       32.4736536
      ],
      [
       34.9947198,
       32.4738979
      ],
      [
       34.9947198,
       32.4738979
      ],
      [
       34.9959344,
       32.4741102
      ],
      [
       34.9959344,
       32.4741102
      ],
      [
       34.9971564,
       32.4742902
      ],
      [
       34.9971564,
       32.4742902
      ],
      [
       34.9983844,
       32.4744377
      ],
      [
       34.9983844,
       32.4744377
      ],
      [
       34.9996174,
       32.4745526
      ],
      [
       34.9996174,
       32.4745526
      ],
      [
       35.000854,
       32.4746347
      ],
      [
       35.000854,
       32.4746347
      ],
      [
       35.002093,
       32.474684
      ],
      [
       35.0020931,
       32.474684
      ],
      [
       35.0033333,
       32.4747005
      ],
      [
       35.0033333,
       32.4747005
      ]
     ]
    ]
   }
  },
  {
   "type": "Feature",
   "properties": {
    "ll": {
     "value": 0,
     "unit": 1,
     "referenceDatum": 0
    },
    "ul": {
     "value": 1000,
     "unit": 1,
     "referenceDatum": 1
    },
    "_id": "6277e4974a2a4f6a6d6d7092",
    "name": "ATZ MEGIDO NORTH",
    "type": 13,
    "icao": 6,
    "bnd": [
     [
      32.5983311,
      35.2149891
     ],
     [
      32.6144898,
      35.2533349
     ]
    ]
   },
   "geometry": {
    "type": "Polygon",
    "coordinates": [
     [
      [
       35.21499,
       32.5983311
      ],
      [
       35.2149898,
       32.5983311
      ],
      [
       35.2149896,
       32.5983312
      ],
      [
       35.2149895,
       32.5983312
      ],
      [
       35.2149893,
       32.5983313
      ],
      [
       35.2149892,
       32.5983315
      ],
      [
       35.2149891,
       32.5983316
      ],
      [
       35.2149891,
       32.5983317
      ],
      [
       35.2149891,
       32.5983319
      ],
      [
       35.2149984,
       32.5988394
      ],
      [
       35.2149984,
       32.5988394
      ],
      [
       35.2150267,
       32.5993463
      ],
      [
       35.2150267,
       32.5993464
      ],
      [
       35.2150739,
       32.5998523
      ],
      [
       35.2150739,
       32.5998524
      ],
      [
       35.2151399,
       32.6003568
      ],
      [
       35.2151399,
       32.6003569
      ],
      [
       35.2152246,
       32.6008593
      ],
      [
       35.2152247,
       32.6008594
      ],
      [
       35.2153281,
       32.6013593
      ],
      [
       35.2153281,
       32.6013594
      ],
      [
       35.2154502,
       32.6018564
      ],
      [
       35.2154502,
       32.6018564
      ],
      [
       35.2155907,
       32.6023499
      ],
      [
       35.2155907,
       32.6023499
      ],
      [
       35.2157496,
       32.6028395
      ],
      [
       35.2157496,
       32.6028395
      ],
      [
       35.2159267,
       32.6033246
      ],
      [
       35.2159267,
       32.6033247
      ],
      [
       35.2161217,
       32.6038049
      ],
      [
       35.2161217,
       32.6038049
      ],
      [
       35.2163346,
       32.6042797
      ],
      [
       35.2163346,
       32.6042797
      ],
      [
       35.2165651,
       32.6047486
      ],
      [
       35.2165651,
       32.6047486
      ],
      [
       35.2168129,
       32.6052112
      ],
      [
       35.2168129,
       32.6052113
      ],
      [
       35.2170779,
       32.6056671
      ],
      [
       35.2170779,
       32.6056671
      ],
      [
       35.2173597,
       32.6061157
      ],
      [
       35.2173598,
       32.6061157
      ],
      [
       35.2176582,
       32.6065566
      ],
      [
       35.2176582,
       32.6065566
      ],
      [
       35.2179729,
       32.6069894
      ],
      [
       35.2179729,
       32.6069894
      ],
      [
       35.2183036,
       32.6074136
      ],
      [
       35.2183037,
       32.6074137
      ],
      [
       35.21865,
       32.6078289
      ],
      [
       35.21865,
       32.6078289
      ],
      [
       35.2190117,
       32.6082349
      ],
      [
       35.2190117,
       32.6082349
      ],
      [
       35.2193884,
       32.608631
      ],
      [
       35.2193884,
       32.608631
      ],
      [
       35.2197796,
       32.609017
      ],
      [
       35.2197796,
       32.609017
      ],
      [
       35.2201851,
       32.6093924
      ],
      [
       35.2201851,
       32.6093925
      ],
      [
       35.2206043,
       32.609757
      ],
      [
       35.2206043,
       32.609757
      ],
      [
       35.221037,
       32.6101102
      ],
      [
       35.221037,
       32.6101102
      ],
      [
       35.2214826,
       32.6104519
      ],
      [
       35.2214826,
       32.6104519
      ],
      [
       35.2219407,
       32.6107815
      ],
      [
       35.2219407,
       32.6107816
      ],
      [
       35.2224109,
       32.6110989
      ],
      [
       35.2224109,
       32.6110989
      ],
      [
       35.2228927,
       32.6114037
      ],
      [
       35.2228927,
       32.6114037
      ],
      [
       35.2233856,
       32.6116956
      ],
      [
       35.2233857,
       32.6116956
      ],
      [
       35.2238892,
       32.6119743
      ],
      [
       35.2238892,
       32.6119743
      ],
      [
       35.224403,
       32.6122395
      ],
      [
       35.224403,
       32.6122395
      ],
      [
       35.2249263,
       32.612491
      ],
      [
       35.2249263,
       32.6124911
      ],
      [
       35.2254588,
       32.6127286
      ],
      [
       35.2254588,
       32.6127286
      ],
      [
       35.2259999,
       32.6129519
      ],
      [
       35.2259999,
       32.6129519
      ],
      [
       35.2265491,
       32.6131608
      ],
      [
       35.2265491,
       32.6131608
      ],
      [
       35.2271057,
       32.6133551
      ],
      [
       35.2271058,
       32.6133551
      ],
      [
       35.2276694,
       32.6135345
      ],
      [
       35.2276694,
       32.6135345
      ],
      [
       35.2282394,
       32.6136989
      ],
      [
       35.2282395,
       32.6136989
      ],
      [
       35.2288153,
       32.6138482
      ],
      [
       35.2288154,
       32.6138482
      ],
      [
       35.2293965,
       32.6139822
      ],
      [
       35.2293966,
       32.6139822
      ],
      [
       35.2299825,
       32.6141007
      ],
      [
       35.2299825,
       32.6141007
      ],
      [
       35.2305725,
       32.6142036
      ],
      [
       35.2305725,
       32.6142036
      ],
      [
       35.2311661,
       32.6142909
      ],
      [
       35.2311661,
       32.6142909
      ],
      [
       35.2317626,
       32.6143624
      ],
      [
       35.2317627,
       32.6143624
      ],
      [
       35.2323616,
       32.6144181
      ],
      [
       35.2323616,
       32.6144181
      ],
      [
       35.2329623,
       32.614458
      ],
      [
       35.2329623,
       32.614458
      ],
      [
       35.2335642,
       32.6144819
      ],
      [
       35.2335642,
       32.6144819
      ],
      [
       35.2341667,
       32.6144898
      ],
      [
       35.2341667,
       32.6144898
      ],
      [
       35.2347691,
       32.6144819
      ],
      [
       35.2347692,
       32.6144819
      ],
      [
       35.235371,
       32.614458
      ],
      [
       35.2353711,
       32.614458
      ],
      [
       35.2359717,
       32.6144181
      ],
      [
       35.2359718,
       32.6144181
      ],
      [
       35.2365707,
       32.6143624
      ],
      [
       35.2365707,
       32.6143624
      ],
      [
       35.2371672,
       32.6142909
      ],
      [
       35.2371673,
       32.6142909
      ],
      [
       35.2377608,
       32.6142036
      ],
      [
       35.2377608,
       32.6142036
      ],
      [
       35.2383509,
       32.6141007
      ],
      [
       35.2383509,
       32.6141007
      ],
      [
       35.2389368,
       32.6139822
      ],
      [
       35.2389368,
       32.6139822
      ],
      [
       35.239518,
       32.6138482
      ],
      [
       35.239518,
       32.6138482
      ],
      [
       35.2400939,
       32.6136989
      ],
      [
       35.2400939,
       32.6136989
      ],
      [
       35.2406639,
       32.6135345
      ],
      [
       35.240664,
       32.6135345
      ],
      [
       35.2412276,
       32.6133551
      ],
      [
       35.2412276,
       32.6133551
      ],
      [
       35.2417843,
       32.6131608
      ],
      [
       35.2417843,
       32.6131608
      ],
      [
       35.2423334,
       32.6129519
      ],
      [
       35.2423334,
       32.6129519
      ],
      [
       35.2428745,
       32.6127286
      ],
      [
       35.2428745,
       32.6127286
      ],
      [
       35.243407,
       32.6124911
      ],
      [
       35.243407,
       32.612491
      ],
      [
       35.2439304,
       32.6122395
      ],
      [
       35.2439304,
       32.6122395
      ],
      [
       35.2444441,
       32.6119743
      ],
      [
       35.2444441,
       32.6119743
      ],
      [
       35.2449477,
       32.6116956
      ],
      [
       35.2449477,
       32.6116956
      ],
      [
       35.2454406,
       32.6114037
      ],
      [
       35.2454406,
       32.6114037
      ],
      [
       35.2459224,
       32.6110989
      ],
      [
       35.2459224,
       32.6110989
      ],
      [
       35.2463926,
       32.6107816
      ],
      [
       35.2463926,
       32.6107815
      ],
      [
       35.2468507,
       32.6104519
      ],
      [
       35.2468508,
       32.6104519
      ],
      [
       35.2472963,
       32.6101102
      ],
      [
       35.2472964,
       32.6101102
      ],
      [
       35.247729,
       32.609757
      ],
      [
       35.247729,
       32.609757
      ],
      [
       35.2481482,
       32.6093925
      ],
      [
       35.2481483,
       32.6093924
      ],
      [
       35.2485537,
       32.609017
      ],
      [
       35.2485537,
       32.609017
      ],
      [
       35.2489449,
       32.608631
      ],
      [
       35.248945,
       32.608631
      ],
      [
       35.2493216,
       32.6082349
      ],
      [
       35.2493216,
       32.6082349
      ],
      [
       35.2496833,
       32.6078289
      ],
      [
       35.2496833,
       32.6078289
      ],
      [
       35.2500297,
       32.6074137
      ],
      [
       35.2500297,
       32.6074136
      ],
      [
       35.2503604,
       32.6069894
      ],
      [
       35.2503604,
       32.6069894
      ],
      [
       35.2506751,
       32.6065566
      ],
      [
       35.2506751,
       32.6065566
      ],
      [
       35.2509736,
       32.6061157
      ],
      [
       35.2509736,
       32.6061157
      ],
      [
       35.2512554,
       32.6056671
      ],
      [
       35.2512554,
       32.6056671
      ],
      [
       35.2515204,
       32.6052113
      ],
      [
       35.2515204,
       32.6052112
      ],
      [
       35.2517682,
       32.6047486
      ],
      [
       35.2517683,
       32.6047486
      ],
      [
       35.2519987,
       32.6042797
      ],
      [
       35.2519987,
       32.6042797
      ],
      [
       35.2522116,
       32.6038049
      ],
      [
       35.2522116,
       32.6038049
      ],
      [
       35.2524067,
       32.6033247
      ],
      [
       35.2524067,
       32.6033246
      ],
      [
       35.2525837,
       32.6028395
      ],
      [
       35.2525837,
       32.6028395
      ],
      [
       35.2527426,
       32.6023499
      ],
      [
       35.2527426,
       32.6023499
      ],
      [
       35.2528831,
       32.6018564
      ],
      [
       35.2528831,
       32.6018564
      ],
      [
       35.2530052,
       32.6013594
      ],
      [
       35.2530052,
       32.6013593
      ],
      [
       35.2531087,
       32.6008594
      ],
      [
       35.2531087,
       32.6008593
      ],
      [
       35.2531935,
       32.6003569
      ],
      [
       35.2531935,
       32.6003568
      ],
      [
       35.2532595,
       32.5998524
      ],
      [
       35.2532595,
       32.5998523
      ],
      [
       35.2533066,
       32.5993464
      ],
      [
       35.2533066,
       32.5993463
      ],
      [
       35.2533349,
       32.5988394
      ],
      [
       35.2533349,
       32.5988392
      ],
      [
       35.2533348,
       32.5988391
      ],
      [
       35.2533348,
       32.5988389
      ],
      [
       35.2533347,
       32.5988388
      ],
      [
       35.2533345,
       32.5988387
      ],
      [
       35.2533344,
       32.5988387
      ],
      [
       35.2533342,
       32.5988386
      ],
      [
       35.253334,
       32.5988386
      ],
      [
       35.21499,
       32.5983311
      ]
     ]
    ]
   }
  },
  {
   "type": "Feature",
   "properties": {
    "ll": {
     "value": 0,
     "unit": 1,
     "referenceDatum": 0
    },
    "ul": {
     "value": 1200,
     "unit": 1,
     "referenceDatum": 0
    },
    "_id": "627b5b0c6cf5074477abe050",
    "name": "ATZ MEGIDO SOUTH 124.4",
    "type": 13,
    "icao": 6,
    "bnd": [
     [
      32.5713508,
      35.2021548
     ],
     [
      32.59833,
      35.2661946
     ]
    ]
   },
   "geometry": {
    "type": "Polygon",
    "coordinates": [
     [
      [
       35.2661937,
       32.59833
      ],
      [
       35.2661939,
       32.59833
      ],
      [
       35.2661941,
       32.59833
      ],
      [
       35.2661942,
       32.5983299
      ],
      [
       35.2661944,
       32.5983298
      ],
      [
       35.2661945,
       32.5983297
      ],
      [
       35.2661946,
       32.5983296
      ],
      [
       35.2661946,
       32.5983294
      ],
      [
       35.2661946,
       32.5983293
      ],
      [
       35.2661785,
       32.5974817
      ],
      [
       35.2661785,
       32.5974817
      ],
      [
       35.2661308,
       32.5966351
      ],
      [
       35.2661308,
       32.596635
      ],
      [
       35.2660516,
       32.59579
      ],
      [
       35.2660516,
       32.59579
      ],
      [
       35.2659409,
       32.5949475
      ],
      [
       35.2659409,
       32.5949475
      ],
      [
       35.2657988,
       32.5941084
      ],
      [
       35.2657988,
       32.5941084
      ],
      [
       35.2656255,
       32.5932734
      ],
      [
       35.2656255,
       32.5932734
      ],
      [
       35.2654212,
       32.5924434
      ],
      [
       35.2654212,
       32.5924434
      ],
      [
       35.2651861,
       32.5916193
      ],
      [
       35.2651861,
       32.5916192
      ],
      [
       35.2649203,
       32.5908017
      ],
      [
       35.2649203,
       32.5908017
      ],
      [
       35.2646242,
       32.5899916
      ],
      [
       35.2646242,
       32.5899916
      ],
      [
       35.2642981,
       32.5891897
      ],
      [
       35.2642981,
       32.5891897
      ],
      [
       35.2639422,
       32.5883969
      ],
      [
       35.2639422,
       32.5883969
      ],
      [
       35.263557,
       32.5876139
      ],
      [
       35.2635569,
       32.5876138
      ],
      [
       35.2631427,
       32.5868414
      ],
      [
       35.2631427,
       32.5868414
      ],
      [
       35.2626999,
       32.5860803
      ],
      [
       35.2626999,
       32.5860803
      ],
      [
       35.2622289,
       32.5853313
      ],
      [
       35.2622289,
       32.5853313
      ],
      [
       35.2617303,
       32.5845951
      ],
      [
       35.2617302,
       32.5845951
      ],
      [
       35.2612044,
       32.5838725
      ],
      [
       35.2612044,
       32.5838725
      ],
      [
       35.2606519,
       32.5831641
      ],
      [
       35.2606519,
       32.5831641
      ],
      [
       35.2600732,
       32.5824708
      ],
      [
       35.2600732,
       32.5824707
      ],
      [
       35.2594691,
       32.581793
      ],
      [
       35.259469,
       32.581793
      ],
      [
       35.2588399,
       32.5811316
      ],
      [
       35.2588399,
       32.5811316
      ],
      [
       35.2581864,
       32.5804872
      ],
      [
       35.2581864,
       32.5804872
      ],
      [
       35.2575092,
       32.5798604
      ],
      [
       35.2575092,
       32.5798604
      ],
      [
       35.256809,
       32.5792518
      ],
      [
       35.256809,
       32.5792518
      ],
      [
       35.2560865,
       32.578662
      ],
      [
       35.2560865,
       32.578662
      ],
      [
       35.2553424,
       32.5780917
      ],
      [
       35.2553423,
       32.5780917
      ],
      [
       35.2545773,
       32.5775413
      ],
      [
       35.2545773,
       32.5775413
      ],
      [
       35.2537922,
       32.5770114
      ],
      [
       35.2537921,
       32.5770114
      ],
      [
       35.2529877,
       32.5765026
      ],
      [
       35.2529876,
       32.5765026
      ],
      [
       35.2521646,
       32.5760153
      ],
      [
       35.2521646,
       32.5760153
      ],
      [
       35.2513238,
       32.5755501
      ],
      [
       35.2513237,
       32.5755501
      ],
      [
       35.250466,
       32.5751073
      ],
      [
       35.250466,
       32.5751073
      ],
      [
       35.2495922,
       32.5746874
      ],
      [
       35.2495922,
       32.5746874
      ],
      [
       35.2487032,
       32.5742909
      ],
      [
       35.2487031,
       32.5742909
      ],
      [
       35.2477998,
       32.5739181
      ],
      [
       35.2477998,
       32.5739181
      ],
      [
       35.246883,
       32.5735694
      ],
      [
       35.246883,
       32.5735693
      ],
      [
       35.2459537,
       32.5732451
      ],
      [
       35.2459536,
       32.5732451
      ],
      [
       35.2450127,
       32.5729455
      ],
      [
       35.2450127,
       32.5729455
      ],
      [
       35.244061,
       32.572671
      ],
      [
       35.244061,
       32.572671
      ],
      [
       35.2430996,
       32.5724219
      ],
      [
       35.2430996,
       32.5724219
      ],
      [
       35.2421294,
       32.5721983
      ],
      [
       35.2421294,
       32.5721983
      ],
      [
       35.2411513,
       32.5720004
      ],
      [
       35.2411513,
       32.5720004
      ],
      [
       35.2401663,
       32.5718286
      ],
      [
       35.2401663,
       32.5718286
      ],
      [
       35.2391755,
       32.5716829
      ],
      [
       35.2391754,
       32.5716829
      ],
      [
       35.2381796,
       32.5715635
      ],
      [
       35.2381796,
       32.5715635
      ],
      [
       35.2371799,
       32.5714705
      ],
      [
       35.2371798,
       32.5714705
      ],
      [
       35.2361771,
       32.571404
      ],
      [
       35.2361771,
       32.571404
      ],
      [
       35.2351724,
       32.5713641
      ],
      [
       35.2351724,
       32.5713641
      ],
      [
       35.2341667,
       32.5713508
      ],
      [
       35.2341667,
       32.5713508
      ],
      [
       35.233161,
       32.5713641
      ],
      [
       35.2331609,
       32.5713641
      ],
      [
       35.2321562,
       32.571404
      ],
      [
       35.2321562,
       32.571404
      ],
      [
       35.2311535,
       32.5714705
      ],
      [
       35.2311535,
       32.5714705
      ],
      [
       35.2301537,
       32.5715635
      ],
      [
       35.2301537,
       32.5715635
      ],
      [
       35.2291579,
       32.5716829
      ],
      [
       35.2291579,
       32.5716829
      ],
      [
       35.228167,
       32.5718286
      ],
      [
       35.228167,
       32.5718286
      ],
      [
       35.2271821,
       32.5720004
      ],
      [
       35.227182,
       32.5720004
      ],
      [
       35.226204,
       32.5721983
      ],
      [
       35.2262039,
       32.5721983
      ],
      [
       35.2252337,
       32.5724219
      ],
      [
       35.2252337,
       32.5724219
      ],
      [
       35.2242723,
       32.572671
      ],
      [
       35.2242723,
       32.572671
      ],
      [
       35.2233207,
       32.5729455
      ],
      [
       35.2233206,
       32.5729455
      ],
      [
       35.2223797,
       32.5732451
      ],
      [
       35.2223797,
       32.5732451
      ],
      [
       35.2214504,
       32.5735693
      ],
      [
       35.2214503,
       32.5735694
      ],
      [
       35.2205336,
       32.5739181
      ],
      [
       35.2205335,
       32.5739181
      ],
      [
       35.2196302,
       32.5742909
      ],
      [
       35.2196302,
       32.5742909
      ],
      [
       35.2187412,
       32.5746874
      ],
      [
       35.2187411,
       32.5746874
      ],
      [
       35.2178673,
       32.5751073
      ],
      [
       35.2178673,
       32.5751073
      ],
      [
       35.2170096,
       32.5755501
      ],
      [
       35.2170096,
       32.5755501
      ],
      [
       35.2161688,
       32.5760153
      ],
      [
       35.2161688,
       32.5760153
      ],
      [
       35.2153457,
       32.5765026
      ],
      [
       35.2153457,
       32.5765026
      ],
      [
       35.2145412,
       32.5770114
      ],
      [
       35.2145412,
       32.5770114
      ],
      [
       35.213756,
       32.5775413
      ],
      [
       35.213756,
       32.5775413
      ],
      [
       35.212991,
       32.5780917
      ],
      [
       35.212991,
       32.5780917
      ],
      [
       35.2122468,
       32.578662
      ],
      [
       35.2122468,
       32.578662
      ],
      [
       35.2115243,
       32.5792518
      ],
      [
       35.2115243,
       32.5792518
      ],
      [
       35.2108241,
       32.5798604
      ],
      [
       35.2108241,
       32.5798604
      ],
      [
       35.2101469,
       32.5804872
      ],
      [
       35.2101469,
       32.5804872
      ],
      [
       35.2094935,
       32.5811316
      ],
      [
       35.2094934,
       32.5811316
      ],
      [
       35.2088643,
       32.581793
      ],
      [
       35.2088643,
       32.581793
      ],
      [
       35.2082601,
       32.5824707
      ],
      [
       35.2082601,
       32.5824708
      ],
      [
       35.2076815,
       32.5831641
      ],
      [
       35.2076814,
       32.5831641
      ],
      [
       35.2071289,
       32.5838725
      ],
      [
       35.2071289,
       32.5838725
      ],
      [
       35.2066031,
       32.5845951
      ],
      [
       35.2066031,
       32.5845951
      ],
      [
       35.2061044,
       32.5853313
      ],
      [
       35.2061044,
       32.5853313
      ],
      [
       35.2056335,
       32.5860803
      ],
      [
       35.2056334,
       32.5860803
      ],
      [
       35.2051906,
       32.5868414
      ],
      [
       35.2051906,
       32.5868414
      ],
      [
       35.2047764,
       32.5876138
      ],
      [
       35.2047764,
       32.5876139
      ],
      [
       35.2043911,
       32.5883969
      ],
      [
       35.2043911,
       32.5883969
      ],
      [
       35.2040353,
       32.5891897
      ],
      [
       35.2040353,
       32.5891897
      ],
      [
       35.2037091,
       32.5899916
      ],
      [
       35.2037091,
       32.5899916
      ],
      [
       35.203413,
       32.5908017
      ],
      [
       35.203413,
       32.5908017
      ],
      [
       35.2031473,
       32.5916192
      ],
      [
       35.2031473,
       32.5916193
      ],
      [
       35.2029121,
       32.5924434
      ],
      [
       35.2029121,
       32.5924434
      ],
      [
       35.2027078,
       32.5932734
      ],
      [
       35.2027078,
       32.5932734
      ],
      [
       35.2025345,
       32.5941084
      ],
      [
       35.2025345,
       32.5941084
      ],
      [
       35.2023925,
       32.5949475
      ],
      [
       35.2023925,
       32.5949475
      ],
      [
       35.2022818,
       32.59579
      ],
      [
       35.2022818,
       32.59579
      ],
      [
       35.2022025,
       32.596635
      ],
      [
       35.2022025,
       32.5966351
      ],
      [
       35.2021548,
       32.5974817
      ],
      [
       35.2021548,
       32.5974819
      ],
      [
       35.2021549,
       32.597482
      ],
      [
       35.202155,
       32.5974822
      ],
      [
       35.2021551,
       32.5974823
      ],
      [
       35.2021552,
       32.5974824
      ],
      [
       35.2021554,
       32.5974824
      ],
      [
       35.2021555,
       32.5974825
      ],
      [
       35.2021557,
       32.5974825
      ],
      [
       35.2661937,
       32.59833
      ]
     ]
    ]
   }
  },
  {
   "type": "Feature",
   "properties": {
    "ll": {
     "value": 0,
     "unit": 1,
     "referenceDatum": 0
    },
    "ul": {
     "value": 10000,
     "unit": 1,
     "referenceDatum": 0
    },
    "_id": "627a00718e63c9d6a252f356",
    "name": "CTR RAMAT DAVID FROM 1400 FRI TO SAT EVE.",
    "type": 4,
    "icao": 7,
    "bnd": [
     [
      32.6147222,
      35.1080556
     ],
     [
      32.7308333,
      35.2922222
     ]
    ]
   },
   "geometry": {
    "type": "Polygon",
    "coordinates": [
     [
      [
       35.1080556,
       32.7219444
      ],
      [
       35.2086111,
       32.7308333
      ],
      [
       35.2922222,
       32.6586111
      ],
      [
       35.29,
       32.6269444
      ],
      [
       35.2022222,
       32.6147222
      ],
      [
       35.1416667,
       32.6152778
      ],
      [
       35.1238889,
       32.6444444
      ],
      [
       35.1080556,
       32.7219444
      ]
     ]
    ]
   }
  },
  {
   "type": "Feature",
   "properties": {
    "ll": {
     "value": 0,
     "unit": 1,
     "referenceDatum": 0
    },
    "ul": {
     "value": 10000,
     "unit": 1,
     "referenceDatum": 0
    },
    "_id": "627c1f461cce9be40317178d",
    "name": "LLR107",
    "type": 1,
    "icao": 7,
    "bnd": [
     [
      32.5182452,
      35.0425081
     ],
     [
      32.5849678,
      35.1735419
     ]
    ]
   },
   "geometry": {
    "type": "Polygon",
    "coordinates": [
     [
      [
       35.1545246,
       32.5849677
      ],
      [
       35.1545247,
       32.5849677
      ],
      [
       35.1545249,
       32.5849678
      ],
      [
       35.1545251,
       32.5849678
      ],
      [
       35.1545252,
       32.5849677
      ],
      [
       35.1545254,
       32.5849677
      ],
      [
       35.1545255,
       32.5849676
      ],
      [
       35.1545257,
       32.5849675
      ],
      [
       35.1735417,
       32.5678145
      ],
      [
       35.1735418,
       32.5678144
      ],
      [
       35.1735418,
       32.5678143
      ],
      [
       35.1735419,
       32.5678141
      ],
      [
       35.1735419,
       32.567814
      ],
      [
       35.1735419,
       32.5678138
      ],
      [
       35.1735418,
       32.5678137
      ],
      [
       35.1735417,
       32.5678136
      ],
      [
       35.1735416,
       32.5678135
      ],
      [
       35.1735415,
       32.5678134
      ],
      [
       35.1735414,
       32.5678133
      ],
      [
       35.142212,
       32.5564425
      ],
      [
       35.1438209,
       32.5435901
      ],
      [
       35.1438209,
       32.5435899
      ],
      [
       35.1438209,
       32.5435898
      ],
      [
       35.1438208,
       32.5435896
      ],
      [
       35.1438207,
       32.5435895
      ],
      [
       35.1438206,
       32.5435894
      ],
      [
       35.1438204,
       32.5435893
      ],
      [
       35.1438202,
       32.5435893
      ],
      [
       35.1438201,
       32.5435892
      ],
      [
       35.1007157,
       32.5412583
      ],
      [
       35.0931089,
       32.5207558
      ],
      [
       35.0931088,
       32.5207556
      ],
      [
       35.0931087,
       32.5207555
      ],
      [
       35.0931086,
       32.5207554
      ],
      [
       35.0931084,
       32.5207553
      ],
      [
       35.0931082,
       32.5207553
      ],
      [
       35.0931081,
       32.5207552
      ],
      [
       35.0495331,
       32.5182452
      ],
      [
       35.0495329,
       32.5182452
      ],
      [
       35.0495327,
       32.5182453
      ],
      [
       35.0495325,
       32.5182454
      ],
      [
       35.0495324,
       32.5182455
      ],
      [
       35.0495323,
       32.5182456
      ],
      [
       35.0495322,
       32.5182457
      ],
      [
       35.0425082,
       32.5325057
      ],
      [
       35.0425081,
       32.5325059
      ],
      [
       35.0425081,
       32.532506
      ],
      [
       35.0425081,
       32.5325062
      ],
      [
       35.0425082,
       32.5325063
      ],
      [
       35.0425083,
       32.5325065
      ],
      [
       35.0425084,
       32.5325066
      ],
      [
       35.0425086,
       32.5325067
      ],
      [
       35.1545246,
       32.5849677
      ]
     ]
    ]
   }
  },
  {
   "type": "Feature",
   "properties": {
    "ll": {
     "value": 0,
     "unit": 1,
     "referenceDatum": 0
    },
    "ul": {
     "value": 10000,
     "unit": 1,
     "referenceDatum": 0
    },
    "_id": "62824da702d5370d9e5cf07b",
    "name": "MEGIDO NORTH",
    "type": 21,
    "icao": 6,
    "bnd": [
     [
      32.533256,
      35.2247354
     ],
     [
      32.883257,
      35.583545
     ]
    ]
   },
   "geometry": {
    "type": "Polygon",
    "coordinates": [
     [
      [
       35.305765,
       32.710757
      ],
      [
       35.300487,
       32.704924
      ],
      [
       35.289376,
       32.607146
      ],
      [
       35.266388,
       32.598886
      ],
      [
       35.266182,
       32.595999
      ],
      [
       35.265883,
       32.593159
      ],
      [
       35.264501,
       32.588971
      ],
      [
       35.26131,
       32.583704
      ],
      [
       35.257464,
       32.579357
      ],
      [
       35.252959,
       32.576277
      ],
      [
       35.250798,
       32.575187
      ],
      [
       35.248636,
       32.574097
      ],
      [
       35.245628,
       32.572993
      ],
      [
       35.244132,
       32.57254
      ],
      [
       35.242085,
       32.572034
      ],
      [
       35.238554,
       32.57147
      ],
      [
       35.235075,
       32.571248
      ],
      [
       35.232022,
       32.571346
      ],
      [
       35.231376,
       32.571392
      ],
      [
       35.231027,
       32.571427
      ],
      [
       35.230629,
       32.571474
      ],
      [
       35.230441,
       32.57133
      ],
      [
       35.2247354,
       32.5522042
      ],
      [
       35.25021,
       32.533256
      ],
      [
       35.544547,
       32.77811
      ],
      [
       35.583545,
       32.849923
      ],
      [
       35.483544,
       32.883257
      ],
      [
       35.305765,
       32.710757
      ]
     ]
    ]
   }
  },
  {
   "type": "Feature",
   "properties": {
    "ll": {
     "value": 0,
     "unit": 1,
     "referenceDatum": 0
    },
    "ul": {
     "value": 10000,
     "unit": 1,
     "referenceDatum": 0
    },
    "_id": "62839b18667721fdbc7fb0c7",
    "name": "MEGIDO SOUTH",
    "type": 21,
    "icao": 6,
    "bnd": [
     [
      32.520691,
      35.25021
     ],
     [
      32.77811,
      35.564119
     ]
    ]
   },
   "geometry": {
    "type": "Polygon",
    "coordinates": [
     [
      [
       35.544547,
       32.77811
      ],
      [
       35.25021,
       32.533256
      ],
      [
       35.354353,
       32.53965
      ],
      [
       35.405757,
       32.520691
      ],
      [
       35.457173,
       32.538348
      ],
      [
       35.466872,
       32.675434
      ],
      [
       35.536222,
       32.742093
      ],
      [
       35.564119,
       32.749889
      ],
      [
       35.544547,
       32.77811
      ]
     ]
    ]
   }
  },
  {
   "type": "Feature",
   "properties": {
    "ll": {
     "value": 0,
     "unit": 1,
     "referenceDatum": 0
    },
    "ul": {
     "value": 10000,
     "unit": 1,
     "referenceDatum": 0
    },
    "_id": "6284ed1afd30a6deb34da5bc",
    "name": "MENASHE",
    "type": 21,
    "icao": 6,
    "bnd": [
     [
      32.506835,
      34.961111
     ],
     [
      32.777778,
      35.159257
     ]
    ]
   },
   "geometry": {
    "type": "Polygon",
    "coordinates": [
     [
      [
       35.076481,
       32.506835
      ],
      [
       35.159257,
       32.58075
      ],
      [
       35.087499,
       32.598168
      ],
      [
       35.092222,
       32.749445
      ],
      [
       35.07102,
       32.753282
      ],
      [
       34.997222,
       32.777778
      ],
      [
       34.961111,
       32.688889
      ],
      [
       35.076481,
       32.506835
      ]
     ]
    ]
   }
  },
  {
   "type": "Feature",
   "properties": {
    "ll": {
     "value": 0,
     "unit": 1,
     "referenceDatum": 0
    },
    "ul": {
     "value": 10000,
     "unit": 1,
     "referenceDatum": 0
    },
    "_id": "6283a486667721fdbc7fb317",
    "name": "NAHAL IRON",
    "type": 21,
    "icao": 6,
    "bnd": [
     [
      32.466504,
      35.076481
     ],
     [
      32.58075,
      35.230441
     ]
    ]
   },
   "geometry": {
    "type": "Polygon",
    "coordinates": [
     [
      [
       35.224658,
       32.552239
      ],
      [
       35.230441,
       32.57133
      ],
      [
       35.224993,
       32.572368
      ],
      [
       35.219912,
       32.574129
      ],
      [
       35.215134,
       32.576419
      ],
      [
       35.211239,
       32.579686
      ],
      [
       35.191913,
       32.572856
      ],
      [
       35.159257,
       32.58075
      ],
      [
       35.076481,
       32.506835
      ],
      [
       35.089946,
       32.466504
      ],
      [
       35.138676,
       32.487176
      ],
      [
       35.137647,
       32.511445
      ],
      [
       35.178856,
       32.550503
      ],
      [
       35.224658,
       32.552239
      ]
     ]
    ]
   }
  },
  {
   "type": "Feature",
   "properties": {
    "ll": {
     "value": 0,
     "unit": 1,
     "referenceDatum": 0
    },
    "ul": {
     "value": 11000,
     "unit": 1,
     "referenceDatum": 0
    },
    "_id": "627a093c8e63c9d6a252f812",
    "name": "RAMAT DAVID 119.8",
    "type": 4,
    "icao": 7,
    "bnd": [
     [
      32.57282,
      35.087499
     ],
     [
      32.758118,
      35.300279
     ]
    ]
   },
   "geometry": {
    "type": "Polygon",
    "coordinates": [
     [
      [
       35.087499,
       32.598168
      ],
      [
       35.191923,
       32.57282
      ],
      [
       35.289167,
       32.607221
      ],
      [
       35.300279,
       32.705
      ],
      [
       35.233047,
       32.758118
      ],
      [
       35.092222,
       32.749445
      ],
      [
       35.087499,
       32.598168
      ]
     ]
    ]
   }
  }
 ]
}