{
 "type": "FeatureCollection",
 "countryCode": "qa",
 "features": [
  {
   "type": "Feature",
   "properties": {
    "ll": {
     "value": 0,
     "unit": 1,
     "referenceDatum": 0
    },
    "ul": {
     "value": 2500,
     "unit": 1,
     "referenceDatum": 1
    },
    "_id": "62614fed0e8346dfd924ff7d",
    "name": "DOHA CTR 118.900",
    "type": 4,
    "icao": 3,
    "bnd": [
     [
      24.9934679,
      51.2119444
     ],
     [
      25.5687377,
      51.9216667
     ]
    ]
   },
   "geometry": {
    "type": "Polygon",
    "coordinates": [
     [
      [
       51.6277778,
       25.5686111
      ],
      [
       51.6552778,
       25.5063889
      ],
      [
       51.6717891,
       25.5055951
      ],
      [
       51.6882443,
       25.5041352
      ],
      [
       51.7046104,
       25.5020122
      ],
      [
       51.7208546,
       25.4992304
      ],
      [
       51.7369441,
       25.4957953
      ],
      [
       51.7528468,
       25.4917138
      ],
      [
       51.7685306,
       25.4869941
      ],
      [
       51.7839641,
       25.4816458
      ],
      [
       51.7991164,
       25.4756794
      ],
      [
       51.8097222,
       25.4705556
      ],
      [
       51.9216667,
       25.2152778
      ],
      [
       51.9174176,
       25.2008099
      ],
      [
       51.9108082,
       25.1871427
      ],
      [
       51.9035328,
       25.1737557
      ],
      [
       51.8956059,
       25.1606756
      ],
      [
       51.8870435,
       25.1479283
      ],
      [
       51.8778629,
       25.1355391
      ],
      [
       51.8680824,
       25.1235326
      ],
      [
       51.8577216,
       25.1119327
      ],
      [
       51.8468013,
       25.1007623
      ],
      [
       51.8353432,
       25.0900437
      ],
      [
       51.8233701,
       25.0797979
      ],
      [
       51.810906,
       25.0700455
      ],
      [
       51.7979757,
       25.0608056
      ],
      [
       51.7846048,
       25.0520965
      ],
      [
       51.7708199,
       25.0439356
      ],
      [
       51.7566484,
       25.036339
      ],
      [
       51.7421185,
       25.0293217
      ],
      [
       51.7272589,
       25.0228976
      ],
      [
       51.7120991,
       25.0170795
      ],
      [
       51.6966691,
       25.0118788
      ],
      [
       51.6809995,
       25.0073058
      ],
      [
       51.6651214,
       25.0033696
      ],
      [
       51.6490661,
       25.000078
      ],
      [
       51.6328654,
       24.9974374
      ],
      [
       51.6165514,
       24.9954532
      ],
      [
       51.6001563,
       24.9941291
      ],
      [
       51.5837125,
       24.9934679
      ],
      [
       51.5672526,
       24.9934709
      ],
      [
       51.5508092,
       24.9941379
      ],
      [
       51.5344147,
       24.9954679
      ],
      [
       51.5181015,
       24.997458
      ],
      [
       51.501902,
       25.0001043
      ],
      [
       51.4858481,
       25.0034017
      ],
      [
       51.4699717,
       25.0073436
      ],
      [
       51.4543041,
       25.0119222
      ],
      [
       51.4388764,
       25.0171284
      ],
      [
       51.4237191,
       25.022952
      ],
      [
       51.4105556,
       25.0286111
      ],
      [
       51.325,
       24.9975
      ],
      [
       51.3086111,
       25.0347222
      ],
      [
       51.3004047,
       25.0353908
      ],
      [
       51.2922966,
       25.0367188
      ],
      [
       51.284351,
       25.0386957
      ],
      [
       51.2766312,
       25.0413058
      ],
      [
       51.2691985,
       25.0445284
      ],
      [
       51.2621118,
       25.0483378
      ],
      [
       51.2554275,
       25.0527039
      ],
      [
       51.2491988,
       25.057592
      ],
      [
       51.2434752,
       25.0629632
      ],
      [
       51.2383021,
       25.0687748
      ],
      [
       51.2337209,
       25.0749807
      ],
      [
       51.229768,
       25.0815316
      ],
      [
       51.226475,
       25.0883753
      ],
      [
       51.223868,
       25.0954575
      ],
      [
       51.221968,
       25.1027219
      ],
      [
       51.2207902,
       25.1101108
      ],
      [
       51.2203442,
       25.1175652
      ],
      [
       51.2206335,
       25.125026
      ],
      [
       51.221656,
       25.1324338
      ],
      [
       51.2234037,
       25.1397296
      ],
      [
       51.2258629,
       25.1468553
      ],
      [
       51.229014,
       25.1537543
      ],
      [
       51.2328321,
       25.1603716
      ],
      [
       51.237287,
       25.1666545
      ],
      [
       51.2423431,
       25.1725529
      ],
      [
       51.2461111,
       25.1755556
      ],
      [
       51.2119444,
       25.2527778
      ],
      [
       51.2975,
       25.2841667
      ],
      [
       51.3026566,
       25.2983224
      ],
      [
       51.3092117,
       25.3119967
      ],
      [
       51.3164378,
       25.3253923
      ],
      [
       51.3243205,
       25.3384822
      ],
      [
       51.3328442,
       25.3512401
      ],
      [
       51.3419921,
       25.3636406
      ],
      [
       51.351746,
       25.3756587
      ],
      [
       51.3620865,
       25.3872702
      ],
      [
       51.3729929,
       25.3984519
      ],
      [
       51.3816667,
       25.4066667
      ],
      [
       51.3541667,
       25.4688889
      ],
      [
       51.3652684,
       25.4799597
      ],
      [
       51.3776463,
       25.4898519
      ],
      [
       51.3905029,
       25.4992344
      ],
      [
       51.4038126,
       25.5080886
      ],
      [
       51.4175487,
       25.5163967
      ],
      [
       51.4316838,
       25.5241419
      ],
      [
       51.4461895,
       25.5313087
      ],
      [
       51.4610369,
       25.5378828
      ],
      [
       51.4761961,
       25.543851
      ],
      [
       51.4916368,
       25.5492012
      ],
      [
       51.5073281,
       25.5539228
      ],
      [
       51.5232384,
       25.5580062
      ],
      [
       51.5393357,
       25.5614433
      ],
      [
       51.5555879,
       25.5642271
      ],
      [
       51.5719622,
       25.566352
      ],
      [
       51.5884258,
       25.5678138
      ],
      [
       51.6049455,
       25.5686096
      ],
      [
       51.6214882,
       25.5687377
      ],
      [
       51.6277778,
       25.5686111
      ]
     ]
    ]
   }
  },
  {
   "type": "Feature",
   "properties": {
    "ll": {
     "value": 2500,
     "unit": 1,
     "referenceDatum": 1
    },
    "ul": {
     "value": 4500,
     "unit": 1,
     "referenceDatum": 1
    },
    "_id": "62614fedcb27f4250946088c",
    "name": "DOHA TMA 1",
    "type": 0,
    "icao": 2,
    "bnd": [
     [
      24.8119444,
      51.2944444
     ],
     [
      25.9227778,
      51.9558333
     ]
    ]
   },
   "geometry": {
    "type": "Polygon",
    "coordinates": [
     [
      [
       51.7383333,
       25.9227778
      ],
      [
       51.9355556,
       25.6180556
      ],
      [
       51.9558333,
       25.1375
      ],
      [
       51.9233333,
       24.8775
      ],
      [
       51.7911111,
       24.8205556
      ],
      [
       51.4877778,
       24.8119444
      ],
      [
       51.2972222,
       25.2838889
      ],
      [
       51.2944444,
       25.4961111
      ],
      [
       51.4927778,
       25.7930556
      ],
      [
       51.58,
       25.8688889
      ],
      [
       51.7383333,
       25.9227778
      ]
     ]
    ]
   }
  },
  {
   "type": "Feature",
   "properties": {
    "ll": {
     "value": 2500,
     "unit": 1,
     "referenceDatum": 1
    },
    "ul": {
     "value": 4500,
     "unit": 1,
     "referenceDatum": 1
    },
    "_id": "62614fed0e8346dfd924ff87",
    "name": "DOHA TMA 1A",
    "type": 0,
    "icao": 2,
    "bnd": [
     [
      24.665,
      51.1602778
     ],
     [
      25.4961111,
      51.7911111
     ]
    ]
   },
   "geometry": {
    "type": "Polygon",
    "coordinates": [
     [
      [
       51.1602778,
       25.47
      ],
      [
       51.2944444,
       25.4961111
      ],
      [
       51.2972222,
       25.2838889
      ],
      [
       51.4877778,
       24.8119444
      ],
      [
       51.7911111,
       24.8205556
      ],
      [
       51.6611111,
       24.665
      ],
      [
       51.4388889,
       24.7088889
      ],
      [
       51.3025,
       24.9119444
      ],
      [
       51.1633333,
       25.2413889
      ],
      [
       51.1602778,
       25.47
      ]
     ]
    ]
   }
  },
  {
   "type": "Feature",
   "properties": {
    "ll": {
     "value": 3500,
     "unit": 1,
     "referenceDatum": 1
    },
    "ul": {
     "value": 4500,
     "unit": 1,
     "referenceDatum": 1
    },
    "_id": "62614fedcb27f42509460896",
    "name": "DOHA TMA 2",
    "type": 0,
    "icao": 2,
    "bnd": [
     [
      24.8775,
      51.7383333
     ],
     [
      25.9447222,
      52.2047222
     ]
    ]
   },
   "geometry": {
    "type": "Polygon",
    "coordinates": [
     [
      [
       51.7383333,
       25.9227778
      ],
      [
       51.8033333,
       25.9447222
      ],
      [
       52.0052778,
       25.8491667
      ],
      [
       52.2047222,
       25.3538889
      ],
      [
       52.1377778,
       24.9113889
      ],
      [
       52.0216667,
       24.9122222
      ],
      [
       51.9233333,
       24.8775
      ],
      [
       51.9558333,
       25.1375
      ],
      [
       51.9355556,
       25.6180556
      ],
      [
       51.7383333,
       25.9227778
      ]
     ]
    ]
   }
  },
  {
   "type": "Feature",
   "properties": {
    "ll": {
     "value": 3500,
     "unit": 1,
     "referenceDatum": 1
    },
    "ul": {
     "value": 4500,
     "unit": 1,
     "referenceDatum": 1
    },
    "_id": "62614fed0e8346dfd924ff9b",
    "name": "DOHA TMA 2A",
    "type": 0,
    "icao": 2,
    "bnd": [
     [
      24.5034694,
      51.4344472
     ],
     [
      24.7090056,
      51.6612028
     ]
    ]
   },
   "geometry": {
    "type": "Polygon",
    "coordinates": [
     [
      [
       51.4387972,
       24.7090056
      ],
      [
       51.6612028,
       24.6650861
      ],
      [
       51.6475861,
       24.6487583
      ],
      [
       51.6131528,
       24.5034694
      ],
      [
       51.4344472,
       24.5387722
      ],
      [
       51.4652528,
       24.6695472
      ],
      [
       51.4387972,
       24.7090056
      ]
     ]
    ]
   }
  },
  {
   "type": "Feature",
   "properties": {
    "ll": {
     "value": 4500,
     "unit": 1,
     "referenceDatum": 1
    },
    "ul": {
     "value": 145,
     "unit": 6,
     "referenceDatum": 2
    },
    "_id": "62614fedcb27f425094608a3",
    "name": "DOHA TMA 3",
    "type": 0,
    "icao": 2,
    "bnd": [
     [
      24.4230556,
      50.6477778
     ],
     [
      26.2841667,
      52.8272222
     ]
    ]
   },
   "geometry": {
    "type": "Polygon",
    "coordinates": [
     [
      [
       52.8272222,
       25.4561111
      ],
      [
       52.3341667,
       24.7972222
      ],
      [
       51.7016667,
       24.7136111
      ],
      [
       51.6475,
       24.6486111
      ],
      [
       51.6130556,
       24.5033333
      ],
      [
       51.5833333,
       24.4266667
      ],
      [
       50.9847222,
       24.4230556
      ],
      [
       50.8166667,
       24.75
      ],
      [
       50.6477778,
       25.2627778
      ],
      [
       50.8383333,
       25.665
      ],
      [
       51.0783333,
       26.2841667
      ],
      [
       52.8272222,
       25.4561111
      ]
     ]
    ]
   }
  },
  {
   "type": "Feature",
   "properties": {
    "ll": {
     "value": 0,
     "unit": 1,
     "referenceDatum": 0
    },
    "ul": {
     "value": 10000,
     "unit": 1,
     "referenceDatum": 1
    },
    "_id": "62614fedcb27f425094608ba",
    "name": "OT-D1 ALQALAEL",
    "type": 2,
    "icao": 7,
    "bnd": [
     [
      24.6,
      50.9166667
     ],
     [
      24.9,
      51.0666667
     ]
    ]
   },
   "geometry": {
    "type": "Polygon",
    "coordinates": [
     [
      [
       50.9166667,
       24.6
      ],
      [
       50.9166667,
       24.9
      ],
      [
       51.0666667,
       24.9
      ],
      [
       51.0666667,
       24.6
      ],
      [
       50.9166667,
       24.6
      ]
     ]
    ]
   }
  },
  {
   "type": "Feature",
   "properties": {
    "ll": {
     "value": 0,
     "unit": 1,
     "referenceDatum": 0
    },
    "ul": {
     "value": 20000,
     "unit": 1,
     "referenceDatum": 1
    },
    "_id": "62614fedcb27f425094608b0",
    "name": "OT-D17",
    "type": 2,
    "icao": 7,
    "bnd": [
     [
      24.75,
      50.6166667
     ],
     [
      25.4305556,
      50.8611111
     ]
    ]
   },
   "geometry": {
    "type": "Polygon",
    "coordinates": [
     [
      [
       50.75,
       25.4305556
      ],
      [
       50.7666667,
       25.1166667
      ],
      [
       50.8611111,
       24.7638889
      ],
      [
       50.8166667,
       24.75
      ],
      [
       50.6666667,
       25.1166667
      ],
      [
       50.6166667,
       25.4166667
      ],
      [
       50.75,
       25.4305556
      ]
     ]
    ]
   }
  },
  {
   "type": "Feature",
   "properties": {
    "ll": {
     "value": 0,
     "unit": 1,
     "referenceDatum": 0
    },
    "ul": {
     "value": 20000,
     "unit": 1,
     "referenceDatum": 1
    },
    "_id": "62614fedcb27f425094608c4",
    "name": "OT-D2",
    "type": 2,
    "icao": 7,
    "bnd": [
     [
      24.4969444,
      50.9186111
     ],
     [
      24.6016667,
      51.2047222
     ]
    ]
   },
   "geometry": {
    "type": "Polygon",
    "coordinates": [
     [
      [
       50.9186111,
       24.6016667
      ],
      [
       51.2047222,
       24.5988889
      ],
      [
       51.1911111,
       24.4972222
      ],
      [
       51.0688889,
       24.4969444
      ],
      [
       50.9186111,
       24.6016667
      ]
     ]
    ]
   }
  },
  {
   "type": "Feature",
   "properties": {
    "ll": {
     "value": 0,
     "unit": 1,
     "referenceDatum": 0
    },
    "ul": {
     "value": 3500,
     "unit": 1,
     "referenceDatum": 1
    },
    "_id": "62614feecb27f425094608cf",
    "name": "OT-D26 BIR ZIRKIT",
    "type": 2,
    "icao": 7,
    "bnd": [
     [
      25.4167278,
      50.7744372
     ],
     [
      25.5832771,
      50.9588579
     ]
    ]
   },
   "geometry": {
    "type": "Polygon",
    "coordinates": [
     [
      [
       50.8666667,
       25.5832771
      ],
      [
       50.8749145,
       25.5829439
      ],
      [
       50.8830962,
       25.5819471
      ],
      [
       50.8911463,
       25.5802945
      ],
      [
       50.8990003,
       25.5779995
      ],
      [
       50.9065952,
       25.5750805
      ],
      [
       50.9138703,
       25.5715608
      ],
      [
       50.9207672,
       25.5674686
      ],
      [
       50.9272308,
       25.5628367
      ],
      [
       50.9332094,
       25.5577022
      ],
      [
       50.9386552,
       25.5521062
      ],
      [
       50.9435246,
       25.5460935
      ],
      [
       50.9477787,
       25.5397123
      ],
      [
       50.9513836,
       25.5330136
      ],
      [
       50.9543106,
       25.526051
      ],
      [
       50.9565363,
       25.5188804
      ],
      [
       50.958043,
       25.5115589
      ],
      [
       50.9588189,
       25.5041452
      ],
      [
       50.9588579,
       25.4966987
      ],
      [
       50.9581598,
       25.4892787
      ],
      [
       50.9567303,
       25.4819447
      ],
      [
       50.954581,
       25.4747553
      ],
      [
       50.9517292,
       25.4677678
      ],
      [
       50.9481977,
       25.4610383
      ],
      [
       50.944015,
       25.4546203
      ],
      [
       50.9392145,
       25.4485653
      ],
      [
       50.9338346,
       25.4429214
      ],
      [
       50.9279184,
       25.4377339
      ],
      [
       50.9215132,
       25.4330441
      ],
      [
       50.9146702,
       25.4288895
      ],
      [
       50.907444,
       25.4253032
      ],
      [
       50.8998924,
       25.4223138
      ],
      [
       50.8920756,
       25.4199452
      ],
      [
       50.8840561,
       25.4182164
      ],
      [
       50.8758978,
       25.4171411
      ],
      [
       50.8676658,
       25.4167278
      ],
      [
       50.8594258,
       25.4169799
      ],
      [
       50.8512437,
       25.4178954
      ],
      [
       50.8431846,
       25.419467
      ],
      [
       50.8353129,
       25.4216821
      ],
      [
       50.8276914,
       25.4245231
      ],
      [
       50.8203809,
       25.4279672
      ],
      [
       50.81344,
       25.431987
      ],
      [
       50.8069238,
       25.4365504
      ],
      [
       50.8008847,
       25.441621
      ],
      [
       50.7953708,
       25.4471583
      ],
      [
       50.7904262,
       25.453118
      ],
      [
       50.7860905,
       25.4594527
      ],
      [
       50.7823984,
       25.4661116
      ],
      [
       50.7793796,
       25.4730416
      ],
      [
       50.7770583,
       25.4801873
      ],
      [
       50.7754531,
       25.4874916
      ],
      [
       50.774577,
       25.4948962
      ],
      [
       50.7744372,
       25.5023418
      ],
      [
       50.7750349,
       25.5097689
      ],
      [
       50.7763655,
       25.5171181
      ],
      [
       50.7784184,
       25.5243306
      ],
      [
       50.7811773,
       25.5313488
      ],
      [
       50.7846204,
       25.5381164
      ],
      [
       50.7887202,
       25.5445793
      ],
      [
       50.7934439,
       25.5506858
      ],
      [
       50.7987538,
       25.556387
      ],
      [
       50.8046075,
       25.5616373
      ],
      [
       50.8109582,
       25.5663945
      ],
      [
       50.8177551,
       25.5706206
      ],
      [
       50.8249438,
       25.5742818
      ],
      [
       50.8324667,
       25.5773488
      ],
      [
       50.8402636,
       25.5797968
      ],
      [
       50.8482721,
       25.5816064
      ],
      [
       50.8564279,
       25.5827631
      ],
      [
       50.8646658,
       25.5832575
      ],
      [
       50.8666667,
       25.5832771
      ]
     ]
    ]
   }
  },
  {
   "type": "Feature",
   "properties": {
    "ll": {
     "value": 0,
     "unit": 1,
     "referenceDatum": 0
    },
    "ul": {
     "value": 10000,
     "unit": 1,
     "referenceDatum": 1
    },
    "_id": "62614feecb27f425094608df",
    "name": "OT-D28 ALASHAT",
    "type": 2,
    "icao": 7,
    "bnd": [
     [
      24.7933333,
      51.8333333
     ],
     [
      25.0083333,
      52.2666667
     ]
    ]
   },
   "geometry": {
    "type": "Polygon",
    "coordinates": [
     [
      [
       52.2666667,
       24.9833333
      ],
      [
       52.2666667,
       24.8966667
      ],
      [
       52.24,
       24.875
      ],
      [
       51.8333333,
       24.7933333
      ],
      [
       51.8333333,
       24.94
      ],
      [
       51.8566667,
       24.9566667
      ],
      [
       52.1766667,
       25.0083333
      ],
      [
       52.2666667,
       24.9833333
      ]
     ]
    ]
   }
  },
  {
   "type": "Feature",
   "properties": {
    "ll": {
     "value": 0,
     "unit": 1,
     "referenceDatum": 0
    },
    "ul": {
     "value": 10000,
     "unit": 1,
     "referenceDatum": 1
    },
    "_id": "62614feecb27f425094608eb",
    "name": "OT-D29",
    "type": 2,
    "icao": 7,
    "bnd": [
     [
      25.1416667,
      51.3416667
     ],
     [
      25.1833333,
      51.3916667
     ]
    ]
   },
   "geometry": {
    "type": "Polygon",
    "coordinates": [
     [
      [
       51.3666667,
       25.1416667
      ],
      [
       51.3416667,
       25.175
      ],
      [
       51.3666667,
       25.1833333
      ],
      [
       51.3916667,
       25.1583333
      ],
      [
       51.3666667,
       25.1416667
      ]
     ]
    ]
   }
  },
  {
   "type": "Feature",
   "properties": {
    "ll": {
     "value": 0,
     "unit": 1,
     "referenceDatum": 0
    },
    "ul": {
     "value": 15000,
     "unit": 1,
     "referenceDatum": 1
    },
    "_id": "62614feecb27f425094608f9",
    "name": "OT-P43",
    "type": 3,
    "icao": 7,
    "bnd": [
     [
      25.6666667,
      51
     ],
     [
      25.9333333,
      51.3333333
     ]
    ]
   },
   "geometry": {
    "type": "Polygon",
    "coordinates": [
     [
      [
       51,
       25.9333333
      ],
      [
       51.3333333,
       25.9333333
      ],
      [
       51.3333333,
       25.6666667
      ],
      [
       51,
       25.6666667
      ],
      [
       51,
       25.9333333
      ]
     ]
    ]
   }
  },
  {
   "type": "Feature",
   "properties": {
    "ll": {
     "value": 0,
     "unit": 1,
     "referenceDatum": 0
    },
    "ul": {
     "value": 1500,
     "unit": 1,
     "referenceDatum": 1
    },
    "_id": "62614feecb27f42509460906",
    "name": "OT-P44 WUSAYL",
    "type": 3,
    "icao": 7,
    "bnd": [
     [
      25.433373,
      51.5232918
     ],
     [
      25.4666554,
      51.5601041
     ]
    ]
   },
   "geometry": {
    "type": "Polygon",
    "coordinates": [
     [
      [
       51.5416667,
       25.4666554
      ],
      [
       51.5453317,
       25.4663234
      ],
      [
       51.5488505,
       25.4653405
      ],
      [
       51.5520829,
       25.4637459
      ],
      [
       51.5548998,
       25.4616033
      ],
      [
       51.557189,
       25.4589981
      ],
      [
       51.5588593,
       25.4560342
      ],
      [
       51.559844,
       25.4528298
      ],
      [
       51.5601041,
       25.4495125
      ],
      [
       51.5596291,
       25.4462148
      ],
      [
       51.558438,
       25.4430679
      ],
      [
       51.5565784,
       25.4401975
      ],
      [
       51.5541245,
       25.4377179
      ],
      [
       51.5511741,
       25.4357279
      ],
      [
       51.5478448,
       25.4343068
      ],
      [
       51.5442693,
       25.4335112
      ],
      [
       51.5405901,
       25.433373
      ],
      [
       51.5369538,
       25.4338975
      ],
      [
       51.5335052,
       25.4350639
      ],
      [
       51.530382,
       25.4368257
      ],
      [
       51.5277084,
       25.4391126
      ],
      [
       51.5255912,
       25.4418336
      ],
      [
       51.5241148,
       25.4448802
      ],
      [
       51.523338,
       25.4481309
      ],
      [
       51.5232918,
       25.4514562
      ],
      [
       51.5239783,
       25.4547235
      ],
      [
       51.52537,
       25.4578024
      ],
      [
       51.5274115,
       25.4605704
      ],
      [
       51.5300215,
       25.4629169
      ],
      [
       51.5330959,
       25.4647484
      ],
      [
       51.5365121,
       25.4659919
      ],
      [
       51.5401338,
       25.4665978
      ],
      [
       51.5416667,
       25.4666554
      ]
     ]
    ]
   }
  },
  {
   "type": "Feature",
   "properties": {
    "ll": {
     "value": 0,
     "unit": 1,
     "referenceDatum": 0
    },
    "ul": {
     "value": 1500,
     "unit": 1,
     "referenceDatum": 1
    },
    "_id": "62614feecb27f42509460913",
    "name": "OT-P45 QATAR",
    "type": 3,
    "icao": 7,
    "bnd": [
     [
      25.2744841,
      51.5102604
     ],
     [
      25.3077665,
      51.5470243
     ]
    ]
   },
   "geometry": {
    "type": "Polygon",
    "coordinates": [
     [
      [
       51.5286111,
       25.3077665
      ],
      [
       51.5322713,
       25.3074345
      ],
      [
       51.5357855,
       25.3064516
      ],
      [
       51.5390136,
       25.3048571
      ],
      [
       51.5418269,
       25.3027145
      ],
      [
       51.5441131,
       25.3001093
      ],
      [
       51.5457812,
       25.2971453
      ],
      [
       51.5467646,
       25.2939409
      ],
      [
       51.5470243,
       25.2906236
      ],
      [
       51.5465499,
       25.2873259
      ],
      [
       51.5453604,
       25.2841791
      ],
      [
       51.5435033,
       25.2813086
      ],
      [
       51.5410526,
       25.278829
      ],
      [
       51.5381061,
       25.276839
      ],
      [
       51.5347812,
       25.2754179
      ],
      [
       51.5312103,
       25.2746224
      ],
      [
       51.5275359,
       25.2744841
      ],
      [
       51.5239044,
       25.2750086
      ],
      [
       51.5204604,
       25.276175
      ],
      [
       51.5173412,
       25.2779368
      ],
      [
       51.5146712,
       25.2802237
      ],
      [
       51.5125568,
       25.2829447
      ],
      [
       51.5110823,
       25.2859913
      ],
      [
       51.5103065,
       25.289242
      ],
      [
       51.5102604,
       25.2925673
      ],
      [
       51.510946,
       25.2958346
      ],
      [
       51.5123359,
       25.2989136
      ],
      [
       51.5143747,
       25.3016815
      ],
      [
       51.5169812,
       25.304028
      ],
      [
       51.5200516,
       25.3058596
      ],
      [
       51.5234633,
       25.3071031
      ],
      [
       51.5270803,
       25.3077089
      ],
      [
       51.5286111,
       25.3077665
      ]
     ]
    ]
   }
  },
  {
   "type": "Feature",
   "properties": {
    "ll": {
     "value": 0,
     "unit": 1,
     "referenceDatum": 0
    },
    "ul": {
     "value": 1500,
     "unit": 1,
     "referenceDatum": 1
    },
    "_id": "62614feecb27f42509460920",
    "name": "OT-P46 RAYYAN",
    "type": 3,
    "icao": 7,
    "bnd": [
     [
      25.2667063,
      51.4483172
     ],
     [
      25.2999887,
      51.4850787
     ]
    ]
   },
   "geometry": {
    "type": "Polygon",
    "coordinates": [
     [
      [
       51.4666667,
       25.2999887
      ],
      [
       51.4703266,
       25.2996567
      ],
      [
       51.4738406,
       25.2986738
      ],
      [
       51.4770685,
       25.2970793
      ],
      [
       51.4798816,
       25.2949367
      ],
      [
       51.4821676,
       25.2923315
      ],
      [
       51.4838356,
       25.2893676
      ],
      [
       51.484819,
       25.2861631
      ],
      [
       51.4850787,
       25.2828459
      ],
      [
       51.4846043,
       25.2795481
      ],
      [
       51.4834149,
       25.2764013
      ],
      [
       51.4815579,
       25.2735309
      ],
      [
       51.4791074,
       25.2710512
      ],
      [
       51.476161,
       25.2690612
      ],
      [
       51.4728363,
       25.2676401
      ],
      [
       51.4692657,
       25.2668446
      ],
      [
       51.4655916,
       25.2667063
      ],
      [
       51.4619602,
       25.2672308
      ],
      [
       51.4585165,
       25.2683972
      ],
      [
       51.4553975,
       25.270159
      ],
      [
       51.4527277,
       25.272446
      ],
      [
       51.4506134,
       25.275167
      ],
      [
       51.449139,
       25.2782135
      ],
      [
       51.4483632,
       25.2814643
      ],
      [
       51.4483172,
       25.2847895
      ],
      [
       51.4490027,
       25.2880568
      ],
      [
       51.4503925,
       25.2911358
      ],
      [
       51.4524312,
       25.2939037
      ],
      [
       51.4550375,
       25.2962502
      ],
      [
       51.4581077,
       25.2980818
      ],
      [
       51.4615192,
       25.2993253
      ],
      [
       51.465136,
       25.2999311
      ],
      [
       51.4666667,
       25.2999887
      ]
     ]
    ]
   }
  },
  {
   "type": "Feature",
   "properties": {
    "ll": {
     "value": 0,
     "unit": 1,
     "referenceDatum": 0
    },
    "ul": {
     "value": 5000,
     "unit": 1,
     "referenceDatum": 1
    },
    "_id": "62614feecb27f4250946092d",
    "name": "OT-P47 QATAR",
    "type": 3,
    "icao": 7,
    "bnd": [
     [
      25.2714238,
      51.3579309
     ],
     [
      25.321372,
      51.4131338
     ]
    ]
   },
   "geometry": {
    "type": "Polygon",
    "coordinates": [
     [
      [
       51.3855556,
       25.321372
      ],
      [
       51.3900501,
       25.3210394
      ],
      [
       51.3944249,
       25.3200504
      ],
      [
       51.3985635,
       25.3184313
      ],
      [
       51.4023556,
       25.3162254
      ],
      [
       51.4057002,
       25.3134913
      ],
      [
       51.4085083,
       25.3103019
      ],
      [
       51.4107051,
       25.306742
      ],
      [
       51.4122322,
       25.3029066
      ],
      [
       51.413049,
       25.2988977
      ],
      [
       51.4131338,
       25.2948221
      ],
      [
       51.4124845,
       25.2907883
      ],
      [
       51.4111184,
       25.2869036
      ],
      [
       51.4090718,
       25.2832715
      ],
      [
       51.4063995,
       25.2799886
      ],
      [
       51.4031724,
       25.2771423
      ],
      [
       51.3994765,
       25.2748084
      ],
      [
       51.3954103,
       25.2730488
      ],
      [
       51.3910818,
       25.2719106
      ],
      [
       51.3866063,
       25.2714238
      ],
      [
       51.3821029,
       25.2716016
      ],
      [
       51.3776913,
       25.2724391
      ],
      [
       51.3734889,
       25.2739141
      ],
      [
       51.3696077,
       25.2759873
      ],
      [
       51.3661507,
       25.2786036
      ],
      [
       51.3632102,
       25.2816933
      ],
      [
       51.3608643,
       25.2851743
      ],
      [
       51.3591756,
       25.2889539
      ],
      [
       51.358189,
       25.2929314
      ],
      [
       51.3579309,
       25.297001
      ],
      [
       51.3584083,
       25.3010544
      ],
      [
       51.3596085,
       25.3049837
      ],
      [
       51.3614996,
       25.3086842
      ],
      [
       51.3640313,
       25.3120574
      ],
      [
       51.3671362,
       25.3150134
      ],
      [
       51.3707318,
       25.3174736
      ],
      [
       51.3747222,
       25.3193724
      ],
      [
       51.3790011,
       25.3206592
      ],
      [
       51.3834547,
       25.3212997
      ],
      [
       51.3855556,
       25.321372
      ]
     ]
    ]
   }
  },
  {
   "type": "Feature",
   "properties": {
    "ll": {
     "value": 0,
     "unit": 1,
     "referenceDatum": 0
    },
    "ul": {
     "value": 3000,
     "unit": 1,
     "referenceDatum": 1
    },
    "_id": "62614feecb27f4250946093a",
    "name": "OT-R51 AL GHARIYEH",
    "type": 1,
    "icao": 7,
    "bnd": [
     [
      25.9920056,
      51.2517664
     ],
     [
      26.1585549,
      51.437084
     ]
    ]
   },
   "geometry": {
    "type": "Polygon",
    "coordinates": [
     [
      [
       51.3444444,
       26.1585549
      ],
      [
       51.3527325,
       26.1582217
      ],
      [
       51.3609542,
       26.1572248
      ],
      [
       51.3690436,
       26.1555722
      ],
      [
       51.3769359,
       26.1532772
      ],
      [
       51.3845678,
       26.1503581
      ],
      [
       51.3918783,
       26.1468384
      ],
      [
       51.3988089,
       26.1427461
      ],
      [
       51.405304,
       26.1381141
      ],
      [
       51.4113116,
       26.1329796
      ],
      [
       51.4167839,
       26.1273835
      ],
      [
       51.4216769,
       26.1213708
      ],
      [
       51.4259516,
       26.1149895
      ],
      [
       51.429574,
       26.1082907
      ],
      [
       51.432515,
       26.1013281
      ],
      [
       51.4347514,
       26.0941574
      ],
      [
       51.4362654,
       26.086836
      ],
      [
       51.4370449,
       26.0794223
      ],
      [
       51.437084,
       26.0719757
      ],
      [
       51.4363823,
       26.0645558
      ],
      [
       51.4349457,
       26.0572218
      ],
      [
       51.4327858,
       26.0500324
      ],
      [
       51.42992,
       26.043045
      ],
      [
       51.4263713,
       26.0363155
      ],
      [
       51.4221681,
       26.0298976
      ],
      [
       51.4173442,
       26.0238426
      ],
      [
       51.4119382,
       26.0181988
      ],
      [
       51.4059932,
       26.0130114
      ],
      [
       51.3995569,
       26.0083216
      ],
      [
       51.3926807,
       26.004167
      ],
      [
       51.3854194,
       26.0005808
      ],
      [
       51.3778312,
       25.9975915
      ],
      [
       51.3699765,
       25.995223
      ],
      [
       51.3619181,
       25.9934941
      ],
      [
       51.3537203,
       25.9924188
      ],
      [
       51.3454484,
       25.9920056
      ],
      [
       51.3371685,
       25.9922577
      ],
      [
       51.3289467,
       25.9931732
      ],
      [
       51.3208486,
       25.9947448
      ],
      [
       51.3129387,
       25.9969598
      ],
      [
       51.3052803,
       25.9998007
      ],
      [
       51.2979344,
       26.0032448
      ],
      [
       51.2909597,
       26.0072645
      ],
      [
       51.2844119,
       26.0118279
      ],
      [
       51.2783434,
       26.0168984
      ],
      [
       51.2728026,
       26.0224356
      ],
      [
       51.267834,
       26.0283953
      ],
      [
       51.2634771,
       26.0347299
      ],
      [
       51.259767,
       26.0413887
      ],
      [
       51.2567334,
       26.0483187
      ],
      [
       51.2544007,
       26.0554644
      ],
      [
       51.2527875,
       26.0627686
      ],
      [
       51.2519071,
       26.0701732
      ],
      [
       51.2517664,
       26.0776188
      ],
      [
       51.2523669,
       26.0850459
      ],
      [
       51.2537038,
       26.0923951
      ],
      [
       51.2557665,
       26.0996077
      ],
      [
       51.2585388,
       26.1066259
      ],
      [
       51.2619985,
       26.1133936
      ],
      [
       51.2661181,
       26.1198566
      ],
      [
       51.2708648,
       26.1259631
      ],
      [
       51.2762005,
       26.1316644
      ],
      [
       51.2820827,
       26.1369147
      ],
      [
       51.2884643,
       26.141672
      ],
      [
       51.2952943,
       26.1458982
      ],
      [
       51.302518,
       26.1495595
      ],
      [
       51.3100776,
       26.1526264
      ],
      [
       51.3179125,
       26.1550745
      ],
      [
       51.3259601,
       26.1568842
      ],
      [
       51.3341557,
       26.1580409
      ],
      [
       51.3424338,
       26.1585353
      ],
      [
       51.3444444,
       26.1585549
      ]
     ]
    ]
   }
  },
  {
   "type": "Feature",
   "properties": {
    "ll": {
     "value": 0,
     "unit": 1,
     "referenceDatum": 0
    },
    "ul": {
     "value": 3000,
     "unit": 1,
     "referenceDatum": 1
    },
    "_id": "62614feecb27f42509460947",
    "name": "OT-R53 QATAR",
    "type": 1,
    "icao": 7,
    "bnd": [
     [
      25.9166667,
      51.2
     ],
     [
      26.3333333,
      51.6833333
     ]
    ]
   },
   "geometry": {
    "type": "Polygon",
    "coordinates": [
     [
      [
       51.2,
       26.1333333
      ],
      [
       51.35,
       26.3333333
      ],
      [
       51.6833333,
       26.1333333
      ],
      [
       51.5833333,
       25.9166667
      ],
      [
       51.2,
       26.1333333
      ]
     ]
    ]
   }
  },
  {
   "type": "Feature",
   "properties": {
    "ll": {
     "value": 0,
     "unit": 1,
     "referenceDatum": 0
    },
    "ul": {
     "value": 1500,
     "unit": 1,
     "referenceDatum": 1
    },
    "_id": "62614fefcb27f42509460954",
    "name": "OT-R54",
    "type": 1,
    "icao": 7,
    "bnd": [
     [
      24.8611111,
      51.4555556
     ],
     [
      24.9,
      51.4944444
     ]
    ]
   },
   "geometry": {
    "type": "Polygon",
    "coordinates": [
     [
      [
       51.4944444,
       24.9
      ],
      [
       51.4944444,
       24.8611111
      ],
      [
       51.4555556,
       24.8611111
      ],
      [
       51.4555556,
       24.9
      ],
      [
       51.4944444,
       24.9
      ]
     ]
    ]
   }
  },
  {
   "type": "Feature",
   "properties": {
    "ll": {
     "value": 0,
     "unit": 1,
     "referenceDatum": 0
    },
    "ul": {
     "value": 3000,
     "unit": 1,
     "referenceDatum": 1
    },
    "_id": "62614fefcb27f42509460961",
    "name": "OT-R55 RAS LAFFAN",
    "type": 1,
    "icao": 7,
    "bnd": [
     [
      26.0087128,
      51.2702792
     ],
     [
      26.1418994,
      51.4185822
     ]
    ]
   },
   "geometry": {
    "type": "Polygon",
    "coordinates": [
     [
      [
       51.3444444,
       26.1418994
      ],
      [
       51.3518542,
       26.1415664
      ],
      [
       51.3591897,
       26.1405704
      ],
      [
       51.3663776,
       26.1389216
      ],
      [
       51.373346,
       26.1366364
      ],
      [
       51.3800251,
       26.1337378
      ],
      [
       51.386348,
       26.1302546
      ],
      [
       51.3922517,
       26.1262218
      ],
      [
       51.3976769,
       26.1216798
      ],
      [
       51.4025695,
       26.1166739
      ],
      [
       51.4068805,
       26.1112543
      ],
      [
       51.4105671,
       26.1054752
      ],
      [
       51.4135923,
       26.0993944
      ],
      [
       51.4159261,
       26.0930727
      ],
      [
       51.4175451,
       26.0865733
      ],
      [
       51.4184334,
       26.0799612
      ],
      [
       51.4185822,
       26.0733024
      ],
      [
       51.4179901,
       26.0666636
      ],
      [
       51.4166632,
       26.0601111
      ],
      [
       51.4146148,
       26.0537102
      ],
      [
       51.4118655,
       26.0475251
      ],
      [
       51.4084429,
       26.0416174
      ],
      [
       51.4043813,
       26.0360461
      ],
      [
       51.3997213,
       26.0308669
      ],
      [
       51.3945095,
       26.0261315
      ],
      [
       51.388798,
       26.0218871
      ],
      [
       51.3826439,
       26.0181761
      ],
      [
       51.3761085,
       26.0150355
      ],
      [
       51.3692572,
       26.0124967
      ],
      [
       51.3621583,
       26.010585
      ],
      [
       51.3548826,
       26.0093195
      ],
      [
       51.3475028,
       26.0087128
      ],
      [
       51.3400926,
       26.008771
      ],
      [
       51.3327257,
       26.0094934
      ],
      [
       51.3254757,
       26.0108729
      ],
      [
       51.318415,
       26.0128957
      ],
      [
       51.3116141,
       26.0155416
      ],
      [
       51.3051407,
       26.0187842
      ],
      [
       51.2990595,
       26.0225912
      ],
      [
       51.2934313,
       26.0269246
      ],
      [
       51.2883123,
       26.0317411
      ],
      [
       51.2837537,
       26.0369927
      ],
      [
       51.2798009,
       26.0426268
      ],
      [
       51.2764937,
       26.0485873
      ],
      [
       51.2738651,
       26.0548147
      ],
      [
       51.2719414,
       26.0612466
      ],
      [
       51.2707421,
       26.067819
      ],
      [
       51.2702792,
       26.0744661
      ],
      [
       51.2705575,
       26.0811215
      ],
      [
       51.2715743,
       26.0877187
      ],
      [
       51.2733196,
       26.0941917
      ],
      [
       51.275776,
       26.1004758
      ],
      [
       51.2789191,
       26.1065082
      ],
      [
       51.2827176,
       26.1122286
      ],
      [
       51.2871335,
       26.1175797
      ],
      [
       51.2921228,
       26.122508
      ],
      [
       51.2976357,
       26.1269642
      ],
      [
       51.3036169,
       26.1309038
      ],
      [
       51.3100068,
       26.1342872
      ],
      [
       51.3167413,
       26.1370806
      ],
      [
       51.3237531,
       26.1392561
      ],
      [
       51.3309721,
       26.1407918
      ],
      [
       51.3383259,
       26.1416725
      ],
      [
       51.3444444,
       26.1418994
      ]
     ]
    ]
   }
  },
  {
   "type": "Feature",
   "properties": {
    "ll": {
     "value": 0,
     "unit": 1,
     "referenceDatum": 0
    },
    "ul": {
     "value": 5000,
     "unit": 1,
     "referenceDatum": 1
    },
    "_id": "62614fefcb27f4250946096e",
    "name": "OT-R56",
    "type": 1,
    "icao": 7,
    "bnd": [
     [
      25.0350611,
      51.2208384
     ],
     [
      25.2016104,
      51.4046791
     ]
    ]
   },
   "geometry": {
    "type": "Polygon",
    "coordinates": [
     [
      [
       51.3127778,
       25.2016104
      ],
      [
       51.3209996,
       25.2012772
      ],
      [
       51.3291555,
       25.2002804
      ],
      [
       51.3371802,
       25.1986279
      ],
      [
       51.3450094,
       25.1963329
      ],
      [
       51.3525803,
       25.1934139
      ],
      [
       51.3598324,
       25.1898942
      ],
      [
       51.3667077,
       25.1858021
      ],
      [
       51.3731509,
       25.1811702
      ],
      [
       51.3791107,
       25.1760358
      ],
      [
       51.3845393,
       25.1704398
      ],
      [
       51.3893934,
       25.1644272
      ],
      [
       51.3936342,
       25.158046
      ],
      [
       51.3972279,
       25.1513473
      ],
      [
       51.4001457,
       25.1443848
      ],
      [
       51.4023645,
       25.1372142
      ],
      [
       51.4038666,
       25.1298927
      ],
      [
       51.4046402,
       25.1224791
      ],
      [
       51.4046791,
       25.1150325
      ],
      [
       51.4039833,
       25.1076125
      ],
      [
       51.4025584,
       25.1002785
      ],
      [
       51.4004159,
       25.093089
      ],
      [
       51.3975731,
       25.0861016
      ],
      [
       51.3940529,
       25.079372
      ],
      [
       51.3898833,
       25.072954
      ],
      [
       51.3850979,
       25.0668989
      ],
      [
       51.379735,
       25.061255
      ],
      [
       51.3738374,
       25.0560675
      ],
      [
       51.3674524,
       25.0513776
      ],
      [
       51.3606308,
       25.0472229
      ],
      [
       51.3534273,
       25.0436366
      ],
      [
       51.3458994,
       25.0406472
      ],
      [
       51.3381071,
       25.0382786
      ],
      [
       51.3301127,
       25.0365497
      ],
      [
       51.3219799,
       25.0354744
      ],
      [
       51.3137738,
       25.0350611
      ],
      [
       51.3055596,
       25.0353133
      ],
      [
       51.2974031,
       25.0362288
      ],
      [
       51.2893693,
       25.0378004
      ],
      [
       51.2815222,
       25.0400155
      ],
      [
       51.2739247,
       25.0428565
      ],
      [
       51.2666372,
       25.0463007
      ],
      [
       51.259718,
       25.0503205
      ],
      [
       51.2532223,
       25.054884
      ],
      [
       51.2472021,
       25.0599546
      ],
      [
       51.2417056,
       25.0654919
      ],
      [
       51.2367766,
       25.0714517
      ],
      [
       51.2324545,
       25.0777864
      ],
      [
       51.2287742,
       25.0844453
      ],
      [
       51.2257649,
       25.0913753
      ],
      [
       51.223451,
       25.0985211
      ],
      [
       51.2218509,
       25.1058254
      ],
      [
       51.2209777,
       25.11323
      ],
      [
       51.2208384,
       25.1206756
      ],
      [
       51.2214343,
       25.1281027
      ],
      [
       51.2227608,
       25.1354519
      ],
      [
       51.2248073,
       25.1426644
      ],
      [
       51.2275577,
       25.1496825
      ],
      [
       51.23099,
       25.1564501
      ],
      [
       51.2350769,
       25.162913
      ],
      [
       51.2397858,
       25.1690195
      ],
      [
       51.245079,
       25.1747206
      ],
      [
       51.2509144,
       25.1799708
      ],
      [
       51.2572451,
       25.184728
      ],
      [
       51.2640206,
       25.1889541
      ],
      [
       51.2711866,
       25.1926153
      ],
      [
       51.2786858,
       25.1956822
      ],
      [
       51.2864581,
       25.1981302
      ],
      [
       51.2944412,
       25.1999398
      ],
      [
       51.3025713,
       25.2010964
      ],
      [
       51.3107832,
       25.2015908
      ],
      [
       51.3127778,
       25.2016104
      ]
     ]
    ]
   }
  },
  {
   "type": "Feature",
   "properties": {
    "ll": {
     "value": 0,
     "unit": 1,
     "referenceDatum": 0
    },
    "ul": {
     "value": 3000,
     "unit": 1,
     "referenceDatum": 1
    },
    "_id": "62614fefcb27f4250946097a",
    "name": "OT-R58",
    "type": 1,
    "icao": 7,
    "bnd": [
     [
      25.1750349,
      51.3807306
     ],
     [
      25.2249831,
      51.4358897
     ]
    ]
   },
   "geometry": {
    "type": "Polygon",
    "coordinates": [
     [
      [
       51.4083333,
       25.2249831
      ],
      [
       51.4128243,
       25.2246505
      ],
      [
       51.4171957,
       25.2236615
      ],
      [
       51.4213309,
       25.2220425
      ],
      [
       51.42512,
       25.2198365
      ],
      [
       51.428462,
       25.2171024
      ],
      [
       51.4312678,
       25.213913
      ],
      [
       51.4334629,
       25.2103532
      ],
      [
       51.4349888,
       25.2065177
      ],
      [
       51.435805,
       25.2025089
      ],
      [
       51.4358897,
       25.1984333
      ],
      [
       51.4352409,
       25.1943994
      ],
      [
       51.4338759,
       25.1905148
      ],
      [
       51.431831,
       25.1868826
      ],
      [
       51.4291607,
       25.1835998
      ],
      [
       51.4259362,
       25.1807535
      ],
      [
       51.4222433,
       25.1784195
      ],
      [
       51.4181803,
       25.17666
      ],
      [
       51.4138552,
       25.1755217
      ],
      [
       51.4093833,
       25.1750349
      ],
      [
       51.4048834,
       25.1752127
      ],
      [
       51.4004753,
       25.1760502
      ],
      [
       51.3962763,
       25.1775252
      ],
      [
       51.3923981,
       25.1795984
      ],
      [
       51.3889439,
       25.1822147
      ],
      [
       51.3860057,
       25.1853045
      ],
      [
       51.3836616,
       25.1887854
      ],
      [
       51.3819742,
       25.192565
      ],
      [
       51.3809885,
       25.1965425
      ],
      [
       51.3807306,
       25.2006122
      ],
      [
       51.3812076,
       25.2046656
      ],
      [
       51.3824068,
       25.2085948
      ],
      [
       51.3842964,
       25.2122953
      ],
      [
       51.3868261,
       25.2156685
      ],
      [
       51.3899286,
       25.2186246
      ],
      [
       51.3935213,
       25.2210847
      ],
      [
       51.3975085,
       25.2229835
      ],
      [
       51.4017841,
       25.2242703
      ],
      [
       51.4062341,
       25.2249108
      ],
      [
       51.4083333,
       25.2249831
      ]
     ]
    ]
   }
  },
  {
   "type": "Feature",
   "properties": {
    "ll": {
     "value": 0,
     "unit": 1,
     "referenceDatum": 0
    },
    "ul": {
     "value": 3000,
     "unit": 1,
     "referenceDatum": 1
    },
    "_id": "62614fefcb27f42509460987",
    "name": "OT-R59 UMM SAID FERTILIZER PLANT",
    "type": 1,
    "icao": 7,
    "bnd": [
     [
      24.8500475,
      51.5115933
     ],
     [
      24.9499662,
      51.6216942
     ]
    ]
   },
   "geometry": {
    "type": "Polygon",
    "coordinates": [
     [
      [
       51.5666667,
       24.9499662
      ],
      [
       51.5730169,
       24.9496333
      ],
      [
       51.5792824,
       24.9486388
      ],
      [
       51.5853796,
       24.9469961
      ],
      [
       51.5912272,
       24.9447272
      ],
      [
       51.5967473,
       24.9418621
      ],
      [
       51.6018663,
       24.9384392
      ],
      [
       51.6065158,
       24.9345041
      ],
      [
       51.6106341,
       24.9301093
      ],
      [
       51.6141661,
       24.9253133
      ],
      [
       51.617065,
       24.9201802
      ],
      [
       51.6192922,
       24.9147782
      ],
      [
       51.620818,
       24.9091795
      ],
      [
       51.6216222,
       24.9034587
      ],
      [
       51.6216942,
       24.8976918
      ],
      [
       51.6210332,
       24.8919559
      ],
      [
       51.6196481,
       24.8863272
      ],
      [
       51.6175573,
       24.8808808
      ],
      [
       51.6147889,
       24.8756892
      ],
      [
       51.6113798,
       24.8708215
      ],
      [
       51.6073754,
       24.8663425
      ],
      [
       51.6028291,
       24.8623119
      ],
      [
       51.5978015,
       24.8587832
      ],
      [
       51.5923595,
       24.8558035
      ],
      [
       51.5865756,
       24.8534124
      ],
      [
       51.5805268,
       24.8516418
      ],
      [
       51.5742936,
       24.8505152
      ],
      [
       51.5679588,
       24.8500475
      ],
      [
       51.5616069,
       24.8502451
      ],
      [
       51.5553222,
       24.8511052
      ],
      [
       51.5491886,
       24.8526165
      ],
      [
       51.5432875,
       24.8547588
      ],
      [
       51.5376976,
       24.8575036
      ],
      [
       51.5324931,
       24.8608144
      ],
      [
       51.5277435,
       24.8646471
      ],
      [
       51.5235121,
       24.8689507
      ],
      [
       51.5198551,
       24.873668
      ],
      [
       51.5168213,
       24.8787361
      ],
      [
       51.5144512,
       24.8840875
      ],
      [
       51.5127765,
       24.889651
      ],
      [
       51.5118196,
       24.8953525
      ],
      [
       51.5115933,
       24.9011161
      ],
      [
       51.5121006,
       24.9068649
      ],
      [
       51.5133351,
       24.9125224
      ],
      [
       51.5152802,
       24.9180131
      ],
      [
       51.5179103,
       24.923264
      ],
      [
       51.5211902,
       24.928205
      ],
      [
       51.5250764,
       24.9327702
      ],
      [
       51.5295171,
       24.9368989
      ],
      [
       51.5344532,
       24.9405358
      ],
      [
       51.5398188,
       24.9436326
      ],
      [
       51.5455425,
       24.946148
      ],
      [
       51.551548,
       24.9480484
      ],
      [
       51.5577551,
       24.9493084
      ],
      [
       51.564081,
       24.9499112
      ],
      [
       51.5666667,
       24.9499662
      ]
     ]
    ]
   }
  },
  {
   "type": "Feature",
   "properties": {
    "ll": {
     "value": 0,
     "unit": 1,
     "referenceDatum": 0
    },
    "ul": {
     "value": 1000,
     "unit": 1,
     "referenceDatum": 1
    },
    "_id": "62614fefcb27f42509460994",
    "name": "OT-R60",
    "type": 1,
    "icao": 7,
    "bnd": [
     [
      25.7602329,
      51.3764147
     ],
     [
      25.7692192,
      51.3863801
     ]
    ]
   },
   "geometry": {
    "type": "Polygon",
    "coordinates": [
     [
      [
       51.3813889,
       25.7692192
      ],
      [
       51.382381,
       25.7691295
      ],
      [
       51.3833335,
       25.7688642
      ],
      [
       51.3842084,
       25.7684337
      ],
      [
       51.384971,
       25.7678552
      ],
      [
       51.3855908,
       25.7671519
      ],
      [
       51.386043,
       25.7663517
      ],
      [
       51.3863096,
       25.7654865
      ],
      [
       51.3863801,
       25.7645908
      ],
      [
       51.3862516,
       25.7637004
      ],
      [
       51.3859293,
       25.7628508
      ],
      [
       51.3854259,
       25.7620757
      ],
      [
       51.3847616,
       25.7614062
      ],
      [
       51.3839629,
       25.7608688
      ],
      [
       51.3830615,
       25.7604851
      ],
      [
       51.3820935,
       25.7602703
      ],
      [
       51.3810974,
       25.7602329
      ],
      [
       51.3801129,
       25.7603746
      ],
      [
       51.3791793,
       25.7606895
      ],
      [
       51.3783337,
       25.7611652
      ],
      [
       51.37761,
       25.7617828
      ],
      [
       51.3770369,
       25.7625175
      ],
      [
       51.3766372,
       25.7633401
      ],
      [
       51.376427,
       25.7642178
      ],
      [
       51.3764147,
       25.7651156
      ],
      [
       51.3766006,
       25.7659978
      ],
      [
       51.3769774,
       25.7668291
      ],
      [
       51.3775301,
       25.7675764
      ],
      [
       51.3782366,
       25.7682099
      ],
      [
       51.3790689,
       25.7687044
      ],
      [
       51.3799936,
       25.7690401
      ],
      [
       51.380974,
       25.7692036
      ],
      [
       51.3813889,
       25.7692192
      ]
     ]
    ]
   }
  },
  {
   "type": "Feature",
   "properties": {
    "ll": {
     "value": 0,
     "unit": 1,
     "referenceDatum": 0
    },
    "ul": {
     "value": 3000,
     "unit": 1,
     "referenceDatum": 1
    },
    "_id": "62614fefcb27f425094609a1",
    "name": "OT-R61 UMM SAID MILITARY TRAINING AREA",
    "type": 1,
    "icao": 7,
    "bnd": [
     [
      24.9333808,
      51.4448893
     ],
     [
      25.0332996,
      51.5550648
     ]
    ]
   },
   "geometry": {
    "type": "Polygon",
    "coordinates": [
     [
      [
       51.5,
       25.0332996
      ],
      [
       51.5063545,
       25.0329666
      ],
      [
       51.5126242,
       25.0319722
      ],
      [
       51.5187256,
       25.0303295
      ],
      [
       51.5245772,
       25.0280605
      ],
      [
       51.530101,
       25.0251954
      ],
      [
       51.5352235,
       25.0217725
      ],
      [
       51.5398762,
       25.0178374
      ],
      [
       51.5439972,
       25.0134426
      ],
      [
       51.5475317,
       25.0086466
      ],
      [
       51.5504325,
       25.0035135
      ],
      [
       51.5526611,
       24.9981115
      ],
      [
       51.554188,
       24.9925128
      ],
      [
       51.5549927,
       24.9867919
      ],
      [
       51.5550648,
       24.9810251
      ],
      [
       51.5544033,
       24.9752892
      ],
      [
       51.5530172,
       24.9696605
      ],
      [
       51.5509251,
       24.9642141
      ],
      [
       51.5481548,
       24.9590225
      ],
      [
       51.5447433,
       24.9541548
      ],
      [
       51.5407362,
       24.9496758
      ],
      [
       51.5361869,
       24.9456452
      ],
      [
       51.5311559,
       24.9421165
      ],
      [
       51.5257102,
       24.9391368
      ],
      [
       51.5199224,
       24.9367458
      ],
      [
       51.5138695,
       24.9349751
      ],
      [
       51.507632,
       24.9338485
      ],
      [
       51.501293,
       24.9333808
      ],
      [
       51.4949368,
       24.9335784
      ],
      [
       51.4886479,
       24.9344385
      ],
      [
       51.4825101,
       24.9359498
      ],
      [
       51.4766051,
       24.9380921
      ],
      [
       51.4710113,
       24.9408369
      ],
      [
       51.4658034,
       24.9441477
      ],
      [
       51.4610506,
       24.9479804
      ],
      [
       51.4568162,
       24.9522841
      ],
      [
       51.4531568,
       24.9570013
      ],
      [
       51.4501209,
       24.9620694
      ],
      [
       51.4477493,
       24.9674208
      ],
      [
       51.4460734,
       24.9729843
      ],
      [
       51.4451158,
       24.9786858
      ],
      [
       51.4448893,
       24.9844494
      ],
      [
       51.445397,
       24.9901982
      ],
      [
       51.4466323,
       24.9958557
      ],
      [
       51.4485788,
       25.0013464
      ],
      [
       51.4512106,
       25.0065973
      ],
      [
       51.4544927,
       25.0115383
      ],
      [
       51.4583816,
       25.0161035
      ],
      [
       51.4628253,
       25.0202322
      ],
      [
       51.4677647,
       25.0238692
      ],
      [
       51.473134,
       25.026966
      ],
      [
       51.4788615,
       25.0294813
      ],
      [
       51.4848711,
       25.0313817
      ],
      [
       51.4910823,
       25.0326417
      ],
      [
       51.4974126,
       25.0332445
      ],
      [
       51.5,
       25.0332996
      ]
     ]
    ]
   }
  },
  {
   "type": "Feature",
   "properties": {
    "ll": {
     "value": 0,
     "unit": 1,
     "referenceDatum": 0
    },
    "ul": {
     "value": 13000,
     "unit": 1,
     "referenceDatum": 1
    },
    "_id": "62614fefcb27f425094609af",
    "name": "OT-R62 UMM AL-SHOKHOT",
    "type": 1,
    "icao": 7,
    "bnd": [
     [
      25.6511586,
      51.3023391
     ],
     [
      25.7510774,
      51.4131702
     ]
    ]
   },
   "geometry": {
    "type": "Polygon",
    "coordinates": [
     [
      [
       51.3577778,
       25.7510774
      ],
      [
       51.3641702,
       25.7507444
      ],
      [
       51.3704773,
       25.7497499
      ],
      [
       51.3766151,
       25.7481072
      ],
      [
       51.3825015,
       25.7458382
      ],
      [
       51.3880583,
       25.7429731
      ],
      [
       51.3932112,
       25.7395502
      ],
      [
       51.3978916,
       25.735615
      ],
      [
       51.4020372,
       25.7312202
      ],
      [
       51.4055926,
       25.7264242
      ],
      [
       51.4085107,
       25.721291
      ],
      [
       51.4107525,
       25.715889
      ],
      [
       51.4122883,
       25.7102903
      ],
      [
       51.4130978,
       25.7045694
      ],
      [
       51.4131702,
       25.6988026
      ],
      [
       51.4125047,
       25.6930666
      ],
      [
       51.4111103,
       25.687438
      ],
      [
       51.4090056,
       25.6819916
      ],
      [
       51.4062188,
       25.6768
      ],
      [
       51.402787,
       25.6719324
      ],
      [
       51.3987561,
       25.6674534
      ],
      [
       51.3941796,
       25.6634228
      ],
      [
       51.3891187,
       25.6598942
      ],
      [
       51.3836407,
       25.6569146
      ],
      [
       51.3778185,
       25.6545235
      ],
      [
       51.3717296,
       25.6527529
      ],
      [
       51.3654551,
       25.6516263
      ],
      [
       51.3590785,
       25.6511586
      ],
      [
       51.3526845,
       25.6513562
      ],
      [
       51.3463583,
       25.6522163
      ],
      [
       51.340184,
       25.6537275
      ],
      [
       51.3342439,
       25.6558698
      ],
      [
       51.3286169,
       25.6586146
      ],
      [
       51.323378,
       25.6619253
      ],
      [
       51.318597,
       25.665758
      ],
      [
       51.3143374,
       25.6700616
      ],
      [
       51.3106561,
       25.6747789
      ],
      [
       51.3076022,
       25.6798469
      ],
      [
       51.3052163,
       25.6851983
      ],
      [
       51.3035304,
       25.6907618
      ],
      [
       51.3025671,
       25.6964633
      ],
      [
       51.3023391,
       25.7022268
      ],
      [
       51.3028498,
       25.7079756
      ],
      [
       51.3040923,
       25.7136331
      ],
      [
       51.3060503,
       25.7191239
      ],
      [
       51.3086977,
       25.7243748
      ],
      [
       51.3119993,
       25.7293159
      ],
      [
       51.3159113,
       25.7338811
      ],
      [
       51.3203815,
       25.7380098
      ],
      [
       51.3253503,
       25.7416468
      ],
      [
       51.3307516,
       25.7447437
      ],
      [
       51.3365133,
       25.7472591
      ],
      [
       51.3425586,
       25.7491594
      ],
      [
       51.3488069,
       25.7504195
      ],
      [
       51.3551749,
       25.7510223
      ],
      [
       51.3577778,
       25.7510774
      ]
     ]
    ]
   }
  },
  {
   "type": "Feature",
   "properties": {
    "ll": {
     "value": 0,
     "unit": 1,
     "referenceDatum": 0
    },
    "ul": {
     "value": 10000,
     "unit": 1,
     "referenceDatum": 1
    },
    "_id": "62614fefcb27f425094609bb",
    "name": "OT-R63 HALUL ISLAND",
    "type": 1,
    "icao": 7,
    "bnd": [
     [
      25.5911723,
      52.3184693
     ],
     [
      25.7577215,
      52.5031591
     ]
    ]
   },
   "geometry": {
    "type": "Polygon",
    "coordinates": [
     [
      [
       52.4108333,
       25.7577215
      ],
      [
       52.4190932,
       25.7573883
      ],
      [
       52.427287,
       25.7563915
      ],
      [
       52.4353488,
       25.754739
      ],
      [
       52.4432143,
       25.752444
      ],
      [
       52.4508203,
       25.7495249
      ],
      [
       52.458106,
       25.7460052
      ],
      [
       52.465013,
       25.7419129
      ],
      [
       52.4714861,
       25.737281
      ],
      [
       52.4774734,
       25.7321465
      ],
      [
       52.4829271,
       25.7265505
      ],
      [
       52.4878036,
       25.7205378
      ],
      [
       52.4920639,
       25.7141565
      ],
      [
       52.495674,
       25.7074578
      ],
      [
       52.4986052,
       25.7004953
      ],
      [
       52.5008342,
       25.6933246
      ],
      [
       52.5023431,
       25.6860031
      ],
      [
       52.5031201,
       25.6785895
      ],
      [
       52.5031591,
       25.6711429
      ],
      [
       52.5024599,
       25.6637229
      ],
      [
       52.5010283,
       25.6563889
      ],
      [
       52.4988758,
       25.6491995
      ],
      [
       52.4960198,
       25.6422121
      ],
      [
       52.4924831,
       25.6354825
      ],
      [
       52.4882943,
       25.6290646
      ],
      [
       52.4834867,
       25.6230096
      ],
      [
       52.478099,
       25.6173658
      ],
      [
       52.4721742,
       25.6121783
      ],
      [
       52.4657597,
       25.6074885
      ],
      [
       52.4589067,
       25.6033339
      ],
      [
       52.45167,
       25.5997476
      ],
      [
       52.4441074,
       25.5967582
      ],
      [
       52.4362792,
       25.5943897
      ],
      [
       52.428248,
       25.5926608
      ],
      [
       52.4200778,
       25.5915855
      ],
      [
       52.4118339,
       25.5911723
      ],
      [
       52.403582,
       25.5914244
      ],
      [
       52.3953879,
       25.5923399
      ],
      [
       52.3873171,
       25.5939115
      ],
      [
       52.379434,
       25.5961265
      ],
      [
       52.3718014,
       25.5989675
      ],
      [
       52.3644803,
       25.6024116
      ],
      [
       52.3575292,
       25.6064314
      ],
      [
       52.3510036,
       25.6109948
      ],
      [
       52.3449556,
       25.6160653
      ],
      [
       52.3394337,
       25.6216026
      ],
      [
       52.3344818,
       25.6275623
      ],
      [
       52.3301398,
       25.6338969
      ],
      [
       52.3264423,
       25.6405558
      ],
      [
       52.3234191,
       25.6474858
      ],
      [
       52.3210943,
       25.6546315
      ],
      [
       52.3194867,
       25.6619358
      ],
      [
       52.3186094,
       25.6693404
      ],
      [
       52.3184693,
       25.676786
      ],
      [
       52.3190678,
       25.6842131
      ],
      [
       52.3204003,
       25.6915623
      ],
      [
       52.3224561,
       25.6987748
      ],
      [
       52.3252191,
       25.705793
      ],
      [
       52.3286672,
       25.7125606
      ],
      [
       52.3327729,
       25.7190236
      ],
      [
       52.3375035,
       25.7251301
      ],
      [
       52.3428211,
       25.7308313
      ],
      [
       52.3486834,
       25.7360816
      ],
      [
       52.3550434,
       25.7408389
      ],
      [
       52.3618502,
       25.745065
      ],
      [
       52.3690494,
       25.7487262
      ],
      [
       52.3765833,
       25.7517932
      ],
      [
       52.3843916,
       25.7542412
      ],
      [
       52.3924118,
       25.7560509
      ],
      [
       52.4005796,
       25.7572075
      ],
      [
       52.4088295,
       25.757702
      ],
      [
       52.4108333,
       25.7577215
      ]
     ]
    ]
   }
  }
 ]
}