{
 "type": "FeatureCollection",
 "countryCode": "vu",
 "features": [
  {
   "type": "Feature",
   "properties": {
    "ll": {
     "value": 0,
     "unit": 1,
     "referenceDatum": 0
    },
    "ul": {
     "value": 6500,
     "unit": 1,
     "referenceDatum": 1
    },
    "_id": "62615cbb0e8346dfd926a2af",
    "name": "NV-D 1 AMBRYM",
    "type": 2,
    "icao": 7,
    "bnd": [
     [
      -16.3431019,
      168.0158827
     ],
     [
      -16.1645797,
      168.2153297
     ]
    ]
   },
   "geometry": {
    "type": "Polygon",
    "coordinates": [
     [
      [
       168.0655556,
       -16.1838889
      ],
      [
       168.0952778,
       -16.1708333
      ],
      [
       168.1025513,
       -16.1682032
      ],
      [
       168.1100828,
       -16.1663408
      ],
      [
       168.117757,
       -16.1651298
      ],
      [
       168.1255129,
       -16.1645797
      ],
      [
       168.1332889,
       -16.164695
      ],
      [
       168.1410235,
       -16.1654746
      ],
      [
       168.1486551,
       -16.1669125
      ],
      [
       168.1561232,
       -16.1689972
      ],
      [
       168.1633685,
       -16.1717122
      ],
      [
       168.1703335,
       -16.1750358
      ],
      [
       168.1769629,
       -16.1789418
      ],
      [
       168.183204,
       -16.1833991
      ],
      [
       168.1890072,
       -16.1883723
      ],
      [
       168.1943266,
       -16.1938219
      ],
      [
       168.1991197,
       -16.1997048
      ],
      [
       168.2033484,
       -16.2059741
      ],
      [
       168.2069792,
       -16.21258
      ],
      [
       168.2099831,
       -16.2194702
      ],
      [
       168.2123362,
       -16.2265898
      ],
      [
       168.2140197,
       -16.2338823
      ],
      [
       168.2150202,
       -16.2412899
      ],
      [
       168.2153297,
       -16.2487535
      ],
      [
       168.2149456,
       -16.2562139
      ],
      [
       168.2138708,
       -16.2636118
      ],
      [
       168.212114,
       -16.2708885
      ],
      [
       168.2096888,
       -16.277986
      ],
      [
       168.2066146,
       -16.2848479
      ],
      [
       168.2029158,
       -16.2914197
      ],
      [
       168.1986216,
       -16.2976492
      ],
      [
       168.1937663,
       -16.3034867
      ],
      [
       168.1883882,
       -16.3088858
      ],
      [
       168.1825303,
       -16.3138037
      ],
      [
       168.176239,
       -16.3182011
      ],
      [
       168.1695644,
       -16.3220431
      ],
      [
       168.1663889,
       -16.3236111
      ],
      [
       168.1380556,
       -16.3361111
      ],
      [
       168.1307978,
       -16.3387999
      ],
      [
       168.1233191,
       -16.3408572
      ],
      [
       168.1156789,
       -16.3422666
      ],
      [
       168.1079382,
       -16.3430168
      ],
      [
       168.1001587,
       -16.3431019
      ],
      [
       168.0924022,
       -16.3425212
      ],
      [
       168.0847305,
       -16.3412794
      ],
      [
       168.0772048,
       -16.3393862
      ],
      [
       168.069885,
       -16.3368568
      ],
      [
       168.0628295,
       -16.3337114
      ],
      [
       168.0560942,
       -16.329975
      ],
      [
       168.049733,
       -16.3256773
      ],
      [
       168.0437964,
       -16.3208526
      ],
      [
       168.0383317,
       -16.3155393
      ],
      [
       168.0333823,
       -16.3097797
      ],
      [
       168.0289876,
       -16.3036196
      ],
      [
       168.0251825,
       -16.2971082
      ],
      [
       168.0219973,
       -16.2902972
      ],
      [
       168.0194572,
       -16.2832408
      ],
      [
       168.0175824,
       -16.2759952
      ],
      [
       168.0163878,
       -16.2686181
      ],
      [
       168.0158827,
       -16.2611681
      ],
      [
       168.0160711,
       -16.2537046
      ],
      [
       168.0169514,
       -16.2462869
      ],
      [
       168.0185166,
       -16.238974
      ],
      [
       168.0207541,
       -16.231824
      ],
      [
       168.023646,
       -16.2248938
      ],
      [
       168.0271693,
       -16.2182386
      ],
      [
       168.031296,
       -16.2119113
      ],
      [
       168.0359931,
       -16.205962
      ],
      [
       168.0412233,
       -16.2004382
      ],
      [
       168.0469449,
       -16.1953838
      ],
      [
       168.0531125,
       -16.1908388
      ],
      [
       168.0596769,
       -16.1868395
      ],
      [
       168.0655556,
       -16.1841667
      ],
      [
       168.0655556,
       -16.1838889
      ]
     ]
    ]
   }
  },
  {
   "type": "Feature",
   "properties": {
    "ll": {
     "value": 0,
     "unit": 1,
     "referenceDatum": 0
    },
    "ul": {
     "value": 7000,
     "unit": 1,
     "referenceDatum": 1
    },
    "_id": "62615cbb0e8346dfd926a2b7",
    "name": "NV-D 2",
    "type": 2,
    "icao": 7,
    "bnd": [
     [
      -16.59105,
      168.2551235
     ],
     [
      -16.4245007,
      168.4287361
     ]
    ]
   },
   "geometry": {
    "type": "Polygon",
    "coordinates": [
     [
      [
       168.3419444,
       -16.4245007
      ],
      [
       168.3497002,
       -16.4248335
      ],
      [
       168.3573939,
       -16.4258292
      ],
      [
       168.3649643,
       -16.42748
      ],
      [
       168.3723509,
       -16.4297725
      ],
      [
       168.3794946,
       -16.4326885
      ],
      [
       168.3863385,
       -16.4362048
      ],
      [
       168.3928277,
       -16.4402931
      ],
      [
       168.3989105,
       -16.444921
      ],
      [
       168.4045382,
       -16.4500513
      ],
      [
       168.4096659,
       -16.4556431
      ],
      [
       168.4142525,
       -16.4616518
      ],
      [
       168.4182614,
       -16.4680294
      ],
      [
       168.4216604,
       -16.4747247
      ],
      [
       168.4244223,
       -16.4816845
      ],
      [
       168.426525,
       -16.488853
      ],
      [
       168.4279516,
       -16.496173
      ],
      [
       168.4286906,
       -16.5035858
      ],
      [
       168.4287361,
       -16.5110324
      ],
      [
       168.4280875,
       -16.518453
      ],
      [
       168.4267499,
       -16.5257885
      ],
      [
       168.4247341,
       -16.53298
      ],
      [
       168.4220561,
       -16.5399701
      ],
      [
       168.4187372,
       -16.5467029
      ],
      [
       168.4148038,
       -16.5531245
      ],
      [
       168.4102875,
       -16.5591836
      ],
      [
       168.4052243,
       -16.5648315
      ],
      [
       168.3996546,
       -16.5700232
      ],
      [
       168.393623,
       -16.5747171
      ],
      [
       168.3871778,
       -16.5788756
      ],
      [
       168.3803705,
       -16.5824655
      ],
      [
       168.3732556,
       -16.5854579
      ],
      [
       168.36589,
       -16.587829
      ],
      [
       168.3583327,
       -16.5895597
      ],
      [
       168.3506442,
       -16.5906363
      ],
      [
       168.3428861,
       -16.59105
      ],
      [
       168.3351204,
       -16.5907975
      ],
      [
       168.3274093,
       -16.589881
      ],
      [
       168.3198146,
       -16.5883077
      ],
      [
       168.3123971,
       -16.5860902
      ],
      [
       168.3052162,
       -16.5832463
      ],
      [
       168.2983292,
       -16.5797988
      ],
      [
       168.2917914,
       -16.5757752
      ],
      [
       168.2856551,
       -16.5712077
      ],
      [
       168.2799693,
       -16.566133
      ],
      [
       168.2747794,
       -16.5605915
      ],
      [
       168.2701271,
       -16.5546278
      ],
      [
       168.2660495,
       -16.5482894
      ],
      [
       168.262579,
       -16.5416271
      ],
      [
       168.2597435,
       -16.5346943
      ],
      [
       168.2575656,
       -16.5275463
      ],
      [
       168.2560626,
       -16.5202404
      ],
      [
       168.2552464,
       -16.512835
      ],
      [
       168.2551235,
       -16.5053893
      ],
      [
       168.2556948,
       -16.4979628
      ],
      [
       168.2569556,
       -16.4906149
      ],
      [
       168.2588958,
       -16.4834044
      ],
      [
       168.2614999,
       -16.4763889
      ],
      [
       168.2647468,
       -16.4696244
      ],
      [
       168.2686107,
       -16.4631651
      ],
      [
       168.2730605,
       -16.4570625
      ],
      [
       168.2780607,
       -16.4513654
      ],
      [
       168.2835713,
       -16.4461194
      ],
      [
       168.2895482,
       -16.4413662
      ],
      [
       168.2959436,
       -16.437144
      ],
      [
       168.3027064,
       -16.4334864
      ],
      [
       168.3097826,
       -16.4304226
      ],
      [
       168.3171157,
       -16.4279771
      ],
      [
       168.3246471,
       -16.4261695
      ],
      [
       168.3323166,
       -16.4250141
      ],
      [
       168.3400629,
       -16.4245202
      ],
      [
       168.3419444,
       -16.4245007
      ]
     ]
    ]
   }
  },
  {
   "type": "Feature",
   "properties": {
    "ll": {
     "value": 0,
     "unit": 1,
     "referenceDatum": 0
    },
    "ul": {
     "value": 3500,
     "unit": 1,
     "referenceDatum": 1
    },
    "_id": "62615cbb2c2d35cb883b6b70",
    "name": "NV-D 3",
    "type": 2,
    "icao": 7,
    "bnd": [
     [
      -19.6121611,
      169.3594547
     ],
     [
      -19.4456118,
      169.5360715
     ]
    ]
   },
   "geometry": {
    "type": "Polygon",
    "coordinates": [
     [
      [
       169.4477778,
       -19.4456118
      ],
      [
       169.455667,
       -19.4459446
      ],
      [
       169.4634933,
       -19.4469402
      ],
      [
       169.4711941,
       -19.4485908
      ],
      [
       169.4787079,
       -19.4508832
      ],
      [
       169.4859748,
       -19.453799
      ],
      [
       169.4929367,
       -19.457315
      ],
      [
       169.4995379,
       -19.461403
      ],
      [
       169.5057258,
       -19.4660305
      ],
      [
       169.5114509,
       -19.4711606
      ],
      [
       169.5166674,
       -19.4767521
      ],
      [
       169.5213336,
       -19.4827605
      ],
      [
       169.5254122,
       -19.4891377
      ],
      [
       169.5288704,
       -19.4958329
      ],
      [
       169.5316806,
       -19.5027924
      ],
      [
       169.5338203,
       -19.5099608
      ],
      [
       169.5352722,
       -19.5172806
      ],
      [
       169.5360246,
       -19.5246934
      ],
      [
       169.5360715,
       -19.53214
      ],
      [
       169.5354123,
       -19.5395607
      ],
      [
       169.5340523,
       -19.5468962
      ],
      [
       169.5320022,
       -19.5540879
      ],
      [
       169.5292783,
       -19.5610782
      ],
      [
       169.5259024,
       -19.5678113
      ],
      [
       169.5219013,
       -19.5742332
      ],
      [
       169.517307,
       -19.5802925
      ],
      [
       169.5121563,
       -19.5859408
      ],
      [
       169.5064902,
       -19.5911328
      ],
      [
       169.5003542,
       -19.595827
      ],
      [
       169.4937972,
       -19.5999858
      ],
      [
       169.4868717,
       -19.6035759
      ],
      [
       169.4796332,
       -19.6065686
      ],
      [
       169.4721397,
       -19.6089398
      ],
      [
       169.464451,
       -19.6106707
      ],
      [
       169.4566288,
       -19.6117473
      ],
      [
       169.4487358,
       -19.6121611
      ],
      [
       169.440835,
       -19.6119086
      ],
      [
       169.4329899,
       -19.610992
      ],
      [
       169.4252632,
       -19.6094186
      ],
      [
       169.4177168,
       -19.6072009
      ],
      [
       169.4104111,
       -19.6043568
      ],
      [
       169.4034046,
       -19.600909
      ],
      [
       169.3967534,
       -19.5968851
      ],
      [
       169.3905107,
       -19.5923173
      ],
      [
       169.3847265,
       -19.5872423
      ],
      [
       169.3794469,
       -19.5817005
      ],
      [
       169.3747143,
       -19.5757365
      ],
      [
       169.3705664,
       -19.5693978
      ],
      [
       169.3670363,
       -19.5627353
      ],
      [
       169.3641522,
       -19.5558023
      ],
      [
       169.3619372,
       -19.5486541
      ],
      [
       169.3604087,
       -19.5413481
      ],
      [
       169.3595791,
       -19.5339426
      ],
      [
       169.3594547,
       -19.5264968
      ],
      [
       169.3600366,
       -19.5190704
      ],
      [
       169.3613198,
       -19.5117226
      ],
      [
       169.3632942,
       -19.5045123
      ],
      [
       169.3659438,
       -19.4974969
      ],
      [
       169.3692474,
       -19.4907327
      ],
      [
       169.3731785,
       -19.4842737
      ],
      [
       169.3777055,
       -19.4781714
      ],
      [
       169.3827924,
       -19.4724746
      ],
      [
       169.3883983,
       -19.4672289
      ],
      [
       169.3944785,
       -19.4624761
      ],
      [
       169.4009843,
       -19.4582541
      ],
      [
       169.4078638,
       -19.4545968
      ],
      [
       169.415062,
       -19.4515332
      ],
      [
       169.4225215,
       -19.4490879
      ],
      [
       169.4301825,
       -19.4472805
      ],
      [
       169.4379841,
       -19.4461252
      ],
      [
       169.4458639,
       -19.4456314
      ],
      [
       169.4477778,
       -19.4456118
      ]
     ]
    ]
   }
  },
  {
   "type": "Feature",
   "properties": {
    "ll": {
     "value": 0,
     "unit": 1,
     "referenceDatum": 0
    },
    "ul": {
     "value": 7000,
     "unit": 1,
     "referenceDatum": 1
    },
    "_id": "62615cbbf6123879c971230a",
    "name": "NV-D 4",
    "type": 2,
    "icao": 7,
    "bnd": [
     [
      -15.4727166,
      167.7425508
     ],
     [
      -15.3061674,
      167.9151976
     ]
    ]
   },
   "geometry": {
    "type": "Polygon",
    "coordinates": [
     [
      [
       167.8288889,
       -15.3061674
      ],
      [
       167.8366017,
       -15.3065002
      ],
      [
       167.8442529,
       -15.3074959
      ],
      [
       167.8517814,
       -15.3091467
      ],
      [
       167.8591271,
       -15.3114393
      ],
      [
       167.8662312,
       -15.3143554
      ],
      [
       167.8730371,
       -15.3178718
      ],
      [
       167.8794904,
       -15.3219602
      ],
      [
       167.8855394,
       -15.3265882
      ],
      [
       167.8911358,
       -15.3317186
      ],
      [
       167.896235,
       -15.3373106
      ],
      [
       167.900796,
       -15.3433194
      ],
      [
       167.9047824,
       -15.349697
      ],
      [
       167.9081624,
       -15.3563925
      ],
      [
       167.9109088,
       -15.3633523
      ],
      [
       167.9129996,
       -15.3705209
      ],
      [
       167.914418,
       -15.3778409
      ],
      [
       167.9151527,
       -15.3852538
      ],
      [
       167.9151976,
       -15.3927003
      ],
      [
       167.9145524,
       -15.400121
      ],
      [
       167.9132221,
       -15.4074564
      ],
      [
       167.9112173,
       -15.4146478
      ],
      [
       167.908554,
       -15.4216379
      ],
      [
       167.9052534,
       -15.4283706
      ],
      [
       167.9013418,
       -15.4347921
      ],
      [
       167.8968505,
       -15.440851
      ],
      [
       167.8918154,
       -15.4464989
      ],
      [
       167.8862767,
       -15.4516905
      ],
      [
       167.8802787,
       -15.4563842
      ],
      [
       167.8738694,
       -15.4605426
      ],
      [
       167.8671001,
       -15.4641324
      ],
      [
       167.860025,
       -15.4671247
      ],
      [
       167.8527005,
       -15.4694957
      ],
      [
       167.8451855,
       -15.4712264
      ],
      [
       167.83754,
       -15.4723029
      ],
      [
       167.8298252,
       -15.4727166
      ],
      [
       167.822103,
       -15.4724642
      ],
      [
       167.8144351,
       -15.4715477
      ],
      [
       167.8068828,
       -15.4699745
      ],
      [
       167.7995068,
       -15.4677571
      ],
      [
       167.7923659,
       -15.4649132
      ],
      [
       167.7855174,
       -15.4614658
      ],
      [
       167.7790161,
       -15.4574423
      ],
      [
       167.772914,
       -15.4528749
      ],
      [
       167.7672598,
       -15.4478003
      ],
      [
       167.7620988,
       -15.442259
      ],
      [
       167.7574723,
       -15.4362953
      ],
      [
       167.7534172,
       -15.429957
      ],
      [
       167.7499659,
       -15.4232949
      ],
      [
       167.7471461,
       -15.4163621
      ],
      [
       167.74498,
       -15.4092142
      ],
      [
       167.7434851,
       -15.4019083
      ],
      [
       167.7426733,
       -15.3945029
      ],
      [
       167.7425508,
       -15.3870572
      ],
      [
       167.7431187,
       -15.3796307
      ],
      [
       167.7443723,
       -15.3722828
      ],
      [
       167.7463015,
       -15.3650722
      ],
      [
       167.7488909,
       -15.3580566
      ],
      [
       167.7521196,
       -15.3512921
      ],
      [
       167.7559619,
       -15.3448327
      ],
      [
       167.7603869,
       -15.33873
      ],
      [
       167.7653592,
       -15.3330328
      ],
      [
       167.7708391,
       -15.3277866
      ],
      [
       167.7767828,
       -15.3230334
      ],
      [
       167.7831427,
       -15.318811
      ],
      [
       167.789868,
       -15.3151533
      ],
      [
       167.7969051,
       -15.3120894
      ],
      [
       167.8041975,
       -15.3096439
      ],
      [
       167.8116872,
       -15.3078362
      ],
      [
       167.8193143,
       -15.3066808
      ],
      [
       167.8270178,
       -15.3061869
      ],
      [
       167.8288889,
       -15.3061674
      ]
     ]
    ]
   }
  },
  {
   "type": "Feature",
   "properties": {
    "ll": {
     "value": 0,
     "unit": 1,
     "referenceDatum": 0
    },
    "ul": {
     "value": 5000,
     "unit": 1,
     "referenceDatum": 1
    },
    "_id": "62615cbb0e8346dfd926a2c3",
    "name": "NV-D 5",
    "type": 2,
    "icao": 7,
    "bnd": [
     [
      -14.3652166,
      167.4304917
     ],
     [
      -14.1986674,
      167.6022567
     ]
    ]
   },
   "geometry": {
    "type": "Polygon",
    "coordinates": [
     [
      [
       167.5163889,
       -14.1986674
      ],
      [
       167.5240625,
       -14.1990002
      ],
      [
       167.5316749,
       -14.199996
      ],
      [
       167.5391652,
       -14.2016468
      ],
      [
       167.5464735,
       -14.2039395
      ],
      [
       167.5535415,
       -14.2068557
      ],
      [
       167.5603128,
       -14.2103721
      ],
      [
       167.5667332,
       -14.2144607
      ],
      [
       167.5727513,
       -14.2190887
      ],
      [
       167.5783192,
       -14.2242193
      ],
      [
       167.5833923,
       -14.2298113
      ],
      [
       167.58793,
       -14.2358202
      ],
      [
       167.5918959,
       -14.242198
      ],
      [
       167.5952585,
       -14.2488935
      ],
      [
       167.5979907,
       -14.2558535
      ],
      [
       167.6000706,
       -14.2630221
      ],
      [
       167.6014816,
       -14.2703421
      ],
      [
       167.6022122,
       -14.277755
      ],
      [
       167.6022567,
       -14.2852016
      ],
      [
       167.6016146,
       -14.2926222
      ],
      [
       167.6002909,
       -14.2999575
      ],
      [
       167.5982961,
       -14.307149
      ],
      [
       167.5956462,
       -14.314139
      ],
      [
       167.5923623,
       -14.3208716
      ],
      [
       167.5884706,
       -14.327293
      ],
      [
       167.5840021,
       -14.3333518
      ],
      [
       167.5789927,
       -14.3389995
      ],
      [
       167.5734823,
       -14.344191
      ],
      [
       167.567515,
       -14.3488847
      ],
      [
       167.5611386,
       -14.353043
      ],
      [
       167.554404,
       -14.3566326
      ],
      [
       167.5473651,
       -14.3596249
      ],
      [
       167.5400782,
       -14.3619958
      ],
      [
       167.5326018,
       -14.3637265
      ],
      [
       167.5249956,
       -14.3648029
      ],
      [
       167.5173204,
       -14.3652166
      ],
      [
       167.5096378,
       -14.3649642
      ],
      [
       167.5020093,
       -14.3640478
      ],
      [
       167.4944959,
       -14.3624746
      ],
      [
       167.4871577,
       -14.3602572
      ],
      [
       167.4800535,
       -14.3574135
      ],
      [
       167.4732401,
       -14.3539661
      ],
      [
       167.466772,
       -14.3499427
      ],
      [
       167.4607011,
       -14.3453754
      ],
      [
       167.4550758,
       -14.3403009
      ],
      [
       167.4499412,
       -14.3347597
      ],
      [
       167.4453382,
       -14.3287962
      ],
      [
       167.4413037,
       -14.322458
      ],
      [
       167.43787,
       -14.3157959
      ],
      [
       167.4350643,
       -14.3088632
      ],
      [
       167.4329092,
       -14.3017154
      ],
      [
       167.4314217,
       -14.2944096
      ],
      [
       167.4306137,
       -14.2870042
      ],
      [
       167.4304917,
       -14.2795585
      ],
      [
       167.4310564,
       -14.2721319
      ],
      [
       167.4323034,
       -14.264784
      ],
      [
       167.4342226,
       -14.2575734
      ],
      [
       167.4367985,
       -14.2505577
      ],
      [
       167.4400106,
       -14.2437931
      ],
      [
       167.4438331,
       -14.2373336
      ],
      [
       167.4482355,
       -14.2312308
      ],
      [
       167.4531824,
       -14.2255335
      ],
      [
       167.4586343,
       -14.2202872
      ],
      [
       167.4645477,
       -14.2155338
      ],
      [
       167.4708752,
       -14.2113114
      ],
      [
       167.4775663,
       -14.2076536
      ],
      [
       167.4845675,
       -14.2045896
      ],
      [
       167.4918229,
       -14.202144
      ],
      [
       167.4992745,
       -14.2003363
      ],
      [
       167.5068629,
       -14.1991808
      ],
      [
       167.5145273,
       -14.1986869
      ],
      [
       167.5163889,
       -14.1986674
      ]
     ]
    ]
   }
  },
  {
   "type": "Feature",
   "properties": {
    "ll": {
     "value": 9500,
     "unit": 1,
     "referenceDatum": 1
    },
    "ul": {
     "value": 245,
     "unit": 6,
     "referenceDatum": 2
    },
    "_id": "62615cbb0e8346dfd926a2c9",
    "name": "PORT VILA CTA 120.700",
    "type": 0,
    "icao": 3,
    "bnd": [
     [
      -21,
      163
     ],
     [
      -13,
      170.5
     ]
    ]
   },
   "geometry": {
    "type": "Polygon",
    "coordinates": [
     [
      [
       163,
       -14
      ],
      [
       164.8333333,
       -13
      ],
      [
       170.5,
       -13
      ],
      [
       170.5,
       -21
      ],
      [
       163,
       -14
      ]
     ]
    ]
   }
  },
  {
   "type": "Feature",
   "properties": {
    "ll": {
     "value": 0,
     "unit": 1,
     "referenceDatum": 0
    },
    "ul": {
     "value": 3500,
     "unit": 1,
     "referenceDatum": 1
    },
    "_id": "62615cbbf6123879c9712314",
    "name": "PORT VILA CTR 120.700",
    "type": 4,
    "icao": 3,
    "bnd": [
     [
      -18.033088,
      167.9703768
     ],
     [
      -17.3668917,
      168.6696514
     ]
    ]
   },
   "geometry": {
    "type": "Polygon",
    "coordinates": [
     [
      [
       168.32,
       -17.3668917
      ],
      [
       168.3356037,
       -17.3672241
      ],
      [
       168.3511763,
       -17.3682208
      ],
      [
       168.3666869,
       -17.3698798
      ],
      [
       168.3821047,
       -17.3721977
      ],
      [
       168.397399,
       -17.37517
      ],
      [
       168.4125393,
       -17.3787907
      ],
      [
       168.4274955,
       -17.3830527
      ],
      [
       168.4422379,
       -17.3879474
      ],
      [
       168.4567371,
       -17.3934652
      ],
      [
       168.4709642,
       -17.399595
      ],
      [
       168.484891,
       -17.4063246
      ],
      [
       168.4984895,
       -17.4136407
      ],
      [
       168.5117329,
       -17.4215287
      ],
      [
       168.5245946,
       -17.4299729
      ],
      [
       168.537049,
       -17.4389565
      ],
      [
       168.5490712,
       -17.4484616
      ],
      [
       168.5606372,
       -17.4584692
      ],
      [
       168.571724,
       -17.4689595
      ],
      [
       168.5823093,
       -17.4799115
      ],
      [
       168.5923719,
       -17.4913035
      ],
      [
       168.6018918,
       -17.5031126
      ],
      [
       168.6108498,
       -17.5153155
      ],
      [
       168.6192279,
       -17.5278877
      ],
      [
       168.6270094,
       -17.5408043
      ],
      [
       168.6341786,
       -17.5540393
      ],
      [
       168.6407211,
       -17.5675665
      ],
      [
       168.6466236,
       -17.5813589
      ],
      [
       168.6518742,
       -17.5953888
      ],
      [
       168.6564624,
       -17.6096284
      ],
      [
       168.6603787,
       -17.6240492
      ],
      [
       168.6636153,
       -17.6386224
      ],
      [
       168.6661654,
       -17.6533189
      ],
      [
       168.6680238,
       -17.6681093
      ],
      [
       168.6691867,
       -17.6829641
      ],
      [
       168.6696514,
       -17.6978535
      ],
      [
       168.6694171,
       -17.7127479
      ],
      [
       168.6684838,
       -17.7276174
      ],
      [
       168.6668533,
       -17.7424323
      ],
      [
       168.6645288,
       -17.7571629
      ],
      [
       168.6615147,
       -17.7717797
      ],
      [
       168.6578167,
       -17.7862536
      ],
      [
       168.6534423,
       -17.8005555
      ],
      [
       168.6484,
       -17.8146567
      ],
      [
       168.6426997,
       -17.8285291
      ],
      [
       168.6363527,
       -17.8421447
      ],
      [
       168.6293716,
       -17.8554765
      ],
      [
       168.6217703,
       -17.8684975
      ],
      [
       168.6135637,
       -17.8811817
      ],
      [
       168.6047683,
       -17.8935037
      ],
      [
       168.5954016,
       -17.9054387
      ],
      [
       168.5854823,
       -17.9169629
      ],
      [
       168.5750302,
       -17.9280529
      ],
      [
       168.5640661,
       -17.9386867
      ],
      [
       168.5526119,
       -17.9488429
      ],
      [
       168.5406907,
       -17.958501
      ],
      [
       168.5283262,
       -17.9676417
      ],
      [
       168.5155432,
       -17.9762466
      ],
      [
       168.5023673,
       -17.9842984
      ],
      [
       168.4888251,
       -17.9917809
      ],
      [
       168.4749435,
       -17.9986792
      ],
      [
       168.4607505,
       -18.0049793
      ],
      [
       168.4462746,
       -18.0106686
      ],
      [
       168.4315449,
       -18.0157356
      ],
      [
       168.4165909,
       -18.0201702
      ],
      [
       168.4014427,
       -18.0239634
      ],
      [
       168.3861308,
       -18.0271076
      ],
      [
       168.3706858,
       -18.0295965
      ],
      [
       168.355139,
       -18.0314251
      ],
      [
       168.3395215,
       -18.0325897
      ],
      [
       168.3238647,
       -18.033088
      ],
      [
       168.3082001,
       -18.0329189
      ],
      [
       168.2925593,
       -18.0320829
      ],
      [
       168.2769737,
       -18.0305815
      ],
      [
       168.2614746,
       -18.0284178
      ],
      [
       168.2460931,
       -18.0255962
      ],
      [
       168.2308603,
       -18.0221223
      ],
      [
       168.2158067,
       -18.0180031
      ],
      [
       168.2009626,
       -18.0132469
      ],
      [
       168.1863578,
       -18.0078633
      ],
      [
       168.1720217,
       -18.001863
      ],
      [
       168.157983,
       -17.9952582
      ],
      [
       168.1442699,
       -17.9880621
      ],
      [
       168.1309099,
       -17.9802892
      ],
      [
       168.1179298,
       -17.9719551
      ],
      [
       168.1053557,
       -17.9630766
      ],
      [
       168.0932127,
       -17.9536714
      ],
      [
       168.0815252,
       -17.9437584
      ],
      [
       168.0703165,
       -17.9333577
      ],
      [
       168.0596091,
       -17.92249
      ],
      [
       168.0494244,
       -17.9111772
      ],
      [
       168.0397826,
       -17.8994419
      ],
      [
       168.0307031,
       -17.8873078
      ],
      [
       168.0222039,
       -17.8747992
      ],
      [
       168.014302,
       -17.8619411
      ],
      [
       168.0070131,
       -17.8487594
      ],
      [
       168.0003516,
       -17.8352804
      ],
      [
       167.9943308,
       -17.8215312
      ],
      [
       167.9889625,
       -17.8075394
      ],
      [
       167.9842574,
       -17.793333
      ],
      [
       167.9802247,
       -17.7789403
      ],
      [
       167.9768724,
       -17.7643904
      ],
      [
       167.974207,
       -17.7497122
      ],
      [
       167.9722336,
       -17.7349352
      ],
      [
       167.9709561,
       -17.720089
      ],
      [
       167.9703768,
       -17.7052032
      ],
      [
       167.9704967,
       -17.6903076
      ],
      [
       167.9713154,
       -17.675432
      ],
      [
       167.972831,
       -17.6606061
      ],
      [
       167.9750405,
       -17.6458596
      ],
      [
       167.9779391,
       -17.6312219
      ],
      [
       167.9815209,
       -17.6167223
      ],
      [
       167.9857787,
       -17.6023897
      ],
      [
       167.9907038,
       -17.5882528
      ],
      [
       167.9962861,
       -17.5743398
      ],
      [
       168.0025144,
       -17.5606783
      ],
      [
       168.0093761,
       -17.5472958
      ],
      [
       168.0168574,
       -17.5342189
      ],
      [
       168.0249432,
       -17.5214736
      ],
      [
       168.0336173,
       -17.5090854
      ],
      [
       168.0428622,
       -17.497079
      ],
      [
       168.0526596,
       -17.4854783
      ],
      [
       168.0629896,
       -17.4743065
      ],
      [
       168.0738316,
       -17.4635857
      ],
      [
       168.085164,
       -17.4533374
      ],
      [
       168.0969641,
       -17.443582
      ],
      [
       168.1092084,
       -17.4343388
      ],
      [
       168.1218722,
       -17.4256263
      ],
      [
       168.1349306,
       -17.4174619
      ],
      [
       168.1483572,
       -17.4098617
      ],
      [
       168.1621255,
       -17.402841
      ],
      [
       168.1762079,
       -17.3964137
      ],
      [
       168.1905765,
       -17.3905925
      ],
      [
       168.2052025,
       -17.3853891
      ],
      [
       168.2200569,
       -17.3808138
      ],
      [
       168.2351102,
       -17.3768757
      ],
      [
       168.2503323,
       -17.3735827
      ],
      [
       168.2656929,
       -17.3709413
      ],
      [
       168.2811616,
       -17.3689567
      ],
      [
       168.2967075,
       -17.367633
      ],
      [
       168.3122997,
       -17.3669726
      ],
      [
       168.32,
       -17.3668917
      ]
     ]
    ]
   }
  },
  {
   "type": "Feature",
   "properties": {
    "ll": {
     "value": 3500,
     "unit": 1,
     "referenceDatum": 1
    },
    "ul": {
     "value": 9500,
     "unit": 1,
     "referenceDatum": 1
    },
    "_id": "62615cbb2c2d35cb883b6b80",
    "name": "PORT VILA TMA 120.700",
    "type": 0,
    "icao": 3,
    "bnd": [
     [
      -18.5327691,
      167.4459135
     ],
     [
      -16.8672292,
      169.1941234
     ]
    ]
   },
   "geometry": {
    "type": "Polygon",
    "coordinates": [
     [
      [
       168.32,
       -16.8672292
      ],
      [
       168.3446093,
       -16.8675608
      ],
      [
       168.3691991,
       -16.8685553
      ],
      [
       168.3937502,
       -16.8702118
      ],
      [
       168.418243,
       -16.8725292
      ],
      [
       168.4426583,
       -16.8755056
      ],
      [
       168.4669767,
       -16.8791385
      ],
      [
       168.4911791,
       -16.8834253
      ],
      [
       168.5152464,
       -16.8883623
      ],
      [
       168.5391596,
       -16.8939459
      ],
      [
       168.5628997,
       -16.9001715
      ],
      [
       168.586448,
       -16.9070343
      ],
      [
       168.6097859,
       -16.9145287
      ],
      [
       168.6328949,
       -16.922649
      ],
      [
       168.6557567,
       -16.9313887
      ],
      [
       168.6783533,
       -16.9407408
      ],
      [
       168.7006667,
       -16.9506981
      ],
      [
       168.7226793,
       -16.9612525
      ],
      [
       168.7443736,
       -16.9723959
      ],
      [
       168.7657325,
       -16.9841193
      ],
      [
       168.7867389,
       -16.9964135
      ],
      [
       168.8073762,
       -17.0092688
      ],
      [
       168.827628,
       -17.022675
      ],
      [
       168.8474782,
       -17.0366215
      ],
      [
       168.866911,
       -17.0510972
      ],
      [
       168.885911,
       -17.0660908
      ],
      [
       168.9044629,
       -17.0815903
      ],
      [
       168.922552,
       -17.0975834
      ],
      [
       168.9401638,
       -17.1140576
      ],
      [
       168.9572843,
       -17.1309997
      ],
      [
       168.9738998,
       -17.1483963
      ],
      [
       168.9899969,
       -17.1662337
      ],
      [
       169.0055627,
       -17.1844976
      ],
      [
       169.0205848,
       -17.2031736
      ],
      [
       169.0350511,
       -17.222247
      ],
      [
       169.0489499,
       -17.2417024
      ],
      [
       169.06227,
       -17.2615246
      ],
      [
       169.0750006,
       -17.2816978
      ],
      [
       169.0871315,
       -17.3022059
      ],
      [
       169.0986528,
       -17.3230327
      ],
      [
       169.1095551,
       -17.3441615
      ],
      [
       169.1198296,
       -17.3655757
      ],
      [
       169.1294679,
       -17.3872581
      ],
      [
       169.1384621,
       -17.4091916
      ],
      [
       169.1468047,
       -17.4313586
      ],
      [
       169.154489,
       -17.4537416
      ],
      [
       169.1615085,
       -17.4763226
      ],
      [
       169.1678575,
       -17.4990837
      ],
      [
       169.1735305,
       -17.5220068
      ],
      [
       169.1785229,
       -17.5450736
      ],
      [
       169.1828304,
       -17.5682657
      ],
      [
       169.1864493,
       -17.5915646
      ],
      [
       169.1893764,
       -17.6149517
      ],
      [
       169.1916092,
       -17.6384082
      ],
      [
       169.1931455,
       -17.6619156
      ],
      [
       169.1939839,
       -17.6854549
      ],
      [
       169.1941234,
       -17.7090075
      ],
      [
       169.1935637,
       -17.7325543
      ],
      [
       169.1923049,
       -17.7560767
      ],
      [
       169.1903478,
       -17.7795557
      ],
      [
       169.1876936,
       -17.8029726
      ],
      [
       169.1843441,
       -17.8263087
      ],
      [
       169.1803019,
       -17.8495451
      ],
      [
       169.1755699,
       -17.8726634
      ],
      [
       169.1701516,
       -17.8956449
      ],
      [
       169.164051,
       -17.9184712
      ],
      [
       169.1572728,
       -17.941124
      ],
      [
       169.1498223,
       -17.9635851
      ],
      [
       169.141705,
       -17.9858365
      ],
      [
       169.1329274,
       -18.0078603
      ],
      [
       169.1234961,
       -18.0296387
      ],
      [
       169.1134186,
       -18.0511543
      ],
      [
       169.1027026,
       -18.0723898
      ],
      [
       169.0913567,
       -18.0933281
      ],
      [
       169.0793897,
       -18.1139523
      ],
      [
       169.0668109,
       -18.1342458
      ],
      [
       169.0536304,
       -18.1541922
      ],
      [
       169.0398586,
       -18.1737755
      ],
      [
       169.0255063,
       -18.19298
      ],
      [
       169.0105849,
       -18.21179
      ],
      [
       168.9951063,
       -18.2301904
      ],
      [
       168.9790828,
       -18.2481665
      ],
      [
       168.9625272,
       -18.2657036
      ],
      [
       168.9454527,
       -18.2827876
      ],
      [
       168.9278728,
       -18.2994047
      ],
      [
       168.9098017,
       -18.3155415
      ],
      [
       168.8912538,
       -18.331185
      ],
      [
       168.8722441,
       -18.3463224
      ],
      [
       168.8527876,
       -18.3609415
      ],
      [
       168.8329002,
       -18.3750306
      ],
      [
       168.8125977,
       -18.3885782
      ],
      [
       168.7918965,
       -18.4015733
      ],
      [
       168.7708132,
       -18.4140055
      ],
      [
       168.7493649,
       -18.4258646
      ],
      [
       168.7275688,
       -18.4371411
      ],
      [
       168.7054425,
       -18.4478258
      ],
      [
       168.6830039,
       -18.4579101
      ],
      [
       168.6602711,
       -18.4673857
      ],
      [
       168.6372626,
       -18.4762451
      ],
      [
       168.6139968,
       -18.484481
      ],
      [
       168.5904926,
       -18.4920867
      ],
      [
       168.5667691,
       -18.4990561
      ],
      [
       168.5428455,
       -18.5053835
      ],
      [
       168.5187411,
       -18.5110638
      ],
      [
       168.4944755,
       -18.5160924
      ],
      [
       168.4700683,
       -18.5204652
      ],
      [
       168.4455394,
       -18.5241787
      ],
      [
       168.4209086,
       -18.5272298
      ],
      [
       168.396196,
       -18.529616
      ],
      [
       168.3714215,
       -18.5313355
      ],
      [
       168.3466053,
       -18.5323868
      ],
      [
       168.3217674,
       -18.5327691
      ],
      [
       168.2969282,
       -18.532482
      ],
      [
       168.2721077,
       -18.5315259
      ],
      [
       168.247326,
       -18.5299014
      ],
      [
       168.2226034,
       -18.5276099
      ],
      [
       168.1979597,
       -18.5246533
      ],
      [
       168.1734151,
       -18.521034
      ],
      [
       168.1489894,
       -18.5167548
      ],
      [
       168.1247024,
       -18.5118193
      ],
      [
       168.1005739,
       -18.5062314
      ],
      [
       168.0766234,
       -18.4999958
      ],
      [
       168.0528702,
       -18.4931174
      ],
      [
       168.0293337,
       -18.4856018
      ],
      [
       168.0060328,
       -18.4774552
      ],
      [
       167.9829865,
       -18.4686842
      ],
      [
       167.9602133,
       -18.4592958
      ],
      [
       167.9377318,
       -18.4492976
      ],
      [
       167.91556,
       -18.4386978
      ],
      [
       167.8937158,
       -18.427505
      ],
      [
       167.8722169,
       -18.4157282
      ],
      [
       167.8510807,
       -18.403377
      ],
      [
       167.8303241,
       -18.3904613
      ],
      [
       167.8099638,
       -18.3769917
      ],
      [
       167.7900163,
       -18.362979
      ],
      [
       167.7704976,
       -18.3484345
      ],
      [
       167.7514233,
       -18.3333701
      ],
      [
       167.7328088,
       -18.3177979
      ],
      [
       167.714669,
       -18.3017305
      ],
      [
       167.6970184,
       -18.285181
      ],
      [
       167.6798711,
       -18.2681625
      ],
      [
       167.6632408,
       -18.2506891
      ],
      [
       167.6471408,
       -18.2327746
      ],
      [
       167.6315839,
       -18.2144336
      ],
      [
       167.6165825,
       -18.195681
      ],
      [
       167.6021485,
       -18.1765317
      ],
      [
       167.5882934,
       -18.1570014
      ],
      [
       167.5750281,
       -18.1371056
      ],
      [
       167.5623631,
       -18.1168605
      ],
      [
       167.5503085,
       -18.0962824
      ],
      [
       167.5388736,
       -18.0753878
      ],
      [
       167.5280675,
       -18.0541935
      ],
      [
       167.5178986,
       -18.0327167
      ],
      [
       167.5083749,
       -18.0109746
      ],
      [
       167.4995038,
       -17.9889847
      ],
      [
       167.4912922,
       -17.9667646
      ],
      [
       167.4837464,
       -17.9443322
      ],
      [
       167.4768723,
       -17.9217056
      ],
      [
       167.470675,
       -17.8989028
      ],
      [
       167.4651593,
       -17.8759423
      ],
      [
       167.4603294,
       -17.8528424
      ],
      [
       167.4561888,
       -17.8296216
      ],
      [
       167.4527407,
       -17.8062986
      ],
      [
       167.4499874,
       -17.7828921
      ],
      [
       167.447931,
       -17.7594207
      ],
      [
       167.4465728,
       -17.7359034
      ],
      [
       167.4459135,
       -17.7123589
      ],
      [
       167.4459536,
       -17.688806
      ],
      [
       167.4466926,
       -17.6652636
      ],
      [
       167.4481297,
       -17.6417506
      ],
      [
       167.4502634,
       -17.6182856
      ],
      [
       167.4530919,
       -17.5948875
      ],
      [
       167.4566125,
       -17.571575
      ],
      [
       167.4608222,
       -17.5483666
      ],
      [
       167.4657174,
       -17.5252808
      ],
      [
       167.4712939,
       -17.5023361
      ],
      [
       167.477547,
       -17.4795508
      ],
      [
       167.4844715,
       -17.4569431
      ],
      [
       167.4920615,
       -17.4345308
      ],
      [
       167.5003109,
       -17.412332
      ],
      [
       167.5092128,
       -17.3903642
      ],
      [
       167.5187599,
       -17.368645
      ],
      [
       167.5289444,
       -17.3471916
      ],
      [
       167.5397579,
       -17.3260212
      ],
      [
       167.5511917,
       -17.3051504
      ],
      [
       167.5632364,
       -17.2845959
      ],
      [
       167.5758823,
       -17.2643741
      ],
      [
       167.5891192,
       -17.244501
      ],
      [
       167.6029363,
       -17.2249924
      ],
      [
       167.6173225,
       -17.2058638
      ],
      [
       167.6322662,
       -17.1871303
      ],
      [
       167.6477555,
       -17.1688068
      ],
      [
       167.6637777,
       -17.1509079
      ],
      [
       167.6803203,
       -17.1334477
      ],
      [
       167.6973697,
       -17.1164401
      ],
      [
       167.7149125,
       -17.0998986
      ],
      [
       167.7329345,
       -17.0838362
      ],
      [
       167.7514215,
       -17.0682657
      ],
      [
       167.7703586,
       -17.0531994
      ],
      [
       167.7897307,
       -17.0386493
      ],
      [
       167.8095225,
       -17.0246268
      ],
      [
       167.8297181,
       -17.0111431
      ],
      [
       167.8503016,
       -16.9982087
      ],
      [
       167.8712565,
       -16.9858341
      ],
      [
       167.8925662,
       -16.9740289
      ],
      [
       167.9142139,
       -16.9628025
      ],
      [
       167.9361822,
       -16.9521637
      ],
      [
       167.9584539,
       -16.942121
      ],
      [
       167.9810113,
       -16.9326823
      ],
      [
       168.0038365,
       -16.923855
      ],
      [
       168.0269114,
       -16.9156462
      ],
      [
       168.0502179,
       -16.9080623
      ],
      [
       168.0737374,
       -16.9011093
      ],
      [
       168.0974513,
       -16.8947927
      ],
      [
       168.121341,
       -16.8891175
      ],
      [
       168.1453875,
       -16.8840882
      ],
      [
       168.1695719,
       -16.8797087
      ],
      [
       168.193875,
       -16.8759825
      ],
      [
       168.2182776,
       -16.8729126
      ],
      [
       168.2427606,
       -16.8705013
      ],
      [
       168.2673045,
       -16.8687506
      ],
      [
       168.2918901,
       -16.8676619
      ],
      [
       168.3164978,
       -16.8672359
      ],
      [
       168.32,
       -16.8672292
      ]
     ]
    ]
   }
  }
 ]
}