{
 "type": "FeatureCollection",
 "countryCode": "lu",
 "features": [
  {
   "type": "Feature",
   "properties": {
    "ll": {
     "value": 55,
     "unit": 6,
     "referenceDatum": 2
    },
    "ul": {
     "value": 165,
     "unit": 6,
     "referenceDatum": 2
    },
    "_id": "626e4520793e44ed53926269",
    "name": "CTA SOUTH 3 (LUXEMBOURG APPROACH 120.885)",
    "type": 26,
    "icao": 2,
    "bnd": [
     [
      49.4936105,
      5.2947213
     ],
     [
      49.79245,
      5.8322231
     ]
    ]
   },
   "geometry": {
    "type": "Polygon",
    "coordinates": [
     [
      [
       5.2947219,
       49.6772217
      ],
      [
       5.2947217,
       49.6772217
      ],
      [
       5.2947216,
       49.6772218
      ],
      [
       5.2947215,
       49.6772219
      ],
      [
       5.2947214,
       49.677222
      ],
      [
       5.2947213,
       49.6772221
      ],
      [
       5.2947213,
       49.6772222
      ],
      [
       5.2947213,
       49.6772223
      ],
      [
       5.2947214,
       49.6772224
      ],
      [
       5.2947215,
       49.6772225
      ],
      [
       5.2947216,
       49.6772226
      ],
      [
       5.2947217,
       49.6772227
      ],
      [
       5.2947218,
       49.6772227
      ],
      [
       5.294722,
       49.6772228
      ],
      [
       5.2947222,
       49.6772228
      ],
      [
       5.5211108,
       49.6847228
      ],
      [
       5.7878245,
       49.7924499
      ],
      [
       5.7878246,
       49.7924499
      ],
      [
       5.7878248,
       49.79245
      ],
      [
       5.787825,
       49.79245
      ],
      [
       5.7878252,
       49.79245
      ],
      [
       5.7878253,
       49.7924499
      ],
      [
       5.7878255,
       49.7924499
      ],
      [
       5.7878256,
       49.7924498
      ],
      [
       5.7878257,
       49.7924497
      ],
      [
       5.8144452,
       49.7638892
      ],
      [
       5.8144453,
       49.7638891
      ],
      [
       5.8200007,
       49.7558337
      ],
      [
       5.8311117,
       49.7494449
      ],
      [
       5.8311118,
       49.7494448
      ],
      [
       5.8311119,
       49.7494447
      ],
      [
       5.831112,
       49.7494446
      ],
      [
       5.831112,
       49.7494445
      ],
      [
       5.8313898,
       49.7438889
      ],
      [
       5.8313898,
       49.7438888
      ],
      [
       5.8277787,
       49.7338889
      ],
      [
       5.8319453,
       49.7244446
      ],
      [
       5.8319453,
       49.7244444
      ],
      [
       5.8322231,
       49.6755556
      ],
      [
       5.8322231,
       49.6755554
      ],
      [
       5.832223,
       49.6755553
      ],
      [
       5.8322229,
       49.6755552
      ],
      [
       5.7322232,
       49.593611
      ],
      [
       5.7555564,
       49.5422224
      ],
      [
       5.7555565,
       49.5422223
      ],
      [
       5.7555564,
       49.5422222
      ],
      [
       5.7555564,
       49.542222
      ],
      [
       5.7555563,
       49.5422219
      ],
      [
       5.7555562,
       49.5422218
      ],
      [
       5.7555561,
       49.5422218
      ],
      [
       5.7555559,
       49.5422217
      ],
      [
       5.7527782,
       49.5413884
      ],
      [
       5.752778,
       49.5413883
      ],
      [
       5.7444447,
       49.5397217
      ],
      [
       5.7444445,
       49.5397216
      ],
      [
       5.7444443,
       49.5397216
      ],
      [
       5.7444441,
       49.5397217
      ],
      [
       5.7380552,
       49.5413883
      ],
      [
       5.7380551,
       49.5413884
      ],
      [
       5.7380549,
       49.5413885
      ],
      [
       5.7380548,
       49.5413885
      ],
      [
       5.7380548,
       49.5413886
      ],
      [
       5.7352772,
       49.5449995
      ],
      [
       5.7261118,
       49.5458327
      ],
      [
       5.7244453,
       49.541111
      ],
      [
       5.7244453,
       49.5411109
      ],
      [
       5.7244452,
       49.5411108
      ],
      [
       5.7244451,
       49.5411107
      ],
      [
       5.7244449,
       49.5411106
      ],
      [
       5.7244447,
       49.5411106
      ],
      [
       5.7244446,
       49.5411105
      ],
      [
       5.7244444,
       49.5411105
      ],
      [
       5.7036111,
       49.5419439
      ],
      [
       5.7036109,
       49.5419439
      ],
      [
       5.7036108,
       49.5419439
      ],
      [
       5.6783331,
       49.5486105
      ],
      [
       5.6566666,
       49.5497216
      ],
      [
       5.6497224,
       49.5499994
      ],
      [
       5.6355563,
       49.5447218
      ],
      [
       5.6327786,
       49.5408331
      ],
      [
       5.6327785,
       49.540833
      ],
      [
       5.6327783,
       49.5408329
      ],
      [
       5.6225007,
       49.5355552
      ],
      [
       5.6180565,
       49.5297221
      ],
      [
       5.6219453,
       49.5172223
      ],
      [
       5.6219453,
       49.5172222
      ],
      [
       5.6219453,
       49.5172221
      ],
      [
       5.6219453,
       49.517222
      ],
      [
       5.6191675,
       49.5133331
      ],
      [
       5.6191675,
       49.5133331
      ],
      [
       5.614723,
       49.507222
      ],
      [
       5.6147229,
       49.5072219
      ],
      [
       5.6147228,
       49.5072218
      ],
      [
       5.6147227,
       49.5072217
      ],
      [
       5.6147225,
       49.5072217
      ],
      [
       5.6147223,
       49.5072216
      ],
      [
       5.6147221,
       49.5072216
      ],
      [
       5.6147219,
       49.5072217
      ],
      [
       5.6055553,
       49.5091661
      ],
      [
       5.6055551,
       49.5091662
      ],
      [
       5.6055549,
       49.5091662
      ],
      [
       5.6055548,
       49.5091663
      ],
      [
       5.6055547,
       49.5091664
      ],
      [
       5.5997215,
       49.5186108
      ],
      [
       5.5958328,
       49.5208329
      ],
      [
       5.572222,
       49.5294439
      ],
      [
       5.5605556,
       49.5299994
      ],
      [
       5.5527783,
       49.5294439
      ],
      [
       5.5400007,
       49.5169441
      ],
      [
       5.5400006,
       49.516944
      ],
      [
       5.5400005,
       49.516944
      ],
      [
       5.5400004,
       49.5169439
      ],
      [
       5.5244448,
       49.5122217
      ],
      [
       5.5244448,
       49.5122217
      ],
      [
       5.5097225,
       49.5086106
      ],
      [
       5.5097224,
       49.5086105
      ],
      [
       5.5097222,
       49.5086105
      ],
      [
       5.4872227,
       49.5094438
      ],
      [
       5.4800008,
       49.5027775
      ],
      [
       5.4775009,
       49.493611
      ],
      [
       5.4775008,
       49.4936109
      ],
      [
       5.4775008,
       49.4936108
      ],
      [
       5.4775006,
       49.4936107
      ],
      [
       5.4775005,
       49.4936106
      ],
      [
       5.4775003,
       49.4936106
      ],
      [
       5.4775002,
       49.4936105
      ],
      [
       5.4775,
       49.4936105
      ],
      [
       5.4774998,
       49.4936105
      ],
      [
       5.4774996,
       49.4936106
      ],
      [
       5.4774995,
       49.4936106
      ],
      [
       5.4774994,
       49.4936107
      ],
      [
       5.4672216,
       49.5005552
      ],
      [
       5.4672215,
       49.5005552
      ],
      [
       5.4672214,
       49.5005553
      ],
      [
       5.4672213,
       49.5005554
      ],
      [
       5.4644437,
       49.5080552
      ],
      [
       5.4377773,
       49.5177773
      ],
      [
       5.4377772,
       49.5177773
      ],
      [
       5.4377771,
       49.5177774
      ],
      [
       5.437777,
       49.5177775
      ],
      [
       5.4377769,
       49.5177776
      ],
      [
       5.4377769,
       49.5177778
      ],
      [
       5.4377769,
       49.5177779
      ],
      [
       5.4377769,
       49.517778
      ],
      [
       5.437777,
       49.5177781
      ],
      [
       5.4377771,
       49.5177782
      ],
      [
       5.4377773,
       49.5177783
      ],
      [
       5.4436106,
       49.5202783
      ],
      [
       5.4436108,
       49.5202783
      ],
      [
       5.443611,
       49.5202784
      ],
      [
       5.4516662,
       49.5211117
      ],
      [
       5.4611105,
       49.5275004
      ],
      [
       5.4611107,
       49.5275005
      ],
      [
       5.4697213,
       49.5308336
      ],
      [
       5.468888,
       49.5361109
      ],
      [
       5.4597216,
       49.5436107
      ],
      [
       5.4513884,
       49.5477773
      ],
      [
       5.4447218,
       49.5499995
      ],
      [
       5.4447217,
       49.5499995
      ],
      [
       5.4447215,
       49.5499996
      ],
      [
       5.4447214,
       49.5499997
      ],
      [
       5.4447214,
       49.5499998
      ],
      [
       5.4447213,
       49.5499999
      ],
      [
       5.4447213,
       49.55
      ],
      [
       5.4447214,
       49.5500002
      ],
      [
       5.4447214,
       49.5500003
      ],
      [
       5.4561098,
       49.5649996
      ],
      [
       5.4411109,
       49.5674994
      ],
      [
       5.4411107,
       49.5674995
      ],
      [
       5.4411106,
       49.5674995
      ],
      [
       5.4411104,
       49.5674996
      ],
      [
       5.4411103,
       49.5674997
      ],
      [
       5.4411103,
       49.5674998
      ],
      [
       5.4316658,
       49.5880554
      ],
      [
       5.4316658,
       49.5880555
      ],
      [
       5.4316658,
       49.5880557
      ],
      [
       5.4333324,
       49.5938887
      ],
      [
       5.3908328,
       49.6186106
      ],
      [
       5.3799996,
       49.6216661
      ],
      [
       5.3799996,
       49.6216661
      ],
      [
       5.3716665,
       49.6241661
      ],
      [
       5.3647223,
       49.6238883
      ],
      [
       5.3647221,
       49.6238883
      ],
      [
       5.364722,
       49.6238883
      ],
      [
       5.3647218,
       49.6238884
      ],
      [
       5.3647217,
       49.6238884
      ],
      [
       5.3647216,
       49.6238885
      ],
      [
       5.3536109,
       49.631666
      ],
      [
       5.3447232,
       49.6288885
      ],
      [
       5.3458342,
       49.6211112
      ],
      [
       5.3458342,
       49.621111
      ],
      [
       5.3458342,
       49.6211109
      ],
      [
       5.3458341,
       49.6211108
      ],
      [
       5.345834,
       49.6211107
      ],
      [
       5.3458339,
       49.6211106
      ],
      [
       5.3458337,
       49.6211106
      ],
      [
       5.3458335,
       49.6211105
      ],
      [
       5.3250004,
       49.6183328
      ],
      [
       5.317223,
       49.6141663
      ],
      [
       5.3152786,
       49.6111109
      ],
      [
       5.3152785,
       49.6111108
      ],
      [
       5.3152784,
       49.6111107
      ],
      [
       5.3152783,
       49.6111106
      ],
      [
       5.3152781,
       49.6111106
      ],
      [
       5.3152779,
       49.6111105
      ],
      [
       5.3152777,
       49.6111105
      ],
      [
       5.3152776,
       49.6111105
      ],
      [
       5.3152774,
       49.6111106
      ],
      [
       5.3152772,
       49.6111106
      ],
      [
       5.3152771,
       49.6111107
      ],
      [
       5.315277,
       49.6111108
      ],
      [
       5.3152769,
       49.6111109
      ],
      [
       5.3077769,
       49.6258332
      ],
      [
       5.3077769,
       49.6258333
      ],
      [
       5.3077769,
       49.6258334
      ],
      [
       5.3077769,
       49.6258335
      ],
      [
       5.3105547,
       49.6341668
      ],
      [
       5.3105547,
       49.6341669
      ],
      [
       5.3105548,
       49.634167
      ],
      [
       5.3211104,
       49.6447225
      ],
      [
       5.3211105,
       49.6447226
      ],
      [
       5.3319433,
       49.6519445
      ],
      [
       5.3194437,
       49.6647219
      ],
      [
       5.3147215,
       49.6683329
      ],
      [
       5.3072217,
       49.6736106
      ],
      [
       5.2947219,
       49.6772217
      ]
     ]
    ]
   }
  },
  {
   "type": "Feature",
   "properties": {
    "ll": {
     "value": 0,
     "unit": 1,
     "referenceDatum": 0
    },
    "ul": {
     "value": 2500,
     "unit": 1,
     "referenceDatum": 1
    },
    "_id": "62614da90e8346dfd924b7ea",
    "name": "ELP01 DU PONT DE NEMOURS",
    "type": 3,
    "icao": 7,
    "bnd": [
     [
      49.5922222,
      6.1938889
     ],
     [
      49.6027778,
      6.2105556
     ]
    ]
   },
   "geometry": {
    "type": "Polygon",
    "coordinates": [
     [
      [
       6.2022222,
       49.6027778
      ],
      [
       6.2038889,
       49.6027778
      ],
      [
       6.2055556,
       49.6025
      ],
      [
       6.2083333,
       49.6013889
      ],
      [
       6.2091667,
       49.6002778
      ],
      [
       6.21,
       49.5994444
      ],
      [
       6.2105556,
       49.5983333
      ],
      [
       6.2105556,
       49.5972222
      ],
      [
       6.2102778,
       49.5963889
      ],
      [
       6.2097222,
       49.5952778
      ],
      [
       6.2088889,
       49.5944444
      ],
      [
       6.2077778,
       49.5936111
      ],
      [
       6.2063889,
       49.5927778
      ],
      [
       6.205,
       49.5925
      ],
      [
       6.2033333,
       49.5922222
      ],
      [
       6.2,
       49.5922222
      ],
      [
       6.1958333,
       49.5938889
      ],
      [
       6.195,
       49.5947222
      ],
      [
       6.1941667,
       49.5958333
      ],
      [
       6.1938889,
       49.5969444
      ],
      [
       6.1938889,
       49.5980556
      ],
      [
       6.1941667,
       49.5991667
      ],
      [
       6.1958333,
       49.6008333
      ],
      [
       6.1969444,
       49.6016667
      ],
      [
       6.1983333,
       49.6022222
      ],
      [
       6.2,
       49.6027778
      ],
      [
       6.2022222,
       49.6027778
      ]
     ]
    ]
   }
  },
  {
   "type": "Feature",
   "properties": {
    "ll": {
     "value": 0,
     "unit": 1,
     "referenceDatum": 0
    },
    "ul": {
     "value": 3500,
     "unit": 1,
     "referenceDatum": 1
    },
    "_id": "62614da90e8346dfd924b7fb",
    "name": "ELTSA03 - HOFFELT",
    "type": 1,
    "icao": 7,
    "bnd": [
     [
      50.0708333,
      5.8863889
     ],
     [
      50.1041667,
      5.9380556
     ]
    ]
   },
   "geometry": {
    "type": "Polygon",
    "coordinates": [
     [
      [
       5.9122222,
       50.1041667
      ],
      [
       5.9175,
       50.1038889
      ],
      [
       5.9222222,
       50.1027778
      ],
      [
       5.9269444,
       50.1011111
      ],
      [
       5.9308333,
       50.0991667
      ],
      [
       5.9341667,
       50.0963889
      ],
      [
       5.9363889,
       50.0936111
      ],
      [
       5.9377778,
       50.0902778
      ],
      [
       5.9380556,
       50.0869444
      ],
      [
       5.9375,
       50.0836111
      ],
      [
       5.9358333,
       50.0805556
      ],
      [
       5.9333333,
       50.0777778
      ],
      [
       5.9297222,
       50.0752778
      ],
      [
       5.9255556,
       50.0733333
      ],
      [
       5.9208333,
       50.0719444
      ],
      [
       5.9158333,
       50.0711111
      ],
      [
       5.9108333,
       50.0708333
      ],
      [
       5.9055556,
       50.0713889
      ],
      [
       5.9008333,
       50.0725
      ],
      [
       5.8963889,
       50.0744444
      ],
      [
       5.8925,
       50.0766667
      ],
      [
       5.8897222,
       50.0794444
      ],
      [
       5.8875,
       50.0825
      ],
      [
       5.8863889,
       50.0855556
      ],
      [
       5.8863889,
       50.0888889
      ],
      [
       5.8872222,
       50.0922222
      ],
      [
       5.8891667,
       50.0952778
      ],
      [
       5.8922222,
       50.0980556
      ],
      [
       5.8958333,
       50.1002778
      ],
      [
       5.9002778,
       50.1022222
      ],
      [
       5.905,
       50.1036111
      ],
      [
       5.91,
       50.1041667
      ],
      [
       5.9122222,
       50.1041667
      ]
     ]
    ]
   }
  },
  {
   "type": "Feature",
   "properties": {
    "ll": {
     "value": 0,
     "unit": 1,
     "referenceDatum": 0
    },
    "ul": {
     "value": 3500,
     "unit": 1,
     "referenceDatum": 1
    },
    "_id": "62614daa0e8346dfd924b804",
    "name": "ELTSA04 - WEILER",
    "type": 1,
    "icao": 7,
    "bnd": [
     [
      50.0913889,
      5.9372222
     ],
     [
      50.1247222,
      5.9888889
     ]
    ]
   },
   "geometry": {
    "type": "Polygon",
    "coordinates": [
     [
      [
       5.9630556,
       50.1247222
      ],
      [
       5.9683333,
       50.1244444
      ],
      [
       5.9730556,
       50.1233333
      ],
      [
       5.9777778,
       50.1216667
      ],
      [
       5.9816667,
       50.1197222
      ],
      [
       5.985,
       50.1169444
      ],
      [
       5.9872222,
       50.1141667
      ],
      [
       5.9886111,
       50.1108333
      ],
      [
       5.9888889,
       50.1075
      ],
      [
       5.9883333,
       50.1041667
      ],
      [
       5.9866667,
       50.1011111
      ],
      [
       5.9841667,
       50.0983333
      ],
      [
       5.9805556,
       50.0958333
      ],
      [
       5.9763889,
       50.0938889
      ],
      [
       5.9716667,
       50.0925
      ],
      [
       5.9666667,
       50.0916667
      ],
      [
       5.9616667,
       50.0913889
      ],
      [
       5.9563889,
       50.0919444
      ],
      [
       5.9516667,
       50.0930556
      ],
      [
       5.9472222,
       50.095
      ],
      [
       5.9433333,
       50.0972222
      ],
      [
       5.9405556,
       50.1
      ],
      [
       5.9383333,
       50.1030556
      ],
      [
       5.9372222,
       50.1061111
      ],
      [
       5.9372222,
       50.1094444
      ],
      [
       5.9380556,
       50.1127778
      ],
      [
       5.94,
       50.1158333
      ],
      [
       5.9430556,
       50.1186111
      ],
      [
       5.9466667,
       50.1208333
      ],
      [
       5.9511111,
       50.1227778
      ],
      [
       5.9558333,
       50.1241667
      ],
      [
       5.9608333,
       50.1247222
      ],
      [
       5.9630556,
       50.1247222
      ]
     ]
    ]
   }
  },
  {
   "type": "Feature",
   "properties": {
    "ll": {
     "value": 0,
     "unit": 1,
     "referenceDatum": 0
    },
    "ul": {
     "value": 3500,
     "unit": 1,
     "referenceDatum": 1
    },
    "_id": "62614de6cb27f42509458831",
    "name": "ELTSA05 - WEISWAMPACH",
    "type": 1,
    "icao": 7,
    "bnd": [
     [
      50.1177778,
      6.0166667
     ],
     [
      50.1511111,
      6.0686111
     ]
    ]
   },
   "geometry": {
    "type": "Polygon",
    "coordinates": [
     [
      [
       6.0425,
       50.1511111
      ],
      [
       6.0477778,
       50.1508333
      ],
      [
       6.0525,
       50.1497222
      ],
      [
       6.0572222,
       50.1480556
      ],
      [
       6.0611111,
       50.1461111
      ],
      [
       6.0644444,
       50.1433333
      ],
      [
       6.0666667,
       50.1405556
      ],
      [
       6.0680556,
       50.1372222
      ],
      [
       6.0686111,
       50.1338889
      ],
      [
       6.0677778,
       50.1305556
      ],
      [
       6.0661111,
       50.1275
      ],
      [
       6.0636111,
       50.1247222
      ],
      [
       6.06,
       50.1222222
      ],
      [
       6.0558333,
       50.1202778
      ],
      [
       6.0511111,
       50.1188889
      ],
      [
       6.0461111,
       50.1180556
      ],
      [
       6.0411111,
       50.1177778
      ],
      [
       6.0358333,
       50.1183333
      ],
      [
       6.0311111,
       50.1194444
      ],
      [
       6.0266667,
       50.1213889
      ],
      [
       6.0227778,
       50.1236111
      ],
      [
       6.0197222,
       50.1263889
      ],
      [
       6.0177778,
       50.1294444
      ],
      [
       6.0166667,
       50.1325
      ],
      [
       6.0166667,
       50.1358333
      ],
      [
       6.0175,
       50.1391667
      ],
      [
       6.0194444,
       50.1422222
      ],
      [
       6.0225,
       50.145
      ],
      [
       6.0261111,
       50.1472222
      ],
      [
       6.0305556,
       50.1491667
      ],
      [
       6.0352778,
       50.1505556
      ],
      [
       6.0402778,
       50.1511111
      ],
      [
       6.0425,
       50.1511111
      ]
     ]
    ]
   }
  },
  {
   "type": "Feature",
   "properties": {
    "ll": {
     "value": 0,
     "unit": 1,
     "referenceDatum": 0
    },
    "ul": {
     "value": 3000,
     "unit": 1,
     "referenceDatum": 1
    },
    "_id": "62614daa0e8346dfd924b822",
    "name": "ELTSA06 - DIEKIRCH NORTH",
    "type": 1,
    "icao": 7,
    "bnd": [
     [
      49.8947222,
      6.0758333
     ],
     [
      49.9644444,
      6.1994444
     ]
    ]
   },
   "geometry": {
    "type": "Polygon",
    "coordinates": [
     [
      [
       6.0758333,
       49.9455556
      ],
      [
       6.1675,
       49.9644444
      ],
      [
       6.1994444,
       49.9141667
      ],
      [
       6.1069444,
       49.8947222
      ],
      [
       6.0758333,
       49.9455556
      ]
     ]
    ]
   }
  },
  {
   "type": "Feature",
   "properties": {
    "ll": {
     "value": 0,
     "unit": 1,
     "referenceDatum": 0
    },
    "ul": {
     "value": 3000,
     "unit": 1,
     "referenceDatum": 1
    },
    "_id": "62614daa0e8346dfd924b82b",
    "name": "ELTSA07 - DIEKIRCH SOUTH",
    "type": 1,
    "icao": 7,
    "bnd": [
     [
      49.8541667,
      6.1069444
     ],
     [
      49.9141667,
      6.1994444
     ]
    ]
   },
   "geometry": {
    "type": "Polygon",
    "coordinates": [
     [
      [
       6.1069444,
       49.8947222
      ],
      [
       6.1994444,
       49.9141667
      ],
      [
       6.195,
       49.8675
      ],
      [
       6.1322222,
       49.8541667
      ],
      [
       6.1069444,
       49.8947222
      ]
     ]
    ]
   }
  },
  {
   "type": "Feature",
   "properties": {
    "ll": {
     "value": 1500,
     "unit": 1,
     "referenceDatum": 0
    },
    "ul": {
     "value": 70,
     "unit": 6,
     "referenceDatum": 2
    },
    "_id": "62614daa0e8346dfd924b838",
    "name": "FEITSCH AEROBATIC AREA",
    "type": 2,
    "icao": 7,
    "bnd": [
     [
      50.0180556,
      5.8788889
     ],
     [
      50.0455556,
      5.8961111
     ]
    ]
   },
   "geometry": {
    "type": "Polygon",
    "coordinates": [
     [
      [
       5.8961111,
       50.045
      ],
      [
       5.8927778,
       50.0180556
      ],
      [
       5.8788889,
       50.0188889
      ],
      [
       5.8822222,
       50.0455556
      ],
      [
       5.8961111,
       50.045
      ]
     ]
    ]
   }
  },
  {
   "type": "Feature",
   "properties": {
    "ll": {
     "value": 0,
     "unit": 1,
     "referenceDatum": 0
    },
    "ul": {
     "value": 3500,
     "unit": 1,
     "referenceDatum": 1
    },
    "_id": "62614daa0e8346dfd924b845",
    "name": "GRINGLAY PARAGLIDING",
    "type": 2,
    "icao": 7,
    "bnd": [
     [
      49.8988889,
      6.0658333
     ],
     [
      49.9322222,
      6.1175
     ]
    ]
   },
   "geometry": {
    "type": "Polygon",
    "coordinates": [
     [
      [
       6.0916667,
       49.9322222
      ],
      [
       6.0969444,
       49.9319444
      ],
      [
       6.1016667,
       49.9308333
      ],
      [
       6.1063889,
       49.9291667
      ],
      [
       6.1102778,
       49.9272222
      ],
      [
       6.1133333,
       49.9244444
      ],
      [
       6.1158333,
       49.9216667
      ],
      [
       6.1172222,
       49.9183333
      ],
      [
       6.1175,
       49.915
      ],
      [
       6.1169444,
       49.9116667
      ],
      [
       6.1152778,
       49.9086111
      ],
      [
       6.1125,
       49.9058333
      ],
      [
       6.1091667,
       49.9033333
      ],
      [
       6.105,
       49.9013889
      ],
      [
       6.1002778,
       49.9
      ],
      [
       6.0952778,
       49.8991667
      ],
      [
       6.0902778,
       49.8988889
      ],
      [
       6.085,
       49.8994444
      ],
      [
       6.0802778,
       49.9005556
      ],
      [
       6.0758333,
       49.9025
      ],
      [
       6.0722222,
       49.9047222
      ],
      [
       6.0691667,
       49.9075
      ],
      [
       6.0669444,
       49.9105556
      ],
      [
       6.0658333,
       49.9136111
      ],
      [
       6.0658333,
       49.9169444
      ],
      [
       6.0669444,
       49.9202778
      ],
      [
       6.0688889,
       49.9233333
      ],
      [
       6.0716667,
       49.9261111
      ],
      [
       6.0752778,
       49.9283333
      ],
      [
       6.0797222,
       49.9302778
      ],
      [
       6.0844444,
       49.9316667
      ],
      [
       6.0894444,
       49.9322222
      ],
      [
       6.0916667,
       49.9322222
      ]
     ]
    ]
   }
  },
  {
   "type": "Feature",
   "properties": {
    "ll": {
     "value": 1000,
     "unit": 1,
     "referenceDatum": 0
    },
    "ul": {
     "value": 5000,
     "unit": 1,
     "referenceDatum": 1
    },
    "_id": "62614daa0e8346dfd924b84f",
    "name": "KONZ/KOENEN AEROBATIC SECTOR",
    "type": 2,
    "icao": 7,
    "bnd": [
     [
      49.6494444,
      6.5041667
     ],
     [
      49.7008333,
      6.5722222
     ]
    ]
   },
   "geometry": {
    "type": "Polygon",
    "coordinates": [
     [
      [
       6.5680556,
       49.7008333
      ],
      [
       6.5722222,
       49.65
      ],
      [
       6.5041667,
       49.6494444
      ],
      [
       6.5061111,
       49.7008333
      ],
      [
       6.5680556,
       49.7008333
      ]
     ]
    ]
   }
  },
  {
   "type": "Feature",
   "properties": {
    "ll": {
     "value": 0,
     "unit": 1,
     "referenceDatum": 0
    },
    "ul": {
     "value": 2500,
     "unit": 1,
     "referenceDatum": 1
    },
    "_id": "62614daa0e8346dfd924b877",
    "name": "LUXEMBOURG CTR 118.105",
    "type": 4,
    "icao": 3,
    "bnd": [
     [
      49.5005556,
      5.9686111
     ],
     [
      49.7305556,
      6.3961111
     ]
    ]
   },
   "geometry": {
    "type": "Polygon",
    "coordinates": [
     [
      [
       6.2036111,
       49.7197222
      ],
      [
       6.2030556,
       49.7194444
      ],
      [
       6.2133333,
       49.7227778
      ],
      [
       6.2238889,
       49.7255556
      ],
      [
       6.235,
       49.7277778
      ],
      [
       6.2461111,
       49.7294444
      ],
      [
       6.2577778,
       49.7302778
      ],
      [
       6.2691667,
       49.7305556
      ],
      [
       6.2805556,
       49.73
      ],
      [
       6.2922222,
       49.7288889
      ],
      [
       6.3033333,
       49.7272222
      ],
      [
       6.3141667,
       49.7247222
      ],
      [
       6.3247222,
       49.7219444
      ],
      [
       6.3347222,
       49.7183333
      ],
      [
       6.3444444,
       49.7141667
      ],
      [
       6.3533333,
       49.7094444
      ],
      [
       6.3613889,
       49.7041667
      ],
      [
       6.3688889,
       49.6983333
      ],
      [
       6.3755556,
       49.6925
      ],
      [
       6.3813889,
       49.6858333
      ],
      [
       6.3863889,
       49.6791667
      ],
      [
       6.3902778,
       49.6722222
      ],
      [
       6.3930556,
       49.665
      ],
      [
       6.395,
       49.6577778
      ],
      [
       6.3961111,
       49.6502778
      ],
      [
       6.3958333,
       49.6427778
      ],
      [
       6.3947222,
       49.6352778
      ],
      [
       6.3927778,
       49.6280556
      ],
      [
       6.3894444,
       49.6208333
      ],
      [
       6.3852778,
       49.6138889
      ],
      [
       6.3802778,
       49.6072222
      ],
      [
       6.3744444,
       49.6008333
      ],
      [
       6.3675,
       49.595
      ],
      [
       6.36,
       49.5894444
      ],
      [
       6.3516667,
       49.5841667
      ],
      [
       6.3425,
       49.5797222
      ],
      [
       6.3327778,
       49.5755556
      ],
      [
       6.3316667,
       49.575
      ],
      [
       6.1611111,
       49.5116667
      ],
      [
       6.1508333,
       49.5083333
      ],
      [
       6.1402778,
       49.5055556
      ],
      [
       6.1294444,
       49.5033333
      ],
      [
       6.1180556,
       49.5016667
      ],
      [
       6.1066667,
       49.5008333
      ],
      [
       6.0952778,
       49.5005556
      ],
      [
       6.0838889,
       49.5011111
      ],
      [
       6.0725,
       49.5022222
      ],
      [
       6.0613889,
       49.5038889
      ],
      [
       6.0505556,
       49.5063889
      ],
      [
       6.04,
       49.5091667
      ],
      [
       6.03,
       49.5127778
      ],
      [
       6.0205556,
       49.5169444
      ],
      [
       6.0113889,
       49.5216667
      ],
      [
       6.0033333,
       49.5269444
      ],
      [
       5.9958333,
       49.5325
      ],
      [
       5.9891667,
       49.5386111
      ],
      [
       5.9833333,
       49.545
      ],
      [
       5.9783333,
       49.5516667
      ],
      [
       5.9744444,
       49.5588889
      ],
      [
       5.9713889,
       49.5661111
      ],
      [
       5.9694444,
       49.5733333
      ],
      [
       5.9686111,
       49.5808333
      ],
      [
       5.9686111,
       49.5880556
      ],
      [
       5.9697222,
       49.5955556
      ],
      [
       5.9719444,
       49.6027778
      ],
      [
       5.975,
       49.61
      ],
      [
       5.9791667,
       49.6169444
      ],
      [
       5.9841667,
       49.6236111
      ],
      [
       5.99,
       49.63
      ],
      [
       5.9969444,
       49.6361111
      ],
      [
       6.0044444,
       49.6416667
      ],
      [
       6.0127778,
       49.6469444
      ],
      [
       6.0216667,
       49.6513889
      ],
      [
       6.0313889,
       49.6555556
      ],
      [
       6.0325,
       49.6561111
      ],
      [
       6.2036111,
       49.7197222
      ]
     ]
    ]
   }
  },
  {
   "type": "Feature",
   "properties": {
    "ll": {
     "value": 2500,
     "unit": 1,
     "referenceDatum": 1
    },
    "ul": {
     "value": 75,
     "unit": 6,
     "referenceDatum": 2
    },
    "_id": "62614dab0e8346dfd924b887",
    "name": "LUXEMBOURG TMA FOUR",
    "type": 0,
    "icao": 3,
    "bnd": [
     [
      49.4527778,
      5.7538889
     ],
     [
      49.5644444,
      5.98
     ]
    ]
   },
   "geometry": {
    "type": "Polygon",
    "coordinates": [
     [
      [
       5.7555556,
       49.5422222
      ],
      [
       5.7538889,
       49.5461111
      ],
      [
       5.7566667,
       49.5488889
      ],
      [
       5.7558333,
       49.5558333
      ],
      [
       5.7611111,
       49.5625
      ],
      [
       5.7730556,
       49.5644444
      ],
      [
       5.7866667,
       49.5577778
      ],
      [
       5.7936111,
       49.5522222
      ],
      [
       5.8008333,
       49.5516667
      ],
      [
       5.8063889,
       49.5533333
      ],
      [
       5.8163889,
       49.5463889
      ],
      [
       5.8158333,
       49.54
      ],
      [
       5.82,
       49.5388889
      ],
      [
       5.8258333,
       49.5388889
      ],
      [
       5.8333333,
       49.5425
      ],
      [
       5.8386111,
       49.5433333
      ],
      [
       5.8430556,
       49.54
      ],
      [
       5.8394444,
       49.5347222
      ],
      [
       5.8416667,
       49.5311111
      ],
      [
       5.8375,
       49.5266667
      ],
      [
       5.8380556,
       49.5238889
      ],
      [
       5.8430556,
       49.5191667
      ],
      [
       5.85,
       49.5163889
      ],
      [
       5.8525,
       49.5119444
      ],
      [
       5.8597222,
       49.5027778
      ],
      [
       5.8705556,
       49.4988889
      ],
      [
       5.8855556,
       49.5002778
      ],
      [
       5.8902778,
       49.4983333
      ],
      [
       5.8980556,
       49.4988889
      ],
      [
       5.9166667,
       49.5022222
      ],
      [
       5.9230556,
       49.5002778
      ],
      [
       5.9405556,
       49.4991667
      ],
      [
       5.9594444,
       49.4925
      ],
      [
       5.9727778,
       49.4916667
      ],
      [
       5.9711111,
       49.4813889
      ],
      [
       5.9688889,
       49.4755556
      ],
      [
       5.9769444,
       49.4630556
      ],
      [
       5.98,
       49.4527778
      ],
      [
       5.7933333,
       49.4527778
      ],
      [
       5.7555556,
       49.5422222
      ]
     ]
    ]
   }
  },
  {
   "type": "Feature",
   "properties": {
    "ll": {
     "value": 3500,
     "unit": 1,
     "referenceDatum": 1
    },
    "ul": {
     "value": 145,
     "unit": 6,
     "referenceDatum": 2
    },
    "_id": "62614dab0e8346dfd924b89d",
    "name": "LUXEMBOURG TMA ONE B",
    "type": 0,
    "icao": 3,
    "bnd": [
     [
      49.7938889,
      5.7344444
     ],
     [
      50.1847222,
      6.3144444
     ]
    ]
   },
   "geometry": {
    "type": "Polygon",
    "coordinates": [
     [
      [
       6.1408333,
       50.1291667
      ],
      [
       6.1319444,
       50.1238889
      ],
      [
       6.1291667,
       50.12
      ],
      [
       6.1338889,
       50.1152778
      ],
      [
       6.1308333,
       50.1063889
      ],
      [
       6.1258333,
       50.1033333
      ],
      [
       6.1338889,
       50.0963889
      ],
      [
       6.1297222,
       50.0947222
      ],
      [
       6.125,
       50.0955556
      ],
      [
       6.1186111,
       50.0938889
      ],
      [
       6.1216667,
       50.0861111
      ],
      [
       6.1177778,
       50.0783333
      ],
      [
       6.1252778,
       50.0719444
      ],
      [
       6.1191667,
       50.0661111
      ],
      [
       6.1186111,
       50.0630556
      ],
      [
       6.1305556,
       50.0536111
      ],
      [
       6.1361111,
       50.0447222
      ],
      [
       6.1316667,
       50.0363889
      ],
      [
       6.1336111,
       50.0338889
      ],
      [
       6.1483333,
       50.0255556
      ],
      [
       6.1383333,
       50.0177778
      ],
      [
       6.1477778,
       50.015
      ],
      [
       6.1516667,
       50.0122222
      ],
      [
       6.1525,
       50.0088889
      ],
      [
       6.1422222,
       50
      ],
      [
       6.1502778,
       49.9972222
      ],
      [
       6.1530556,
       49.9933333
      ],
      [
       6.1580556,
       49.9908333
      ],
      [
       6.1691667,
       49.9894444
      ],
      [
       6.1722222,
       49.9872222
      ],
      [
       6.1672222,
       49.975
      ],
      [
       6.1705556,
       49.9688889
      ],
      [
       6.1805556,
       49.9594444
      ],
      [
       6.1966667,
       49.9611111
      ],
      [
       6.1988889,
       49.9561111
      ],
      [
       6.2022222,
       49.9538889
      ],
      [
       6.2011111,
       49.9355556
      ],
      [
       6.2219444,
       49.9266667
      ],
      [
       6.235,
       49.9175
      ],
      [
       6.2302778,
       49.9122222
      ],
      [
       6.2425,
       49.8983333
      ],
      [
       6.2488889,
       49.8966667
      ],
      [
       6.2572222,
       49.8911111
      ],
      [
       6.2627778,
       49.8836111
      ],
      [
       6.2766667,
       49.8788889
      ],
      [
       6.2855556,
       49.8797222
      ],
      [
       6.2947222,
       49.8694444
      ],
      [
       6.3047222,
       49.8688889
      ],
      [
       6.3144444,
       49.8644444
      ],
      [
       6.1666667,
       49.8063889
      ],
      [
       5.7913889,
       49.7938889
      ],
      [
       5.7538889,
       49.7955556
      ],
      [
       5.7483333,
       49.8016667
      ],
      [
       5.7522222,
       49.8147222
      ],
      [
       5.7486111,
       49.8188889
      ],
      [
       5.7494444,
       49.8308333
      ],
      [
       5.7397222,
       49.84
      ],
      [
       5.7477778,
       49.8438889
      ],
      [
       5.7508333,
       49.8502778
      ],
      [
       5.7508333,
       49.8569444
      ],
      [
       5.7602778,
       49.8613889
      ],
      [
       5.7533333,
       49.8708333
      ],
      [
       5.7580556,
       49.8736111
      ],
      [
       5.7772222,
       49.8716667
      ],
      [
       5.7852778,
       49.875
      ],
      [
       5.7822222,
       49.88
      ],
      [
       5.7722222,
       49.8872222
      ],
      [
       5.7619444,
       49.8911111
      ],
      [
       5.7491667,
       49.8922222
      ],
      [
       5.7344444,
       49.8994444
      ],
      [
       5.7486111,
       49.91
      ],
      [
       5.7586111,
       49.9152778
      ],
      [
       5.7625,
       49.9177778
      ],
      [
       5.7630556,
       49.9305556
      ],
      [
       5.7702778,
       49.9338889
      ],
      [
       5.7755556,
       49.9413889
      ],
      [
       5.7716667,
       49.9497222
      ],
      [
       5.78,
       49.9605556
      ],
      [
       5.7863889,
       49.9641667
      ],
      [
       5.7955556,
       49.9658333
      ],
      [
       5.8072222,
       49.9638889
      ],
      [
       5.8130556,
       49.9672222
      ],
      [
       5.8111111,
       49.9719444
      ],
      [
       5.815,
       49.9747222
      ],
      [
       5.8211111,
       49.975
      ],
      [
       5.8336111,
       49.9794444
      ],
      [
       5.8394444,
       49.9908333
      ],
      [
       5.8288889,
       49.9944444
      ],
      [
       5.825,
       50
      ],
      [
       5.8233333,
       50.0022222
      ],
      [
       5.8208333,
       50.0127778
      ],
      [
       5.8244444,
       50.0161111
      ],
      [
       5.85,
       50.0244444
      ],
      [
       5.8577778,
       50.0344444
      ],
      [
       5.8575,
       50.0380556
      ],
      [
       5.8691667,
       50.0475
      ],
      [
       5.8686111,
       50.0511111
      ],
      [
       5.8572222,
       50.0594444
      ],
      [
       5.8561111,
       50.0636111
      ],
      [
       5.8594444,
       50.0697222
      ],
      [
       5.8730556,
       50.0763889
      ],
      [
       5.8822222,
       50.0761111
      ],
      [
       5.8886111,
       50.0797222
      ],
      [
       5.8905556,
       50.0838889
      ],
      [
       5.8883333,
       50.0916667
      ],
      [
       5.8916667,
       50.0969444
      ],
      [
       5.8963889,
       50.1047222
      ],
      [
       5.8972222,
       50.1122222
      ],
      [
       5.9044444,
       50.1197222
      ],
      [
       5.9169444,
       50.1247222
      ],
      [
       5.9580556,
       50.1344444
      ],
      [
       5.9616667,
       50.1536111
      ],
      [
       5.9672222,
       50.1586111
      ],
      [
       5.9644444,
       50.1597222
      ],
      [
       5.9625,
       50.1719444
      ],
      [
       5.9747222,
       50.1769444
      ],
      [
       5.9961111,
       50.1769444
      ],
      [
       6.02,
       50.1844444
      ],
      [
       6.0252778,
       50.1847222
      ],
      [
       6.0255556,
       50.1847222
      ],
      [
       6.0297222,
       50.1827778
      ],
      [
       6.0322222,
       50.17
      ],
      [
       6.0375,
       50.1663889
      ],
      [
       6.055,
       50.1622222
      ],
      [
       6.0625,
       50.1577778
      ],
      [
       6.0686111,
       50.1577778
      ],
      [
       6.0766667,
       50.1602778
      ],
      [
       6.0808333,
       50.1647222
      ],
      [
       6.0827778,
       50.1744444
      ],
      [
       6.1097222,
       50.1725
      ],
      [
       6.1125,
       50.1722222
      ],
      [
       6.1225,
       50.1663889
      ],
      [
       6.1169444,
       50.1611111
      ],
      [
       6.1219444,
       50.1547222
      ],
      [
       6.1161111,
       50.1455556
      ],
      [
       6.1252778,
       50.1380556
      ],
      [
       6.1377778,
       50.1327778
      ],
      [
       6.1408333,
       50.1291667
      ]
     ]
    ]
   }
  },
  {
   "type": "Feature",
   "properties": {
    "ll": {
     "value": 0,
     "unit": 1,
     "referenceDatum": 0
    },
    "ul": {
     "value": 145,
     "unit": 6,
     "referenceDatum": 2
    },
    "_id": "62614dac0e8346dfd924b8ef",
    "name": "NOERTRANGE PARA",
    "type": 2,
    "icao": 7,
    "bnd": [
     [
      49.9463889,
      5.8638889
     ],
     [
      50.0130556,
      5.9672222
     ]
    ]
   },
   "geometry": {
    "type": "Polygon",
    "coordinates": [
     [
      [
       5.9155556,
       50.0130556
      ],
      [
       5.9227778,
       50.0127778
      ],
      [
       5.93,
       50.0116667
      ],
      [
       5.9369444,
       50.01
      ],
      [
       5.9433333,
       50.0077778
      ],
      [
       5.9491667,
       50.005
      ],
      [
       5.9544444,
       50.0016667
      ],
      [
       5.9588889,
       49.9980556
      ],
      [
       5.9625,
       49.9938889
      ],
      [
       5.965,
       49.9894444
      ],
      [
       5.9666667,
       49.985
      ],
      [
       5.9672222,
       49.9802778
      ],
      [
       5.9669444,
       49.9755556
      ],
      [
       5.9655556,
       49.9708333
      ],
      [
       5.9630556,
       49.9663889
      ],
      [
       5.9597222,
       49.9622222
      ],
      [
       5.9552778,
       49.9583333
      ],
      [
       5.9502778,
       49.955
      ],
      [
       5.9447222,
       49.9522222
      ],
      [
       5.9383333,
       49.9497222
      ],
      [
       5.9313889,
       49.9480556
      ],
      [
       5.9244444,
       49.9469444
      ],
      [
       5.9172222,
       49.9463889
      ],
      [
       5.9097222,
       49.9466667
      ],
      [
       5.9025,
       49.9475
      ],
      [
       5.8955556,
       49.9488889
      ],
      [
       5.8891667,
       49.9511111
      ],
      [
       5.8830556,
       49.9538889
      ],
      [
       5.8777778,
       49.9569444
      ],
      [
       5.8730556,
       49.9605556
      ],
      [
       5.8694444,
       49.9647222
      ],
      [
       5.8663889,
       49.9688889
      ],
      [
       5.8647222,
       49.9736111
      ],
      [
       5.8638889,
       49.9783333
      ],
      [
       5.8638889,
       49.9830556
      ],
      [
       5.8652778,
       49.9875
      ],
      [
       5.8675,
       49.9919444
      ],
      [
       5.8705556,
       49.9963889
      ],
      [
       5.8747222,
       50.0002778
      ],
      [
       5.8797222,
       50.0036111
      ],
      [
       5.8852778,
       50.0066667
      ],
      [
       5.8913889,
       50.0091667
      ],
      [
       5.8980556,
       50.0111111
      ],
      [
       5.9052778,
       50.0125
      ],
      [
       5.9125,
       50.0130556
      ],
      [
       5.9155556,
       50.0130556
      ]
     ]
    ]
   }
  },
  {
   "type": "Feature",
   "properties": {
    "ll": {
     "value": 1500,
     "unit": 1,
     "referenceDatum": 0
    },
    "ul": {
     "value": 70,
     "unit": 6,
     "referenceDatum": 2
    },
    "_id": "62614dac0e8346dfd924b8f9",
    "name": "RIPPWEILER GLIDER ACRO",
    "type": 2,
    "icao": 7,
    "bnd": [
     [
      49.7516667,
      5.9225
     ],
     [
      49.7744444,
      5.9647222
     ]
    ]
   },
   "geometry": {
    "type": "Polygon",
    "coordinates": [
     [
      [
       5.9647222,
       49.7588889
      ],
      [
       5.9563889,
       49.7516667
      ],
      [
       5.9225,
       49.7669444
      ],
      [
       5.93,
       49.7744444
      ],
      [
       5.9647222,
       49.7588889
      ]
     ]
    ]
   }
  },
  {
   "type": "Feature",
   "properties": {
    "ll": {
     "value": 2500,
     "unit": 1,
     "referenceDatum": 1
    },
    "ul": {
     "value": 95,
     "unit": 6,
     "referenceDatum": 2
    },
    "_id": "62614dac0e8346dfd924b905",
    "name": "TSA29C LUXEMBOURG",
    "type": 1,
    "icao": 7,
    "bnd": [
     [
      50.0177778,
      5.85
     ],
     [
      50.1847222,
      6.1483333
     ]
    ]
   },
   "geometry": {
    "type": "Polygon",
    "coordinates": [
     [
      [
       6.1377778,
       50.13
      ],
      [
       6.1408333,
       50.1291667
      ],
      [
       6.1319444,
       50.1238889
      ],
      [
       6.1291667,
       50.12
      ],
      [
       6.1338889,
       50.1152778
      ],
      [
       6.1308333,
       50.1063889
      ],
      [
       6.1258333,
       50.1033333
      ],
      [
       6.1338889,
       50.0963889
      ],
      [
       6.1297222,
       50.0947222
      ],
      [
       6.125,
       50.0955556
      ],
      [
       6.1186111,
       50.0938889
      ],
      [
       6.1216667,
       50.0861111
      ],
      [
       6.1177778,
       50.0783333
      ],
      [
       6.1252778,
       50.0719444
      ],
      [
       6.1191667,
       50.0661111
      ],
      [
       6.1186111,
       50.0630556
      ],
      [
       6.1305556,
       50.0536111
      ],
      [
       6.1361111,
       50.0447222
      ],
      [
       6.1316667,
       50.0363889
      ],
      [
       6.1336111,
       50.0338889
      ],
      [
       6.1483333,
       50.0255556
      ],
      [
       6.1383333,
       50.0177778
      ],
      [
       5.8561111,
       50.0222222
      ],
      [
       5.85,
       50.0244444
      ],
      [
       5.8577778,
       50.0344444
      ],
      [
       5.8575,
       50.0380556
      ],
      [
       5.8691667,
       50.0475
      ],
      [
       5.8686111,
       50.0511111
      ],
      [
       5.8572222,
       50.0594444
      ],
      [
       5.8561111,
       50.0636111
      ],
      [
       5.8594444,
       50.0697222
      ],
      [
       5.8730556,
       50.0763889
      ],
      [
       5.8822222,
       50.0761111
      ],
      [
       5.8886111,
       50.0797222
      ],
      [
       5.8905556,
       50.0838889
      ],
      [
       5.8883333,
       50.0916667
      ],
      [
       5.8916667,
       50.0969444
      ],
      [
       5.8963889,
       50.1047222
      ],
      [
       5.8972222,
       50.1122222
      ],
      [
       5.9044444,
       50.1197222
      ],
      [
       5.9169444,
       50.1247222
      ],
      [
       5.9580556,
       50.1344444
      ],
      [
       5.9616667,
       50.1536111
      ],
      [
       5.9672222,
       50.1586111
      ],
      [
       5.9644444,
       50.1597222
      ],
      [
       5.9625,
       50.1719444
      ],
      [
       5.9747222,
       50.1769444
      ],
      [
       5.9961111,
       50.1769444
      ],
      [
       6.02,
       50.1844444
      ],
      [
       6.0252778,
       50.1847222
      ],
      [
       6.0255556,
       50.1847222
      ],
      [
       6.0297222,
       50.1827778
      ],
      [
       6.0322222,
       50.17
      ],
      [
       6.0375,
       50.1663889
      ],
      [
       6.055,
       50.1622222
      ],
      [
       6.0625,
       50.1577778
      ],
      [
       6.0686111,
       50.1577778
      ],
      [
       6.0766667,
       50.1602778
      ],
      [
       6.0808333,
       50.1647222
      ],
      [
       6.0827778,
       50.1744444
      ],
      [
       6.1097222,
       50.1725
      ],
      [
       6.1125,
       50.1722222
      ],
      [
       6.1225,
       50.1663889
      ],
      [
       6.1169444,
       50.1611111
      ],
      [
       6.1219444,
       50.1547222
      ],
      [
       6.1161111,
       50.1455556
      ],
      [
       6.1252778,
       50.1380556
      ],
      [
       6.1377778,
       50.13
      ]
     ]
    ]
   }
  },
  {
   "type": "Feature",
   "properties": {
    "ll": {
     "value": 3500,
     "unit": 1,
     "referenceDatum": 1
    },
    "ul": {
     "value": 65,
     "unit": 6,
     "referenceDatum": 2
    },
    "_id": "62614dac0e8346dfd924b913",
    "name": "USELDANGE GLIDER SECTOR NORTH",
    "type": 21,
    "icao": 7,
    "bnd": [
     [
      49.7938889,
      5.7344444
     ],
     [
      50.1847222,
      6.2175
     ]
    ]
   },
   "geometry": {
    "type": "Polygon",
    "coordinates": [
     [
      [
       5.7913889,
       49.7938889
      ],
      [
       5.7813889,
       49.7963889
      ],
      [
       5.7702778,
       49.7977778
      ],
      [
       5.7538889,
       49.7955556
      ],
      [
       5.7483333,
       49.8016667
      ],
      [
       5.7522222,
       49.8147222
      ],
      [
       5.7486111,
       49.8188889
      ],
      [
       5.7494444,
       49.8308333
      ],
      [
       5.7397222,
       49.84
      ],
      [
       5.7477778,
       49.8438889
      ],
      [
       5.7508333,
       49.8502778
      ],
      [
       5.7508333,
       49.8569444
      ],
      [
       5.7602778,
       49.8613889
      ],
      [
       5.7533333,
       49.8708333
      ],
      [
       5.7580556,
       49.8736111
      ],
      [
       5.7772222,
       49.8716667
      ],
      [
       5.7852778,
       49.875
      ],
      [
       5.7822222,
       49.88
      ],
      [
       5.7722222,
       49.8872222
      ],
      [
       5.7619444,
       49.8911111
      ],
      [
       5.7491667,
       49.8922222
      ],
      [
       5.7344444,
       49.8994444
      ],
      [
       5.7486111,
       49.91
      ],
      [
       5.7586111,
       49.9152778
      ],
      [
       5.7625,
       49.9177778
      ],
      [
       5.7630556,
       49.9305556
      ],
      [
       5.7702778,
       49.9338889
      ],
      [
       5.7755556,
       49.9413889
      ],
      [
       5.7716667,
       49.9497222
      ],
      [
       5.78,
       49.9605556
      ],
      [
       5.7863889,
       49.9641667
      ],
      [
       5.7955556,
       49.9658333
      ],
      [
       5.8072222,
       49.9638889
      ],
      [
       5.8130556,
       49.9672222
      ],
      [
       5.8111111,
       49.9719444
      ],
      [
       5.815,
       49.9747222
      ],
      [
       5.8211111,
       49.975
      ],
      [
       5.8336111,
       49.9794444
      ],
      [
       5.8394444,
       49.9908333
      ],
      [
       5.8288889,
       49.9944444
      ],
      [
       5.825,
       50
      ],
      [
       5.8233333,
       50.0022222
      ],
      [
       5.8208333,
       50.0127778
      ],
      [
       5.8244444,
       50.0161111
      ],
      [
       5.85,
       50.0244444
      ],
      [
       5.8577778,
       50.0344444
      ],
      [
       5.8575,
       50.0380556
      ],
      [
       5.8691667,
       50.0475
      ],
      [
       5.8686111,
       50.0511111
      ],
      [
       5.8572222,
       50.0594444
      ],
      [
       5.8561111,
       50.0636111
      ],
      [
       5.8594444,
       50.0697222
      ],
      [
       5.8730556,
       50.0763889
      ],
      [
       5.8822222,
       50.0761111
      ],
      [
       5.8886111,
       50.0797222
      ],
      [
       5.8905556,
       50.0838889
      ],
      [
       5.8883333,
       50.0916667
      ],
      [
       5.8916667,
       50.0969444
      ],
      [
       5.8963889,
       50.1047222
      ],
      [
       5.8972222,
       50.1122222
      ],
      [
       5.9044444,
       50.1197222
      ],
      [
       5.9169444,
       50.1247222
      ],
      [
       5.9580556,
       50.1344444
      ],
      [
       5.9616667,
       50.1536111
      ],
      [
       5.9672222,
       50.1586111
      ],
      [
       5.9644444,
       50.1597222
      ],
      [
       5.9625,
       50.1719444
      ],
      [
       5.9747222,
       50.1769444
      ],
      [
       5.9961111,
       50.1769444
      ],
      [
       6.02,
       50.1844444
      ],
      [
       6.0252778,
       50.1847222
      ],
      [
       6.0255556,
       50.1847222
      ],
      [
       6.0297222,
       50.1827778
      ],
      [
       6.0322222,
       50.17
      ],
      [
       6.0375,
       50.1663889
      ],
      [
       6.055,
       50.1622222
      ],
      [
       6.0625,
       50.1577778
      ],
      [
       6.0686111,
       50.1577778
      ],
      [
       6.0766667,
       50.1602778
      ],
      [
       6.0808333,
       50.1647222
      ],
      [
       6.0827778,
       50.1744444
      ],
      [
       6.1097222,
       50.1725
      ],
      [
       6.1125,
       50.1722222
      ],
      [
       6.1225,
       50.1663889
      ],
      [
       6.1169444,
       50.1611111
      ],
      [
       6.1219444,
       50.1547222
      ],
      [
       6.1161111,
       50.1455556
      ],
      [
       6.1252778,
       50.1380556
      ],
      [
       6.1377778,
       50.1327778
      ],
      [
       6.1408333,
       50.1291667
      ],
      [
       6.1319444,
       50.1238889
      ],
      [
       6.1291667,
       50.12
      ],
      [
       6.1338889,
       50.1152778
      ],
      [
       6.1308333,
       50.1063889
      ],
      [
       6.1258333,
       50.1033333
      ],
      [
       6.1338889,
       50.0963889
      ],
      [
       6.1297222,
       50.0947222
      ],
      [
       6.125,
       50.0955556
      ],
      [
       6.1186111,
       50.0938889
      ],
      [
       6.1216667,
       50.0861111
      ],
      [
       6.1177778,
       50.0783333
      ],
      [
       6.1252778,
       50.0719444
      ],
      [
       6.1191667,
       50.0661111
      ],
      [
       6.1186111,
       50.0630556
      ],
      [
       6.1305556,
       50.0536111
      ],
      [
       6.1361111,
       50.0447222
      ],
      [
       6.1316667,
       50.0363889
      ],
      [
       6.1336111,
       50.0338889
      ],
      [
       6.1483333,
       50.0255556
      ],
      [
       6.1383333,
       50.0177778
      ],
      [
       6.1477778,
       50.015
      ],
      [
       6.1516667,
       50.0122222
      ],
      [
       6.1525,
       50.0088889
      ],
      [
       6.1422222,
       50
      ],
      [
       6.1502778,
       49.9972222
      ],
      [
       6.1530556,
       49.9933333
      ],
      [
       6.1580556,
       49.9908333
      ],
      [
       6.1691667,
       49.9894444
      ],
      [
       6.1722222,
       49.9872222
      ],
      [
       6.1672222,
       49.975
      ],
      [
       6.1705556,
       49.9688889
      ],
      [
       6.1805556,
       49.9594444
      ],
      [
       6.1966667,
       49.9611111
      ],
      [
       6.1988889,
       49.9561111
      ],
      [
       6.2036111,
       49.9536111
      ],
      [
       6.2175,
       49.9519444
      ],
      [
       6.1977778,
       49.9488889
      ],
      [
       5.9652778,
       49.9061111
      ],
      [
       6,
       49.8011111
      ],
      [
       5.7913889,
       49.7938889
      ]
     ]
    ]
   }
  },
  {
   "type": "Feature",
   "properties": {
    "ll": {
     "value": 2500,
     "unit": 1,
     "referenceDatum": 1
    },
    "ul": {
     "value": 55,
     "unit": 6,
     "referenceDatum": 2
    },
    "_id": "62614de6cb27f4250945882d",
    "name": "USELDANGE GLIDER SECTOR SOUTH",
    "type": 21,
    "icao": 7,
    "bnd": [
     [
      49.7416667,
      5.7913889
     ],
     [
      49.8011111,
      6
     ]
    ]
   },
   "geometry": {
    "type": "Polygon",
    "coordinates": [
     [
      [
       5.7913889,
       49.7938889
      ],
      [
       6,
       49.8011111
      ],
      [
       6,
       49.7416667
      ],
      [
       5.8327778,
       49.7416667
      ],
      [
       5.8311111,
       49.7494444
      ],
      [
       5.82,
       49.7558333
      ],
      [
       5.8144444,
       49.7638889
      ],
      [
       5.7913889,
       49.7938889
      ]
     ]
    ]
   }
  }
 ]
}