{
 "type": "FeatureCollection",
 "countryCode": "pk",
 "features": [
  {
   "type": "Feature",
   "properties": {
    "ll": {
     "value": 0,
     "unit": 1,
     "referenceDatum": 0
    },
    "ul": {
     "value": 999,
     "unit": 6,
     "referenceDatum": 2
    },
    "_id": "62614edc0e8346dfd924d526",
    "name": "CHERAT NORTH APPROACH (125.6 MHZ)",
    "type": 0,
    "icao": 2,
    "bnd": [
     [
      33.5741667,
      70.9444444
     ],
     [
      34.8805626,
      73.4183333
     ]
    ]
   },
   "geometry": {
    "type": "Polygon",
    "coordinates": [
     [
      [
       71.0497222,
       33.7166667
      ],
      [
       71.0446336,
       33.7420892
      ],
      [
       71.0404621,
       33.7676283
      ],
      [
       71.0370836,
       33.7932485
      ],
      [
       71.034501,
       33.8189325
      ],
      [
       71.0327169,
       33.8446635
      ],
      [
       71.0317331,
       33.8704241
      ],
      [
       71.0315509,
       33.8961972
      ],
      [
       71.0321713,
       33.9219656
      ],
      [
       71.0335946,
       33.9477121
      ],
      [
       71.0358205,
       33.9734194
      ],
      [
       71.0388482,
       33.9990704
      ],
      [
       71.0426766,
       34.0246479
      ],
      [
       71.0473036,
       34.0501346
      ],
      [
       71.052727,
       34.0755136
      ],
      [
       71.0589438,
       34.1007677
      ],
      [
       71.0659505,
       34.1258799
      ],
      [
       71.0737431,
       34.1508334
      ],
      [
       71.0823172,
       34.1756113
      ],
      [
       71.0916675,
       34.2001969
      ],
      [
       71.1017884,
       34.2245736
      ],
      [
       71.1126738,
       34.2487251
      ],
      [
       71.124317,
       34.2726348
      ],
      [
       71.1367108,
       34.2962867
      ],
      [
       71.1498473,
       34.3196647
      ],
      [
       71.1637183,
       34.342753
      ],
      [
       71.1783151,
       34.3655359
      ],
      [
       71.1936282,
       34.3879979
      ],
      [
       71.2096478,
       34.4101238
      ],
      [
       71.2263637,
       34.4318986
      ],
      [
       71.243765,
       34.4533073
      ],
      [
       71.2618403,
       34.4743354
      ],
      [
       71.2805778,
       34.4949687
      ],
      [
       71.2999653,
       34.5151929
      ],
      [
       71.31999,
       34.5349943
      ],
      [
       71.3406387,
       34.5543594
      ],
      [
       71.3618976,
       34.5732748
      ],
      [
       71.3837526,
       34.5917278
      ],
      [
       71.4061893,
       34.6097055
      ],
      [
       71.4291925,
       34.6271958
      ],
      [
       71.4527469,
       34.6441866
      ],
      [
       71.4768366,
       34.6606662
      ],
      [
       71.5014455,
       34.6766234
      ],
      [
       71.5265569,
       34.6920471
      ],
      [
       71.5521538,
       34.7069269
      ],
      [
       71.5782189,
       34.7212523
      ],
      [
       71.6047345,
       34.7350136
      ],
      [
       71.6316826,
       34.7482014
      ],
      [
       71.6590449,
       34.7608064
      ],
      [
       71.6868026,
       34.7728201
      ],
      [
       71.7149367,
       34.7842341
      ],
      [
       71.7434282,
       34.7950405
      ],
      [
       71.7722573,
       34.805232
      ],
      [
       71.8014044,
       34.8148014
      ],
      [
       71.8308494,
       34.8237422
      ],
      [
       71.8605721,
       34.8320482
      ],
      [
       71.890552,
       34.8397136
      ],
      [
       71.9207685,
       34.8467331
      ],
      [
       71.9512008,
       34.853102
      ],
      [
       71.9818278,
       34.8588157
      ],
      [
       72.0126284,
       34.8638703
      ],
      [
       72.0435813,
       34.8682623
      ],
      [
       72.0746652,
       34.8719888
      ],
      [
       72.1058584,
       34.875047
      ],
      [
       72.1371396,
       34.8774349
      ],
      [
       72.1684869,
       34.8791509
      ],
      [
       72.1998788,
       34.8801937
      ],
      [
       72.2312934,
       34.8805626
      ],
      [
       72.262709,
       34.8802574
      ],
      [
       72.294104,
       34.8792782
      ],
      [
       72.3254565,
       34.8776258
      ],
      [
       72.3567448,
       34.8753013
      ],
      [
       72.3879473,
       34.8723064
      ],
      [
       72.4190424,
       34.868643
      ],
      [
       72.4500086,
       34.8643137
      ],
      [
       72.4808245,
       34.8593215
      ],
      [
       72.5114688,
       34.8536699
      ],
      [
       72.5419204,
       34.8473628
      ],
      [
       72.5721582,
       34.8404046
      ],
      [
       72.6021613,
       34.8328
      ],
      [
       72.6319092,
       34.8245543
      ],
      [
       72.6613813,
       34.8156732
      ],
      [
       72.6905574,
       34.8061629
      ],
      [
       72.7194175,
       34.7960299
      ],
      [
       72.7479416,
       34.7852813
      ],
      [
       72.7761104,
       34.7739244
      ],
      [
       72.8039045,
       34.761967
      ],
      [
       72.8313049,
       34.7494175
      ],
      [
       72.8582929,
       34.7362844
      ],
      [
       72.8848502,
       34.7225769
      ],
      [
       72.9109586,
       34.7083044
      ],
      [
       72.9366005,
       34.6934766
      ],
      [
       72.9617585,
       34.6781038
      ],
      [
       72.9864156,
       34.6621966
      ],
      [
       73.0105551,
       34.6457658
      ],
      [
       73.0341607,
       34.6288228
      ],
      [
       73.0572167,
       34.6113792
      ],
      [
       73.0797075,
       34.593447
      ],
      [
       73.1016182,
       34.5750384
      ],
      [
       73.122934,
       34.5561661
      ],
      [
       73.1436409,
       34.536843
      ],
      [
       73.1637251,
       34.5170822
      ],
      [
       73.1831734,
       34.4968974
      ],
      [
       73.2019729,
       34.4763022
      ],
      [
       73.2201113,
       34.4553108
      ],
      [
       73.2375767,
       34.4339374
      ],
      [
       73.2543578,
       34.4121966
      ],
      [
       73.2704437,
       34.3901032
      ],
      [
       73.285824,
       34.3676723
      ],
      [
       73.3004889,
       34.344919
      ],
      [
       73.3144289,
       34.3218589
      ],
      [
       73.3276352,
       34.2985076
      ],
      [
       73.3400994,
       34.2748809
      ],
      [
       73.3518139,
       34.2509949
      ],
      [
       73.3627712,
       34.2268656
      ],
      [
       73.3729646,
       34.2025094
      ],
      [
       73.382388,
       34.1779429
      ],
      [
       73.3910356,
       34.1531824
      ],
      [
       73.3989023,
       34.1282448
      ],
      [
       73.4059835,
       34.1031469
      ],
      [
       73.412275,
       34.0779055
      ],
      [
       73.4177735,
       34.0525376
      ],
      [
       73.4183333,
       34.0497222
      ],
      [
       73.1702778,
       34.0508333
      ],
      [
       72.8666667,
       33.9711111
      ],
      [
       72.85,
       33.75
      ],
      [
       72.6025,
       33.75
      ],
      [
       72.6036111,
       33.6713889
      ],
      [
       72.4163889,
       33.6494444
      ],
      [
       72.025,
       33.6311111
      ],
      [
       70.9444444,
       33.5741667
      ],
      [
       71.0497222,
       33.7166667
      ]
     ]
    ]
   }
  },
  {
   "type": "Feature",
   "properties": {
    "ll": {
     "value": 0,
     "unit": 1,
     "referenceDatum": 0
    },
    "ul": {
     "value": 999,
     "unit": 6,
     "referenceDatum": 2
    },
    "_id": "62614edc0e8346dfd924d534",
    "name": "CHERAT SOUTH APPROACH (127.35 MHZ)",
    "type": 0,
    "icao": 2,
    "bnd": [
     [
      32.6252778,
      70.4997222
     ],
     [
      33.6494444,
      73.1836111
     ]
    ]
   },
   "geometry": {
    "type": "Polygon",
    "coordinates": [
     [
      [
       70.9444444,
       33.5741667
      ],
      [
       72.025,
       33.6311111
      ],
      [
       72.4163889,
       33.6494444
      ],
      [
       72.4163889,
       33.3469444
      ],
      [
       72.6322222,
       33.3416667
      ],
      [
       72.7908333,
       33.3044444
      ],
      [
       72.7952778,
       33.145
      ],
      [
       72.8455556,
       33.1444444
      ],
      [
       73.0072222,
       33.0711111
      ],
      [
       73.1836111,
       32.7163889
      ],
      [
       72.8641667,
       32.9194444
      ],
      [
       72.5797222,
       32.9247222
      ],
      [
       72.3972222,
       32.8911111
      ],
      [
       72.3872222,
       32.6252778
      ],
      [
       71.7536111,
       32.6372222
      ],
      [
       71.7652778,
       32.9613889
      ],
      [
       71.7528272,
       32.9617701
      ],
      [
       71.7246761,
       32.9723309
      ],
      [
       71.6968514,
       32.9834899
      ],
      [
       71.669371,
       32.9952401
      ],
      [
       71.6422529,
       33.0075738
      ],
      [
       71.6155146,
       33.0204832
      ],
      [
       71.5891735,
       33.0339598
      ],
      [
       71.5632466,
       33.0479951
      ],
      [
       71.5377509,
       33.06258
      ],
      [
       71.5127031,
       33.0777051
      ],
      [
       71.4881195,
       33.0933606
      ],
      [
       71.4640161,
       33.1095365
      ],
      [
       71.4404089,
       33.1262223
      ],
      [
       71.4173133,
       33.1434073
      ],
      [
       71.3947446,
       33.1610803
      ],
      [
       71.3727176,
       33.1792299
      ],
      [
       71.351247,
       33.1978444
      ],
      [
       71.3303469,
       33.2169117
      ],
      [
       71.3100314,
       33.2364195
      ],
      [
       71.2903138,
       33.2563551
      ],
      [
       71.2712076,
       33.2767057
      ],
      [
       71.2527253,
       33.297458
      ],
      [
       71.2348796,
       33.3185985
      ],
      [
       71.2176824,
       33.3401135
      ],
      [
       71.2011454,
       33.361989
      ],
      [
       71.1852799,
       33.3842108
      ],
      [
       71.1700967,
       33.4067645
      ],
      [
       71.1556062,
       33.4296352
      ],
      [
       71.1418184,
       33.4528082
      ],
      [
       71.128743,
       33.4762682
      ],
      [
       71.1163889,
       33.5
      ],
      [
       70.6663889,
       32.8833333
      ],
      [
       70.4997222,
       32.9666667
      ],
      [
       70.9444444,
       33.5741667
      ]
     ]
    ]
   }
  },
  {
   "type": "Feature",
   "properties": {
    "ll": {
     "value": 6500,
     "unit": 1,
     "referenceDatum": 0
    },
    "ul": {
     "value": 150,
     "unit": 6,
     "referenceDatum": 2
    },
    "_id": "62614edccb27f4250945c5c1",
    "name": "ISLAMABAD TMA SOUTH FL 065 - FL 150 (121.65)",
    "type": 0,
    "icao": 2,
    "bnd": [
     [
      32.7163889,
      72.8444444
     ],
     [
      33.1952778,
      73.3641667
     ]
    ]
   },
   "geometry": {
    "type": "Polygon",
    "coordinates": [
     [
      [
       72.8444444,
       33.1761111
      ],
      [
       73.295,
       33.1952778
      ],
      [
       73.3641667,
       32.7783333
      ],
      [
       73.1836111,
       32.7163889
      ],
      [
       73.0072222,
       33.0711111
      ],
      [
       72.8455556,
       33.1444444
      ],
      [
       72.8444444,
       33.1761111
      ]
     ]
    ]
   }
  },
  {
   "type": "Feature",
   "properties": {
    "ll": {
     "value": 9500,
     "unit": 1,
     "referenceDatum": 0
    },
    "ul": {
     "value": 150,
     "unit": 6,
     "referenceDatum": 2
    },
    "_id": "62614edccb27f4250945c5cc",
    "name": "ISLAMABAD TMA SOUTH FL 065 - FL 150 (121.65)",
    "type": 0,
    "icao": 2,
    "bnd": [
     [
      33.3469444,
      72.0244444
     ],
     [
      33.6494444,
      72.4163889
     ]
    ]
   },
   "geometry": {
    "type": "Polygon",
    "coordinates": [
     [
      [
       72.025,
       33.5988889
      ],
      [
       72.4163889,
       33.6494444
      ],
      [
       72.4163889,
       33.3469444
      ],
      [
       72.0244444,
       33.3555556
      ],
      [
       72.025,
       33.5988889
      ]
     ]
    ]
   }
  },
  {
   "type": "Feature",
   "properties": {
    "ll": {
     "value": 150,
     "unit": 6,
     "referenceDatum": 2
    },
    "ul": {
     "value": 205,
     "unit": 6,
     "referenceDatum": 2
    },
    "_id": "62614edc0e8346dfd924d54c",
    "name": "ISLAMABAD TMA SOUTH FL 150 - FL 205 (121.65)",
    "type": 0,
    "icao": 0,
    "bnd": [
     [
      32.7163889,
      72.8444444
     ],
     [
      33.1952778,
      73.3641667
     ]
    ]
   },
   "geometry": {
    "type": "Polygon",
    "coordinates": [
     [
      [
       72.8444444,
       33.1761111
      ],
      [
       73.295,
       33.1952778
      ],
      [
       73.3641667,
       32.7783333
      ],
      [
       73.1836111,
       32.7163889
      ],
      [
       73.0072222,
       33.0711111
      ],
      [
       72.8455556,
       33.1444444
      ],
      [
       72.8444444,
       33.1761111
      ]
     ]
    ]
   }
  },
  {
   "type": "Feature",
   "properties": {
    "ll": {
     "value": 150,
     "unit": 6,
     "referenceDatum": 2
    },
    "ul": {
     "value": 175,
     "unit": 6,
     "referenceDatum": 2
    },
    "_id": "62614edccb27f4250945c5dc",
    "name": "ISLAMABAD TMA SOUTH FL 150 - FL 205 (121.65)",
    "type": 0,
    "icao": 0,
    "bnd": [
     [
      33.3469444,
      72.0244444
     ],
     [
      33.6494444,
      72.4163889
     ]
    ]
   },
   "geometry": {
    "type": "Polygon",
    "coordinates": [
     [
      [
       72.025,
       33.5988889
      ],
      [
       72.4163889,
       33.6494444
      ],
      [
       72.4163889,
       33.3469444
      ],
      [
       72.0244444,
       33.3555556
      ],
      [
       72.025,
       33.5988889
      ]
     ]
    ]
   }
  },
  {
   "type": "Feature",
   "properties": {
    "ll": {
     "value": 155,
     "unit": 6,
     "referenceDatum": 2
    },
    "ul": {
     "value": 999,
     "unit": 6,
     "referenceDatum": 2
    },
    "_id": "62614edccb27f4250945c5e9",
    "name": "KARACHI CTA",
    "type": 0,
    "icao": 0,
    "bnd": [
     [
      23.5005556,
      64.7370174
     ],
     [
      27.0836111,
      69.8
     ]
    ]
   },
   "geometry": {
    "type": "Polygon",
    "coordinates": [
     [
      [
       66.1669444,
       23.5005556
      ],
      [
       65.4172222,
       24.3005556
      ],
      [
       64.8172222,
       24.3672222
      ],
      [
       64.8068598,
       24.4044675
      ],
      [
       64.7972014,
       24.4418701
      ],
      [
       64.7882505,
       24.4794188
      ],
      [
       64.7800105,
       24.5171026
      ],
      [
       64.7724843,
       24.5549102
      ],
      [
       64.765675,
       24.5928304
      ],
      [
       64.759585,
       24.6308519
      ],
      [
       64.754217,
       24.6689634
      ],
      [
       64.7495732,
       24.7071535
      ],
      [
       64.7456555,
       24.7454109
      ],
      [
       64.7424659,
       24.783724
      ],
      [
       64.740006,
       24.8220816
      ],
      [
       64.7382772,
       24.8604721
      ],
      [
       64.7372807,
       24.8988839
      ],
      [
       64.7370174,
       24.9373057
      ],
      [
       64.7374882,
       24.9757258
      ],
      [
       64.7386935,
       25.0141328
      ],
      [
       64.7406337,
       25.0525151
      ],
      [
       64.743309,
       25.0908611
      ],
      [
       64.7467191,
       25.1291593
      ],
      [
       64.7508639,
       25.1673982
      ],
      [
       64.7557426,
       25.2055662
      ],
      [
       64.7613545,
       25.2436518
      ],
      [
       64.7676987,
       25.2816436
      ],
      [
       64.7747739,
       25.3195299
      ],
      [
       64.7825786,
       25.3572993
      ],
      [
       64.7911112,
       25.3949405
      ],
      [
       64.8003698,
       25.4324419
      ],
      [
       64.8103522,
       25.4697922
      ],
      [
       64.8210561,
       25.5069799
      ],
      [
       64.8324789,
       25.543994
      ],
      [
       64.8446179,
       25.5808229
      ],
      [
       64.8574699,
       25.6174555
      ],
      [
       64.8710317,
       25.6538807
      ],
      [
       64.8852998,
       25.6900873
      ],
      [
       64.9002706,
       25.7260642
      ],
      [
       64.9159401,
       25.7618004
      ],
      [
       64.9323041,
       25.797285
      ],
      [
       64.9493583,
       25.8325072
      ],
      [
       64.967098,
       25.867456
      ],
      [
       64.9855184,
       25.9021207
      ],
      [
       65.0046145,
       25.9364908
      ],
      [
       65.024381,
       25.9705555
      ],
      [
       65.0448124,
       26.0043045
      ],
      [
       65.065903,
       26.0377273
      ],
      [
       65.0876469,
       26.0708136
      ],
      [
       65.1100379,
       26.1035532
      ],
      [
       65.1330696,
       26.1359359
      ],
      [
       65.1567355,
       26.1679518
      ],
      [
       65.1810287,
       26.1995909
      ],
      [
       65.2059423,
       26.2308434
      ],
      [
       65.2314691,
       26.2616997
      ],
      [
       65.2576016,
       26.2921501
      ],
      [
       65.2843323,
       26.3221851
      ],
      [
       65.3116532,
       26.3517955
      ],
      [
       65.3395563,
       26.3809719
      ],
      [
       65.3680335,
       26.4097054
      ],
      [
       65.3970762,
       26.437987
      ],
      [
       65.4266758,
       26.4658077
      ],
      [
       65.4568236,
       26.493159
      ],
      [
       65.4875105,
       26.5200323
      ],
      [
       65.5187272,
       26.5464192
      ],
      [
       65.5338889,
       26.5336111
      ],
      [
       66.1002778,
       26.3005556
      ],
      [
       66.7336111,
       25.2838889
      ],
      [
       67.3169444,
       25.3172222
      ],
      [
       68.0333333,
       26.3672222
      ],
      [
       67.6669444,
       26.9669444
      ],
      [
       67.6669444,
       27.0836111
      ],
      [
       67.7091399,
       27.0756461
      ],
      [
       67.7511676,
       27.0670188
      ],
      [
       67.7930142,
       27.0577318
      ],
      [
       67.8346666,
       27.0477882
      ],
      [
       67.8761116,
       27.0371911
      ],
      [
       67.917336,
       27.0259438
      ],
      [
       67.9583268,
       27.01405
      ],
      [
       67.9990712,
       27.0015134
      ],
      [
       68.0395561,
       26.988338
      ],
      [
       68.079769,
       26.974528
      ],
      [
       68.1196972,
       26.9600878
      ],
      [
       68.1593281,
       26.945022
      ],
      [
       68.1986493,
       26.9293354
      ],
      [
       68.2376485,
       26.9130328
      ],
      [
       68.2763135,
       26.8961195
      ],
      [
       68.3146322,
       26.8786009
      ],
      [
       68.3525927,
       26.8604825
      ],
      [
       68.3901832,
       26.84177
      ],
      [
       68.4273919,
       26.8224694
      ],
      [
       68.4642073,
       26.8025867
      ],
      [
       68.5006182,
       26.7821283
      ],
      [
       68.536613,
       26.7611005
      ],
      [
       68.5721809,
       26.7395101
      ],
      [
       68.6073108,
       26.7173639
      ],
      [
       68.641992,
       26.6946687
      ],
      [
       68.6762138,
       26.6714318
      ],
      [
       68.7099657,
       26.6476605
      ],
      [
       68.7432376,
       26.6233623
      ],
      [
       68.7760191,
       26.5985447
      ],
      [
       68.8083004,
       26.5732157
      ],
      [
       68.8400718,
       26.5473831
      ],
      [
       68.8333333,
       26.5005556
      ],
      [
       68.4833333,
       26.1005556
      ],
      [
       68.5093143,
       26.076511
      ],
      [
       68.5347475,
       26.0520031
      ],
      [
       68.5596229,
       26.0270417
      ],
      [
       68.5839309,
       26.0016369
      ],
      [
       68.6076618,
       25.9757992
      ],
      [
       68.6308065,
       25.949539
      ],
      [
       68.6533561,
       25.922867
      ],
      [
       68.6753017,
       25.8957939
      ],
      [
       68.6966349,
       25.8683307
      ],
      [
       68.7173475,
       25.8404886
      ],
      [
       68.7374317,
       25.8122788
      ],
      [
       68.7568797,
       25.7837127
      ],
      [
       68.7756841,
       25.7548019
      ],
      [
       68.793838,
       25.725558
      ],
      [
       68.8113343,
       25.6959928
      ],
      [
       68.8281667,
       25.6661182
      ],
      [
       68.8443288,
       25.6359462
      ],
      [
       68.8598146,
       25.605489
      ],
      [
       68.8746185,
       25.5747589
      ],
      [
       68.8887351,
       25.5437681
      ],
      [
       68.8333333,
       25.5005556
      ],
      [
       69.6833333,
       25.7005556
      ],
      [
       69.8,
       25.3338889
      ],
      [
       68.9833333,
       25.1672222
      ],
      [
       68.9884294,
       25.1341965
      ],
      [
       68.9927935,
       25.1010851
      ],
      [
       68.9964245,
       25.0679013
      ],
      [
       68.9993216,
       25.0346584
      ],
      [
       69.0014842,
       25.0013696
      ],
      [
       69.0029121,
       24.9680484
      ],
      [
       69.0036052,
       24.934708
      ],
      [
       69.0035639,
       24.9013617
      ],
      [
       69.0027888,
       24.8680227
      ],
      [
       69.0012808,
       24.8347045
      ],
      [
       68.999041,
       24.8014201
      ],
      [
       68.9960711,
       24.768183
      ],
      [
       68.9923727,
       24.7350062
      ],
      [
       68.9879479,
       24.701903
      ],
      [
       68.982799,
       24.6688864
      ],
      [
       68.9769286,
       24.6359697
      ],
      [
       68.9703396,
       24.6031657
      ],
      [
       68.9630352,
       24.5704876
      ],
      [
       68.9550189,
       24.5379481
      ],
      [
       68.9462943,
       24.5055603
      ],
      [
       68.9368654,
       24.4733368
      ],
      [
       68.9267365,
       24.4412904
      ],
      [
       68.9159121,
       24.4094338
      ],
      [
       68.904397,
       24.3777794
      ],
      [
       68.8921962,
       24.3463398
      ],
      [
       68.8793151,
       24.3151273
      ],
      [
       68.8657592,
       24.2841542
      ],
      [
       68.8515342,
       24.2534326
      ],
      [
       68.8,
       24.2505556
      ],
      [
       66.1669444,
       23.5005556
      ]
     ]
    ]
   }
  },
  {
   "type": "Feature",
   "properties": {
    "ll": {
     "value": 75,
     "unit": 6,
     "referenceDatum": 2
    },
    "ul": {
     "value": 155,
     "unit": 6,
     "referenceDatum": 2
    },
    "_id": "62614edccb27f4250945c5f2",
    "name": "KARACHI CTA",
    "type": 0,
    "icao": 2,
    "bnd": [
     [
      23.5005556,
      64.7370174
     ],
     [
      27.0836111,
      69.8
     ]
    ]
   },
   "geometry": {
    "type": "Polygon",
    "coordinates": [
     [
      [
       66.1669444,
       23.5005556
      ],
      [
       65.4172222,
       24.3005556
      ],
      [
       64.8172222,
       24.3672222
      ],
      [
       64.8068598,
       24.4044675
      ],
      [
       64.7972014,
       24.4418701
      ],
      [
       64.7882505,
       24.4794188
      ],
      [
       64.7800105,
       24.5171026
      ],
      [
       64.7724843,
       24.5549102
      ],
      [
       64.765675,
       24.5928304
      ],
      [
       64.759585,
       24.6308519
      ],
      [
       64.754217,
       24.6689634
      ],
      [
       64.7495732,
       24.7071535
      ],
      [
       64.7456555,
       24.7454109
      ],
      [
       64.7424659,
       24.783724
      ],
      [
       64.740006,
       24.8220816
      ],
      [
       64.7382772,
       24.8604721
      ],
      [
       64.7372807,
       24.8988839
      ],
      [
       64.7370174,
       24.9373057
      ],
      [
       64.7374882,
       24.9757258
      ],
      [
       64.7386935,
       25.0141328
      ],
      [
       64.7406337,
       25.0525151
      ],
      [
       64.743309,
       25.0908611
      ],
      [
       64.7467191,
       25.1291593
      ],
      [
       64.7508639,
       25.1673982
      ],
      [
       64.7557426,
       25.2055662
      ],
      [
       64.7613545,
       25.2436518
      ],
      [
       64.7676987,
       25.2816436
      ],
      [
       64.7747739,
       25.3195299
      ],
      [
       64.7825786,
       25.3572993
      ],
      [
       64.7911112,
       25.3949405
      ],
      [
       64.8003698,
       25.4324419
      ],
      [
       64.8103522,
       25.4697922
      ],
      [
       64.8210561,
       25.5069799
      ],
      [
       64.8324789,
       25.543994
      ],
      [
       64.8446179,
       25.5808229
      ],
      [
       64.8574699,
       25.6174555
      ],
      [
       64.8710317,
       25.6538807
      ],
      [
       64.8852998,
       25.6900873
      ],
      [
       64.9002706,
       25.7260642
      ],
      [
       64.9159401,
       25.7618004
      ],
      [
       64.9323041,
       25.797285
      ],
      [
       64.9493583,
       25.8325072
      ],
      [
       64.967098,
       25.867456
      ],
      [
       64.9855184,
       25.9021207
      ],
      [
       65.0046145,
       25.9364908
      ],
      [
       65.024381,
       25.9705555
      ],
      [
       65.0448124,
       26.0043045
      ],
      [
       65.065903,
       26.0377273
      ],
      [
       65.0876469,
       26.0708136
      ],
      [
       65.1100379,
       26.1035532
      ],
      [
       65.1330696,
       26.1359359
      ],
      [
       65.1567355,
       26.1679518
      ],
      [
       65.1810287,
       26.1995909
      ],
      [
       65.2059423,
       26.2308434
      ],
      [
       65.2314691,
       26.2616997
      ],
      [
       65.2576016,
       26.2921501
      ],
      [
       65.2843323,
       26.3221851
      ],
      [
       65.3116532,
       26.3517955
      ],
      [
       65.3395563,
       26.3809719
      ],
      [
       65.3680335,
       26.4097054
      ],
      [
       65.3970762,
       26.437987
      ],
      [
       65.4266758,
       26.4658077
      ],
      [
       65.4568236,
       26.493159
      ],
      [
       65.4875105,
       26.5200323
      ],
      [
       65.5187272,
       26.5464192
      ],
      [
       65.5338889,
       26.5336111
      ],
      [
       66.1002778,
       26.3005556
      ],
      [
       66.7336111,
       25.2838889
      ],
      [
       67.3169444,
       25.3172222
      ],
      [
       68.0333333,
       26.3672222
      ],
      [
       67.6669444,
       26.9669444
      ],
      [
       67.6669444,
       27.0836111
      ],
      [
       67.7091399,
       27.0756461
      ],
      [
       67.7511676,
       27.0670188
      ],
      [
       67.7930142,
       27.0577318
      ],
      [
       67.8346666,
       27.0477882
      ],
      [
       67.8761116,
       27.0371911
      ],
      [
       67.917336,
       27.0259438
      ],
      [
       67.9583268,
       27.01405
      ],
      [
       67.9990712,
       27.0015134
      ],
      [
       68.0395561,
       26.988338
      ],
      [
       68.079769,
       26.974528
      ],
      [
       68.1196972,
       26.9600878
      ],
      [
       68.1593281,
       26.945022
      ],
      [
       68.1986493,
       26.9293354
      ],
      [
       68.2376485,
       26.9130328
      ],
      [
       68.2763135,
       26.8961195
      ],
      [
       68.3146322,
       26.8786009
      ],
      [
       68.3525927,
       26.8604825
      ],
      [
       68.3901832,
       26.84177
      ],
      [
       68.4273919,
       26.8224694
      ],
      [
       68.4642073,
       26.8025867
      ],
      [
       68.5006182,
       26.7821283
      ],
      [
       68.536613,
       26.7611005
      ],
      [
       68.5721809,
       26.7395101
      ],
      [
       68.6073108,
       26.7173639
      ],
      [
       68.641992,
       26.6946687
      ],
      [
       68.6762138,
       26.6714318
      ],
      [
       68.7099657,
       26.6476605
      ],
      [
       68.7432376,
       26.6233623
      ],
      [
       68.7760191,
       26.5985447
      ],
      [
       68.8083004,
       26.5732157
      ],
      [
       68.8400718,
       26.5473831
      ],
      [
       68.8333333,
       26.5005556
      ],
      [
       68.4833333,
       26.1005556
      ],
      [
       68.5093143,
       26.076511
      ],
      [
       68.5347475,
       26.0520031
      ],
      [
       68.5596229,
       26.0270417
      ],
      [
       68.5839309,
       26.0016369
      ],
      [
       68.6076618,
       25.9757992
      ],
      [
       68.6308065,
       25.949539
      ],
      [
       68.6533561,
       25.922867
      ],
      [
       68.6753017,
       25.8957939
      ],
      [
       68.6966349,
       25.8683307
      ],
      [
       68.7173475,
       25.8404886
      ],
      [
       68.7374317,
       25.8122788
      ],
      [
       68.7568797,
       25.7837127
      ],
      [
       68.7756841,
       25.7548019
      ],
      [
       68.793838,
       25.725558
      ],
      [
       68.8113343,
       25.6959928
      ],
      [
       68.8281667,
       25.6661182
      ],
      [
       68.8443288,
       25.6359462
      ],
      [
       68.8598146,
       25.605489
      ],
      [
       68.8746185,
       25.5747589
      ],
      [
       68.8887351,
       25.5437681
      ],
      [
       68.8333333,
       25.5005556
      ],
      [
       69.6833333,
       25.7005556
      ],
      [
       69.8,
       25.3338889
      ],
      [
       68.9833333,
       25.1672222
      ],
      [
       68.9884294,
       25.1341965
      ],
      [
       68.9927935,
       25.1010851
      ],
      [
       68.9964245,
       25.0679013
      ],
      [
       68.9993216,
       25.0346584
      ],
      [
       69.0014842,
       25.0013696
      ],
      [
       69.0029121,
       24.9680484
      ],
      [
       69.0036052,
       24.934708
      ],
      [
       69.0035639,
       24.9013617
      ],
      [
       69.0027888,
       24.8680227
      ],
      [
       69.0012808,
       24.8347045
      ],
      [
       68.999041,
       24.8014201
      ],
      [
       68.9960711,
       24.768183
      ],
      [
       68.9923727,
       24.7350062
      ],
      [
       68.9879479,
       24.701903
      ],
      [
       68.982799,
       24.6688864
      ],
      [
       68.9769286,
       24.6359697
      ],
      [
       68.9703396,
       24.6031657
      ],
      [
       68.9630352,
       24.5704876
      ],
      [
       68.9550189,
       24.5379481
      ],
      [
       68.9462943,
       24.5055603
      ],
      [
       68.9368654,
       24.4733368
      ],
      [
       68.9267365,
       24.4412904
      ],
      [
       68.9159121,
       24.4094338
      ],
      [
       68.904397,
       24.3777794
      ],
      [
       68.8921962,
       24.3463398
      ],
      [
       68.8793151,
       24.3151273
      ],
      [
       68.8657592,
       24.2841542
      ],
      [
       68.8515342,
       24.2534326
      ],
      [
       68.8,
       24.2505556
      ],
      [
       66.1669444,
       23.5005556
      ]
     ]
    ]
   }
  },
  {
   "type": "Feature",
   "properties": {
    "ll": {
     "value": 155,
     "unit": 6,
     "referenceDatum": 2
    },
    "ul": {
     "value": 250,
     "unit": 6,
     "referenceDatum": 2
    },
    "_id": "62614edccb27f4250945c5fd",
    "name": "KARACHI TMA",
    "type": 0,
    "icao": 0,
    "bnd": [
     [
      24.0791963,
      66.2634562
     ],
     [
      25.672246,
      68.0997903
     ]
    ]
   },
   "geometry": {
    "type": "Polygon",
    "coordinates": [
     [
      [
       67.5574725,
       25.672246
      ],
      [
       67.5811603,
       25.6623011
      ],
      [
       67.6045224,
       25.6517527
      ],
      [
       67.6275401,
       25.6406094
      ],
      [
       67.6501946,
       25.6288803
      ],
      [
       67.6724677,
       25.6165748
      ],
      [
       67.6943412,
       25.6037031
      ],
      [
       67.7157975,
       25.5902757
      ],
      [
       67.7368193,
       25.5763033
      ],
      [
       67.7573897,
       25.5617975
      ],
      [
       67.7774922,
       25.54677
      ],
      [
       67.7971105,
       25.531233
      ],
      [
       67.8162289,
       25.5151992
      ],
      [
       67.8348321,
       25.4986815
      ],
      [
       67.8529053,
       25.4816934
      ],
      [
       67.8704339,
       25.4642486
      ],
      [
       67.8874041,
       25.4463614
      ],
      [
       67.9038022,
       25.4280461
      ],
      [
       67.9196154,
       25.4093177
      ],
      [
       67.934831,
       25.3901914
      ],
      [
       67.9494371,
       25.3706825
      ],
      [
       67.9634221,
       25.3508069
      ],
      [
       67.9767751,
       25.3305807
      ],
      [
       67.9894855,
       25.3100202
      ],
      [
       68.0015434,
       25.289142
      ],
      [
       68.0129394,
       25.267963
      ],
      [
       68.0236648,
       25.2465003
      ],
      [
       68.0337111,
       25.2247711
      ],
      [
       68.0430707,
       25.2027931
      ],
      [
       68.0517364,
       25.1805839
      ],
      [
       68.0597016,
       25.1581613
      ],
      [
       68.0669603,
       25.1355435
      ],
      [
       68.0735071,
       25.1127487
      ],
      [
       68.079337,
       25.0897951
      ],
      [
       68.0844458,
       25.0667012
      ],
      [
       68.0888299,
       25.0434856
      ],
      [
       68.0924861,
       25.0201668
      ],
      [
       68.0954118,
       24.9967636
      ],
      [
       68.0976052,
       24.9732948
      ],
      [
       68.099065,
       24.9497791
      ],
      [
       68.0997903,
       24.9262354
      ],
      [
       68.0997811,
       24.9026825
      ],
      [
       68.0990377,
       24.8791392
      ],
      [
       68.0975612,
       24.8556245
      ],
      [
       68.0953532,
       24.832157
      ],
      [
       68.0924158,
       24.8087554
      ],
      [
       68.0887518,
       24.7854386
      ],
      [
       68.0843645,
       24.762225
      ],
      [
       68.0792578,
       24.7391332
      ],
      [
       68.0734362,
       24.7161815
      ],
      [
       68.0669048,
       24.6933883
      ],
      [
       68.059669,
       24.6707717
      ],
      [
       68.0517351,
       24.6483496
      ],
      [
       68.0431097,
       24.6261399
      ],
      [
       68.0338001,
       24.6041602
      ],
      [
       68.0238139,
       24.5824281
      ],
      [
       68.0131595,
       24.5609606
      ],
      [
       68.0018456,
       24.5397749
      ],
      [
       67.9898816,
       24.5188878
      ],
      [
       67.9772772,
       24.4983158
      ],
      [
       67.9640427,
       24.4780752
      ],
      [
       67.9501889,
       24.4581821
      ],
      [
       67.9357271,
       24.4386521
      ],
      [
       67.920669,
       24.4195008
      ],
      [
       67.9050267,
       24.4007432
      ],
      [
       67.8888129,
       24.3823942
      ],
      [
       67.8720406,
       24.3644683
      ],
      [
       67.8547233,
       24.3469797
      ],
      [
       67.8368748,
       24.3299421
      ],
      [
       67.8185096,
       24.313369
      ],
      [
       67.7996421,
       24.2972734
      ],
      [
       67.7802876,
       24.2816681
      ],
      [
       67.7604614,
       24.2665654
      ],
      [
       67.7401793,
       24.2519771
      ],
      [
       67.7194574,
       24.2379148
      ],
      [
       67.6983122,
       24.2243894
      ],
      [
       67.6767605,
       24.2114118
      ],
      [
       67.6548193,
       24.198992
      ],
      [
       67.632506,
       24.1871399
      ],
      [
       67.6098382,
       24.1758647
      ],
      [
       67.5868339,
       24.1651753
      ],
      [
       67.5635112,
       24.1550802
      ],
      [
       67.5398885,
       24.1455873
      ],
      [
       67.5159845,
       24.1367039
      ],
      [
       67.4918179,
       24.1284372
      ],
      [
       67.4674077,
       24.1207936
      ],
      [
       67.4427733,
       24.1137791
      ],
      [
       67.4179339,
       24.1073992
      ],
      [
       67.3929091,
       24.1016589
      ],
      [
       67.3677186,
       24.0965627
      ],
      [
       67.3423821,
       24.0921146
      ],
      [
       67.3169195,
       24.0883182
      ],
      [
       67.2913508,
       24.0851763
      ],
      [
       67.265696,
       24.0826915
      ],
      [
       67.2399754,
       24.0808657
      ],
      [
       67.214209,
       24.0797003
      ],
      [
       67.1884171,
       24.0791963
      ],
      [
       67.1626199,
       24.079354
      ],
      [
       67.1368377,
       24.0801734
      ],
      [
       67.1110906,
       24.0816537
      ],
      [
       67.0853988,
       24.0837939
      ],
      [
       67.0597826,
       24.0865922
      ],
      [
       67.034262,
       24.0900464
      ],
      [
       67.008857,
       24.0941538
      ],
      [
       66.9835876,
       24.0989113
      ],
      [
       66.9584736,
       24.1043151
      ],
      [
       66.9335347,
       24.1103608
      ],
      [
       66.9087906,
       24.1170439
      ],
      [
       66.8842607,
       24.124359
      ],
      [
       66.8599643,
       24.1323005
      ],
      [
       66.8359204,
       24.1408619
      ],
      [
       66.8121482,
       24.1500367
      ],
      [
       66.7886662,
       24.1598177
      ],
      [
       66.765493,
       24.1701971
      ],
      [
       66.7426468,
       24.1811668
      ],
      [
       66.7201458,
       24.1927181
      ],
      [
       66.6980077,
       24.204842
      ],
      [
       66.67625,
       24.217529
      ],
      [
       66.65489,
       24.230769
      ],
      [
       66.6339445,
       24.2445516
      ],
      [
       66.6134302,
       24.2588661
      ],
      [
       66.5933634,
       24.2737011
      ],
      [
       66.5737601,
       24.2890449
      ],
      [
       66.5546358,
       24.3048854
      ],
      [
       66.5360059,
       24.3212102
      ],
      [
       66.5178852,
       24.3380064
      ],
      [
       66.5002882,
       24.3552607
      ],
      [
       66.4832289,
       24.3729595
      ],
      [
       66.4667212,
       24.3910889
      ],
      [
       66.4507782,
       24.4096344
      ],
      [
       66.4354128,
       24.4285816
      ],
      [
       66.4206375,
       24.4479153
      ],
      [
       66.4064641,
       24.4676204
      ],
      [
       66.3929042,
       24.4876811
      ],
      [
       66.3799687,
       24.5080817
      ],
      [
       66.3676683,
       24.528806
      ],
      [
       66.356013,
       24.5498375
      ],
      [
       66.3450123,
       24.5711596
      ],
      [
       66.3346754,
       24.5927553
      ],
      [
       66.3250107,
       24.6146076
      ],
      [
       66.3160263,
       24.6366991
      ],
      [
       66.3077296,
       24.6590123
      ],
      [
       66.3001277,
       24.6815293
      ],
      [
       66.2932269,
       24.7042324
      ],
      [
       66.2870332,
       24.7271034
      ],
      [
       66.2815518,
       24.7501242
      ],
      [
       66.2767876,
       24.7732763
      ],
      [
       66.2727446,
       24.7965415
      ],
      [
       66.2694266,
       24.819901
      ],
      [
       66.2668365,
       24.8433363
      ],
      [
       66.2649769,
       24.8668287
      ],
      [
       66.2638497,
       24.8903594
      ],
      [
       66.2634562,
       24.9139096
      ],
      [
       66.2637971,
       24.9374604
      ],
      [
       66.2648726,
       24.9609931
      ],
      [
       66.2666822,
       24.9844888
      ],
      [
       66.2692249,
       25.0079287
      ],
      [
       66.2724991,
       25.031294
      ],
      [
       66.2765026,
       25.0545659
      ],
      [
       66.2812326,
       25.0777258
      ],
      [
       66.2866856,
       25.1007552
      ],
      [
       66.2928578,
       25.1236354
      ],
      [
       66.2997446,
       25.1463481
      ],
      [
       66.3073408,
       25.1688751
      ],
      [
       66.3156407,
       25.1911982
      ],
      [
       66.324638,
       25.2132994
      ],
      [
       66.3343259,
       25.235161
      ],
      [
       66.3446969,
       25.2567654
      ],
      [
       66.355743,
       25.278095
      ],
      [
       66.3674557,
       25.2991327
      ],
      [
       66.3798258,
       25.3198616
      ],
      [
       66.3928438,
       25.3402648
      ],
      [
       66.4064994,
       25.3603259
      ],
      [
       66.4207818,
       25.3800286
      ],
      [
       66.4356799,
       25.3993571
      ],
      [
       66.4511819,
       25.4182957
      ],
      [
       66.4672756,
       25.436829
      ],
      [
       66.483948,
       25.4549421
      ],
      [
       66.5011861,
       25.4726202
      ],
      [
       66.5189761,
       25.489849
      ],
      [
       66.5373037,
       25.5066146
      ],
      [
       66.5561544,
       25.5229033
      ],
      [
       66.5755131,
       25.5387019
      ],
      [
       66.5761657,
       25.5392189
      ],
      [
       67.5574725,
       25.672246
      ]
     ]
    ]
   }
  },
  {
   "type": "Feature",
   "properties": {
    "ll": {
     "value": 150,
     "unit": 6,
     "referenceDatum": 2
    },
    "ul": {
     "value": 155,
     "unit": 6,
     "referenceDatum": 2
    },
    "_id": "62614edccb27f4250945c606",
    "name": "KARACHI TMA",
    "type": 0,
    "icao": 2,
    "bnd": [
     [
      24.0791963,
      66.2634562
     ],
     [
      25.672246,
      68.0997903
     ]
    ]
   },
   "geometry": {
    "type": "Polygon",
    "coordinates": [
     [
      [
       67.5574725,
       25.672246
      ],
      [
       67.5811603,
       25.6623011
      ],
      [
       67.6045224,
       25.6517527
      ],
      [
       67.6275401,
       25.6406094
      ],
      [
       67.6501946,
       25.6288803
      ],
      [
       67.6724677,
       25.6165748
      ],
      [
       67.6943412,
       25.6037031
      ],
      [
       67.7157975,
       25.5902757
      ],
      [
       67.7368193,
       25.5763033
      ],
      [
       67.7573897,
       25.5617975
      ],
      [
       67.7774922,
       25.54677
      ],
      [
       67.7971105,
       25.531233
      ],
      [
       67.8162289,
       25.5151992
      ],
      [
       67.8348321,
       25.4986815
      ],
      [
       67.8529053,
       25.4816934
      ],
      [
       67.8704339,
       25.4642486
      ],
      [
       67.8874041,
       25.4463614
      ],
      [
       67.9038022,
       25.4280461
      ],
      [
       67.9196154,
       25.4093177
      ],
      [
       67.934831,
       25.3901914
      ],
      [
       67.9494371,
       25.3706825
      ],
      [
       67.9634221,
       25.3508069
      ],
      [
       67.9767751,
       25.3305807
      ],
      [
       67.9894855,
       25.3100202
      ],
      [
       68.0015434,
       25.289142
      ],
      [
       68.0129394,
       25.267963
      ],
      [
       68.0236648,
       25.2465003
      ],
      [
       68.0337111,
       25.2247711
      ],
      [
       68.0430707,
       25.2027931
      ],
      [
       68.0517364,
       25.1805839
      ],
      [
       68.0597016,
       25.1581613
      ],
      [
       68.0669603,
       25.1355435
      ],
      [
       68.0735071,
       25.1127487
      ],
      [
       68.079337,
       25.0897951
      ],
      [
       68.0844458,
       25.0667012
      ],
      [
       68.0888299,
       25.0434856
      ],
      [
       68.0924861,
       25.0201668
      ],
      [
       68.0954118,
       24.9967636
      ],
      [
       68.0976052,
       24.9732948
      ],
      [
       68.099065,
       24.9497791
      ],
      [
       68.0997903,
       24.9262354
      ],
      [
       68.0997811,
       24.9026825
      ],
      [
       68.0990377,
       24.8791392
      ],
      [
       68.0975612,
       24.8556245
      ],
      [
       68.0953532,
       24.832157
      ],
      [
       68.0924158,
       24.8087554
      ],
      [
       68.0887518,
       24.7854386
      ],
      [
       68.0843645,
       24.762225
      ],
      [
       68.0792578,
       24.7391332
      ],
      [
       68.0734362,
       24.7161815
      ],
      [
       68.0669048,
       24.6933883
      ],
      [
       68.059669,
       24.6707717
      ],
      [
       68.0517351,
       24.6483496
      ],
      [
       68.0431097,
       24.6261399
      ],
      [
       68.0338001,
       24.6041602
      ],
      [
       68.0238139,
       24.5824281
      ],
      [
       68.0131595,
       24.5609606
      ],
      [
       68.0018456,
       24.5397749
      ],
      [
       67.9898816,
       24.5188878
      ],
      [
       67.9772772,
       24.4983158
      ],
      [
       67.9640427,
       24.4780752
      ],
      [
       67.9501889,
       24.4581821
      ],
      [
       67.9357271,
       24.4386521
      ],
      [
       67.920669,
       24.4195008
      ],
      [
       67.9050267,
       24.4007432
      ],
      [
       67.8888129,
       24.3823942
      ],
      [
       67.8720406,
       24.3644683
      ],
      [
       67.8547233,
       24.3469797
      ],
      [
       67.8368748,
       24.3299421
      ],
      [
       67.8185096,
       24.313369
      ],
      [
       67.7996421,
       24.2972734
      ],
      [
       67.7802876,
       24.2816681
      ],
      [
       67.7604614,
       24.2665654
      ],
      [
       67.7401793,
       24.2519771
      ],
      [
       67.7194574,
       24.2379148
      ],
      [
       67.6983122,
       24.2243894
      ],
      [
       67.6767605,
       24.2114118
      ],
      [
       67.6548193,
       24.198992
      ],
      [
       67.632506,
       24.1871399
      ],
      [
       67.6098382,
       24.1758647
      ],
      [
       67.5868339,
       24.1651753
      ],
      [
       67.5635112,
       24.1550802
      ],
      [
       67.5398885,
       24.1455873
      ],
      [
       67.5159845,
       24.1367039
      ],
      [
       67.4918179,
       24.1284372
      ],
      [
       67.4674077,
       24.1207936
      ],
      [
       67.4427733,
       24.1137791
      ],
      [
       67.4179339,
       24.1073992
      ],
      [
       67.3929091,
       24.1016589
      ],
      [
       67.3677186,
       24.0965627
      ],
      [
       67.3423821,
       24.0921146
      ],
      [
       67.3169195,
       24.0883182
      ],
      [
       67.2913508,
       24.0851763
      ],
      [
       67.265696,
       24.0826915
      ],
      [
       67.2399754,
       24.0808657
      ],
      [
       67.214209,
       24.0797003
      ],
      [
       67.1884171,
       24.0791963
      ],
      [
       67.1626199,
       24.079354
      ],
      [
       67.1368377,
       24.0801734
      ],
      [
       67.1110906,
       24.0816537
      ],
      [
       67.0853988,
       24.0837939
      ],
      [
       67.0597826,
       24.0865922
      ],
      [
       67.034262,
       24.0900464
      ],
      [
       67.008857,
       24.0941538
      ],
      [
       66.9835876,
       24.0989113
      ],
      [
       66.9584736,
       24.1043151
      ],
      [
       66.9335347,
       24.1103608
      ],
      [
       66.9087906,
       24.1170439
      ],
      [
       66.8842607,
       24.124359
      ],
      [
       66.8599643,
       24.1323005
      ],
      [
       66.8359204,
       24.1408619
      ],
      [
       66.8121482,
       24.1500367
      ],
      [
       66.7886662,
       24.1598177
      ],
      [
       66.765493,
       24.1701971
      ],
      [
       66.7426468,
       24.1811668
      ],
      [
       66.7201458,
       24.1927181
      ],
      [
       66.6980077,
       24.204842
      ],
      [
       66.67625,
       24.217529
      ],
      [
       66.65489,
       24.230769
      ],
      [
       66.6339445,
       24.2445516
      ],
      [
       66.6134302,
       24.2588661
      ],
      [
       66.5933634,
       24.2737011
      ],
      [
       66.5737601,
       24.2890449
      ],
      [
       66.5546358,
       24.3048854
      ],
      [
       66.5360059,
       24.3212102
      ],
      [
       66.5178852,
       24.3380064
      ],
      [
       66.5002882,
       24.3552607
      ],
      [
       66.4832289,
       24.3729595
      ],
      [
       66.4667212,
       24.3910889
      ],
      [
       66.4507782,
       24.4096344
      ],
      [
       66.4354128,
       24.4285816
      ],
      [
       66.4206375,
       24.4479153
      ],
      [
       66.4064641,
       24.4676204
      ],
      [
       66.3929042,
       24.4876811
      ],
      [
       66.3799687,
       24.5080817
      ],
      [
       66.3676683,
       24.528806
      ],
      [
       66.356013,
       24.5498375
      ],
      [
       66.3450123,
       24.5711596
      ],
      [
       66.3346754,
       24.5927553
      ],
      [
       66.3250107,
       24.6146076
      ],
      [
       66.3160263,
       24.6366991
      ],
      [
       66.3077296,
       24.6590123
      ],
      [
       66.3001277,
       24.6815293
      ],
      [
       66.2932269,
       24.7042324
      ],
      [
       66.2870332,
       24.7271034
      ],
      [
       66.2815518,
       24.7501242
      ],
      [
       66.2767876,
       24.7732763
      ],
      [
       66.2727446,
       24.7965415
      ],
      [
       66.2694266,
       24.819901
      ],
      [
       66.2668365,
       24.8433363
      ],
      [
       66.2649769,
       24.8668287
      ],
      [
       66.2638497,
       24.8903594
      ],
      [
       66.2634562,
       24.9139096
      ],
      [
       66.2637971,
       24.9374604
      ],
      [
       66.2648726,
       24.9609931
      ],
      [
       66.2666822,
       24.9844888
      ],
      [
       66.2692249,
       25.0079287
      ],
      [
       66.2724991,
       25.031294
      ],
      [
       66.2765026,
       25.0545659
      ],
      [
       66.2812326,
       25.0777258
      ],
      [
       66.2866856,
       25.1007552
      ],
      [
       66.2928578,
       25.1236354
      ],
      [
       66.2997446,
       25.1463481
      ],
      [
       66.3073408,
       25.1688751
      ],
      [
       66.3156407,
       25.1911982
      ],
      [
       66.324638,
       25.2132994
      ],
      [
       66.3343259,
       25.235161
      ],
      [
       66.3446969,
       25.2567654
      ],
      [
       66.355743,
       25.278095
      ],
      [
       66.3674557,
       25.2991327
      ],
      [
       66.3798258,
       25.3198616
      ],
      [
       66.3928438,
       25.3402648
      ],
      [
       66.4064994,
       25.3603259
      ],
      [
       66.4207818,
       25.3800286
      ],
      [
       66.4356799,
       25.3993571
      ],
      [
       66.4511819,
       25.4182957
      ],
      [
       66.4672756,
       25.436829
      ],
      [
       66.483948,
       25.4549421
      ],
      [
       66.5011861,
       25.4726202
      ],
      [
       66.5189761,
       25.489849
      ],
      [
       66.5373037,
       25.5066146
      ],
      [
       66.5561544,
       25.5229033
      ],
      [
       66.5755131,
       25.5387019
      ],
      [
       66.5761657,
       25.5392189
      ],
      [
       67.5574725,
       25.672246
      ]
     ]
    ]
   }
  },
  {
   "type": "Feature",
   "properties": {
    "ll": {
     "value": 155,
     "unit": 6,
     "referenceDatum": 2
    },
    "ul": {
     "value": 250,
     "unit": 6,
     "referenceDatum": 2
    },
    "_id": "62614edccb27f4250945c610",
    "name": "KARACHI TMA",
    "type": 0,
    "icao": 0,
    "bnd": [
     [
      25.5392189,
      66.5761657
     ],
     [
      25.7446851,
      67.5574725
     ]
    ]
   },
   "geometry": {
    "type": "Polygon",
    "coordinates": [
     [
      [
       66.5761657,
       25.5392189
      ],
      [
       66.5960328,
       25.5544977
      ],
      [
       66.616376,
       25.5692607
      ],
      [
       66.6371787,
       25.5834959
      ],
      [
       66.6584242,
       25.5971917
      ],
      [
       66.6800955,
       25.6103371
      ],
      [
       66.7021749,
       25.6229213
      ],
      [
       66.7246448,
       25.6349341
      ],
      [
       66.7474868,
       25.6463657
      ],
      [
       66.7706825,
       25.6572068
      ],
      [
       66.7942131,
       25.6674484
      ],
      [
       66.8180595,
       25.6770824
      ],
      [
       66.8422023,
       25.6861009
      ],
      [
       66.866622,
       25.6944964
      ],
      [
       66.8912986,
       25.7022622
      ],
      [
       66.9162121,
       25.7093918
      ],
      [
       66.9413422,
       25.7158796
      ],
      [
       66.9666684,
       25.7217201
      ],
      [
       66.99217,
       25.7269087
      ],
      [
       67.0178264,
       25.731441
      ],
      [
       67.0436165,
       25.7353134
      ],
      [
       67.0695194,
       25.7385228
      ],
      [
       67.0955138,
       25.7410664
      ],
      [
       67.1215786,
       25.7429423
      ],
      [
       67.1476924,
       25.7441489
      ],
      [
       67.173834,
       25.7446851
      ],
      [
       67.199982,
       25.7445507
      ],
      [
       67.226115,
       25.7437456
      ],
      [
       67.2522118,
       25.7422705
      ],
      [
       67.2782509,
       25.7401267
      ],
      [
       67.3042111,
       25.7373159
      ],
      [
       67.3300713,
       25.7338404
      ],
      [
       67.3558104,
       25.729703
      ],
      [
       67.3814072,
       25.724907
      ],
      [
       67.406841,
       25.7194566
      ],
      [
       67.4320911,
       25.7133559
      ],
      [
       67.4571368,
       25.7066102
      ],
      [
       67.4819577,
       25.6992247
      ],
      [
       67.5065337,
       25.6912057
      ],
      [
       67.5308447,
       25.6825596
      ],
      [
       67.5548711,
       25.6732935
      ],
      [
       67.5574725,
       25.672246
      ],
      [
       66.5761657,
       25.5392189
      ]
     ]
    ]
   }
  },
  {
   "type": "Feature",
   "properties": {
    "ll": {
     "value": 50,
     "unit": 6,
     "referenceDatum": 2
    },
    "ul": {
     "value": 155,
     "unit": 6,
     "referenceDatum": 2
    },
    "_id": "62614eddcb27f4250945c61b",
    "name": "KARACHI TMA",
    "type": 0,
    "icao": 2,
    "bnd": [
     [
      25.5392189,
      66.5761657
     ],
     [
      25.7446851,
      67.5574725
     ]
    ]
   },
   "geometry": {
    "type": "Polygon",
    "coordinates": [
     [
      [
       66.5761657,
       25.5392189
      ],
      [
       66.5960328,
       25.5544977
      ],
      [
       66.616376,
       25.5692607
      ],
      [
       66.6371787,
       25.5834959
      ],
      [
       66.6584242,
       25.5971917
      ],
      [
       66.6800955,
       25.6103371
      ],
      [
       66.7021749,
       25.6229213
      ],
      [
       66.7246448,
       25.6349341
      ],
      [
       66.7474868,
       25.6463657
      ],
      [
       66.7706825,
       25.6572068
      ],
      [
       66.7942131,
       25.6674484
      ],
      [
       66.8180595,
       25.6770824
      ],
      [
       66.8422023,
       25.6861009
      ],
      [
       66.866622,
       25.6944964
      ],
      [
       66.8912986,
       25.7022622
      ],
      [
       66.9162121,
       25.7093918
      ],
      [
       66.9413422,
       25.7158796
      ],
      [
       66.9666684,
       25.7217201
      ],
      [
       66.99217,
       25.7269087
      ],
      [
       67.0178264,
       25.731441
      ],
      [
       67.0436165,
       25.7353134
      ],
      [
       67.0695194,
       25.7385228
      ],
      [
       67.0955138,
       25.7410664
      ],
      [
       67.1215786,
       25.7429423
      ],
      [
       67.1476924,
       25.7441489
      ],
      [
       67.173834,
       25.7446851
      ],
      [
       67.199982,
       25.7445507
      ],
      [
       67.226115,
       25.7437456
      ],
      [
       67.2522118,
       25.7422705
      ],
      [
       67.2782509,
       25.7401267
      ],
      [
       67.3042111,
       25.7373159
      ],
      [
       67.3300713,
       25.7338404
      ],
      [
       67.3558104,
       25.729703
      ],
      [
       67.3814072,
       25.724907
      ],
      [
       67.406841,
       25.7194566
      ],
      [
       67.4320911,
       25.7133559
      ],
      [
       67.4571368,
       25.7066102
      ],
      [
       67.4819577,
       25.6992247
      ],
      [
       67.5065337,
       25.6912057
      ],
      [
       67.5308447,
       25.6825596
      ],
      [
       67.5548711,
       25.6732935
      ],
      [
       67.5574725,
       25.672246
      ],
      [
       66.5761657,
       25.5392189
      ]
     ]
    ]
   }
  },
  {
   "type": "Feature",
   "properties": {
    "ll": {
     "value": 75,
     "unit": 6,
     "referenceDatum": 2
    },
    "ul": {
     "value": 155,
     "unit": 6,
     "referenceDatum": 2
    },
    "_id": "62614eddcb27f4250945c629",
    "name": "LAHORE CTA ABOVE FL 155 (132.55 MHZ)",
    "type": 0,
    "icao": 2,
    "bnd": [
     [
      30.9998486,
      73.9992407
     ],
     [
      31,
      74
     ]
    ]
   },
   "geometry": {
    "type": "Polygon",
    "coordinates": [
     [
      [
       73.9992407,
       30.9998486
      ],
      [
       73.9994444,
       31
      ],
      [
       74,
       31
      ],
      [
       73.9992407,
       30.9998486
      ]
     ]
    ]
   }
  },
  {
   "type": "Feature",
   "properties": {
    "ll": {
     "value": 155,
     "unit": 6,
     "referenceDatum": 2
    },
    "ul": {
     "value": 999,
     "unit": 6,
     "referenceDatum": 2
    },
    "_id": "62614eddcb27f4250945c635",
    "name": "LAHORE CTA ABOVE FL 155 (132.55 MHZ)",
    "type": 0,
    "icao": 0,
    "bnd": [
     [
      30.9998486,
      73.9992407
     ],
     [
      31,
      74
     ]
    ]
   },
   "geometry": {
    "type": "Polygon",
    "coordinates": [
     [
      [
       73.9992407,
       30.9998486
      ],
      [
       73.9994444,
       31
      ],
      [
       74,
       31
      ],
      [
       73.9992407,
       30.9998486
      ]
     ]
    ]
   }
  }
 ]
}